{
  "nbformat": 4,
  "nbformat_minor": 0,
  "metadata": {
    "colab": {
      "provenance": []
    },
    "kernelspec": {
      "name": "python3",
      "display_name": "Python 3"
    },
    "language_info": {
      "name": "python"
    }
  },
  "cells": [
    {
      "cell_type": "code",
      "execution_count": 3,
      "metadata": {
        "colab": {
          "base_uri": "https://localhost:8080/"
        },
        "id": "a5zTl77zmcsa",
        "outputId": "49a0f0c2-e815-4035-a18b-fa415129ad8e"
      },
      "outputs": [
        {
          "output_type": "stream",
          "name": "stdout",
          "text": [
            "Drive already mounted at /content/drive; to attempt to forcibly remount, call drive.mount(\"/content/drive\", force_remount=True).\n"
          ]
        }
      ],
      "source": [
        "from google.colab import drive\n",
        "drive.mount('/content/drive')"
      ]
    },
    {
      "cell_type": "code",
      "source": [
        "import os\n",
        "os.chdir('/content/drive/MyDrive/Final Year Project/Data')\n",
        "!pwd"
      ],
      "metadata": {
        "id": "TPbjLpm8moh0",
        "colab": {
          "base_uri": "https://localhost:8080/"
        },
        "outputId": "6d01bc0c-d335-4926-f6a8-3d2959a384fe"
      },
      "execution_count": 4,
      "outputs": [
        {
          "output_type": "stream",
          "name": "stdout",
          "text": [
            "/content/drive/MyDrive/Final Year Project/Data\n"
          ]
        }
      ]
    },
    {
      "cell_type": "markdown",
      "source": [
        "# Metar weather data collection"
      ],
      "metadata": {
        "id": "yzt3tXb0mqbL"
      }
    },
    {
      "cell_type": "markdown",
      "source": [
        " from https://www.ogimet.com/display_metars2.php?lang=en&lugar=EIDW&tipo=ALL&ord=REV&nil=SI&fmt=html&ano=2025&mes=02&day=09&hora=14&anof=2025&mesf=02&dayf=10&horaf=14&minf=59&send=send using data scraping\n"
      ],
      "metadata": {
        "id": "rypBO5FSnCr6"
      }
    },
    {
      "cell_type": "code",
      "source": [
        "pip install metar"
      ],
      "metadata": {
        "id": "cQ3tOXTRn0Sx",
        "colab": {
          "base_uri": "https://localhost:8080/"
        },
        "outputId": "164308f8-5baa-4963-bf5c-357ebee8e771"
      },
      "execution_count": null,
      "outputs": [
        {
          "output_type": "stream",
          "name": "stdout",
          "text": [
            "Requirement already satisfied: metar in /usr/local/lib/python3.11/dist-packages (1.11.0)\n"
          ]
        }
      ]
    },
    {
      "cell_type": "code",
      "source": [
        "import requests\n",
        "from bs4 import BeautifulSoup\n",
        "\n",
        "# URL for Ogimet METAR data\n",
        "url = \"https://www.ogimet.com/display_metars2.php?lang=en&lugar=EIDW&tipo=ALL&ord=REV&nil=SI&fmt=html&ano=2024&mes=02&day=01&hora=01&anof=2024&mesf=02&dayf=29&horaf=23&minf=59&send=send\"\n",
        "# Request page content\n",
        "response = requests.get(url)\n",
        "soup = BeautifulSoup(response.text, 'html.parser')\n",
        "\n",
        "# Extract METAR strings from <pre> tags\n",
        "metar_strings = [pre.get_text().strip() for pre in soup.find_all('pre')]\n",
        "\n",
        "# Display extracted METAR data\n",
        "for metar in metar_strings:\n",
        "    print(metar)"
      ],
      "metadata": {
        "id": "X691JQ02nqiS",
        "colab": {
          "base_uri": "https://localhost:8080/"
        },
        "outputId": "29c8e001-c5e0-4223-b2f5-b7d5d0602ab2"
      },
      "execution_count": null,
      "outputs": [
        {
          "output_type": "stream",
          "name": "stdout",
          "text": [
            "METAR EIDW 292330Z 13007KT 100V160 9999 FEW022 SCT060 BKN120 03/M01 Q0992 NOSIG=\n",
            "METAR EIDW 292300Z 15007KT 120V190 9999 FEW022 BKN120 04/M01 Q0993 NOSIG=\n",
            "METAR EIDW 292230Z 15007KT 9999 FEW022 BKN140 04/M02 Q0993 NOSIG=\n",
            "METAR EIDW 292200Z 13005KT 9999 FEW022 SCT140 BKN170 03/M02 Q0994 NOSIG=\n",
            "METAR EIDW 292130Z 17007KT 9999 FEW022 02/M01 Q0995 NOSIG=\n",
            "METAR EIDW 292100Z 18007KT 9999 FEW022 02/M01 Q0995 NOSIG=\n",
            "METAR EIDW 292030Z 19007KT 9999 FEW022 02/M01 Q0996 NOSIG=\n",
            "METAR EIDW 292000Z 20007KT 170V230 9999 FEW015 03/M00 Q0997 NOSIG=\n",
            "METAR EIDW 291930Z 20007KT 170V230 9999 FEW015 03/M00 Q0997 NOSIG=\n",
            "METAR EIDW 291900Z 19006KT 160V220 9999 FEW015 03/01 Q0997 NOSIG=\n",
            "METAR EIDW 291830Z 22006KT 190V270 9999 FEW016 03/01 Q0998 NOSIG=\n",
            "METAR EIDW 291800Z 23007KT 180V270 9999 FEW018CB 03/01 Q0998 NOSIG=\n",
            "METAR EIDW 291730Z 23006KT 190V270 9999 -SHRA FEW018CB SCT048 04/02 Q0998 NOSIG=\n",
            "METAR EIDW 291700Z 28010KT 9999 -SHRA FEW018CB SCT026 03/02 Q0999 NOSIG=\n",
            "METAR EIDW 291630Z 24008G18KT 190V280 9999 FEW018CB SCT026 06/01 Q0998 NOSIG=\n",
            "METAR EIDW 291600Z 23010KT 180V270 9999 FEW018CB SCT024 06/01 Q0998 NOSIG=\n",
            "METAR EIDW 291530Z 24010G21KT 180V290 9999 VCSH FEW012 FEW018CB SCT048 07/01 Q0999 NOSIG=\n",
            "METAR EIDW 291500Z 24010KT 200V290 9999 VCSH FEW012 SCT018CB 07/00 Q0999 NOSIG=\n",
            "METAR EIDW 291430Z 24011KT 200V280 9999 -SHRA FEW012 FEW018CB SCT032 07/01 Q0999 NOSIG=\n",
            "METAR EIDW 291400Z 23010G25KT 200V270 9999 -SHRA FEW012 SCT018CB 07/M00 Q0999 NOSIG=\n",
            "METAR EIDW 291330Z 25013G26KT 210V280 9999 VCSH FEW018CB SCT032 08/00 Q0999 NOSIG=\n",
            "METAR EIDW 291300Z 23011G21KT 190V270 9999 FEW018CB SCT032 08/01 Q1000 NOSIG=\n",
            "METAR EIDW 291230Z 24012KT 190V280 9999 FEW018 SCT026 08/02 Q1000 NOSIG=\n",
            "METAR EIDW 291200Z 24010KT 190V320 9999 FEW018 SCT024 07/02 Q1000 NOSIG=\n",
            "METAR EIDW 291130Z 25011G22KT 210V300 9999 FEW016 SCT024 07/02 Q1001 NOSIG=\n",
            "METAR EIDW 291100Z 24009KT 160V350 9999 FEW016 SCT022 07/02 Q1001 NOSIG=\n",
            "METAR EIDW 291030Z 23010G20KT 180V290 9999 FEW018 SCT220 07/02 Q1001 NOSIG=\n",
            "METAR EIDW 291000Z 24009KT 190V290 9999 FEW016 SCT230 06/03 Q1001 NOSIG=\n",
            "METAR EIDW 290930Z 24009G19KT 190V280 9999 FEW012 BKN230 06/02 Q1001 NOSIG=\n",
            "METAR EIDW 290900Z 22008KT 190V280 9999 FEW012 SCT028 BKN220 05/02 Q1001 NOSIG=\n",
            "METAR EIDW 290830Z 22007KT 170V280 9999 FEW010 SCT150 05/02 Q1001 TEMPO BKN010=\n",
            "METAR EIDW 290800Z 23006KT 200V270 9999 FEW010 SCT030 BKN150 05/02 Q1001 TEMPO BKN010=\n",
            "METAR EIDW 290730Z 23007KT 150V280 9999 FEW010 SCT030 BKN150 05/02 Q1001 TEMPO BKN010=\n",
            "METAR EIDW 290700Z 22008KT 190V280 9999 FEW010 BKN150 05/02 Q1001 TEMPO BKN010=\n",
            "METAR EIDW 290630Z 23007KT 200V280 9999 FEW010 SCT140 05/02 Q1001 TEMPO BKN010=\n",
            "METAR EIDW 290600Z 23008KT 190V280 9999 FEW010 SCT200 05/02 Q1001 TEMPO BKN010=\n",
            "METAR EIDW 290530Z 23008KT 180V280 9999 FEW010 SCT200 05/02 Q1001 TEMPO BKN010=\n",
            "METAR EIDW 290500Z 23007KT 190V270 9999 FEW010 SCT200 06/02 Q1001 TEMPO BKN010=\n",
            "METAR EIDW 290430Z 24009KT 200V280 9999 FEW010 SCT200 06/03 Q1001 TEMPO BKN010=\n",
            "METAR EIDW 290400Z 25009KT 210V280 9999 FEW010 SCT200 06/03 Q1001 TEMPO BKN010=\n",
            "METAR EIDW 290330Z 24009KT 200V280 9999 FEW010 SCT030 06/03 Q1001 TEMPO BKN010=\n",
            "METAR EIDW 290300Z 23008KT 190V280 9999 FEW010 SCT030 07/03 Q1002 TEMPO BKN010=\n",
            "METAR EIDW 290230Z 25008KT 210V280 9999 FEW010 SCT030 07/04 Q1002 TEMPO BKN010=\n",
            "METAR EIDW 290200Z 25010G21KT 210V280 9999 FEW010 SCT200 07/04 Q1002 TEMPO BKN010=\n",
            "METAR EIDW 290130Z 25011KT 200V280 9999 FEW010 BKN200 07/04 Q1002 TEMPO BKN010=\n",
            "METAR EIDW 290100Z 25014G29KT 220V280 9999 FEW010 BKN200 08/04 Q1002 TEMPO BKN010=\n",
            "METAR EIDW 290030Z 25010KT 200V290 9999 FEW006 SCT020 BKN200 08/05 Q1002 TEMPO BKN010=\n",
            "METAR EIDW 290000Z 25012KT 210V280 9999 FEW006 SCT020 BKN100 08/06 Q1002 TEMPO BKN010=\n",
            "METAR EIDW 282330Z 25013KT 210V280 9999 FEW006 SCT020 BKN100 09/06 Q1001 TEMPO BKN010=\n",
            "METAR EIDW 282300Z 25010KT 200V280 9999 FEW006 SCT010 BKN100 09/07 Q1002 TEMPO BKN010=\n",
            "METAR EIDW 282230Z 25012G24KT 200V280 9999 FEW006 SCT010 BKN020 10/07 Q1002 TEMPO BKN010=\n",
            "METAR EIDW 282200Z 24011KT 190V280 9999 -RADZ FEW006 SCT010 BKN020 10/08 Q1002 TEMPO BKN010=\n",
            "METAR EIDW 282130Z 23008KT 190V260 9999 -RADZ FEW010 SCT014 BKN060 10/09 Q1002 TEMPO BKN010=\n",
            "METAR EIDW 282100Z 23008KT 170V270 9999 -RADZ FEW010 SCT014 BKN060 10/09 Q1002 TEMPO BKN010=\n",
            "METAR EIDW 282030Z 23008KT 170V260 9999 -RADZ FEW012 SCT034 BKN041 11/09 Q1003 TEMPO BKN010=\n",
            "METAR EIDW 282000Z 24008KT 200V280 9999 -RADZ FEW010 SCT015 BKN036 11/09 Q1003 TEMPO BKN010=\n",
            "METAR EIDW 281930Z 24011KT 200V280 9999 -RADZ FEW007 SCT014 BKN037 11/09 Q1003 TEMPO BKN010=\n",
            "METAR EIDW 281900Z 22011KT 190V250 6000 -RADZ FEW007 SCT009 BKN012 12/11 Q1003 TEMPO BKN008=\n",
            "METAR EIDW 281830Z 21010KT 150V260 8000 -RADZ FEW007 SCT009 BKN011 12/11 Q1003 TEMPO BKN008=\n",
            "METAR EIDW 281800Z 22010KT 190V270 8000 -RADZ FEW009 SCT011 BKN013 12/11 Q1003 TEMPO BKN008=\n",
            "METAR EIDW 281730Z 22011KT 180V260 9999 -DZ FEW009 SCT012 BKN015 12/11 Q1004 TEMPO BKN008=\n",
            "METAR EIDW 281700Z 22012KT 190V270 9999 -RADZ FEW006 SCT008 BKN010 12/11 Q1004 TEMPO BKN008=\n",
            "METAR EIDW 281630Z 22011KT 190V250 9999 -RADZ FEW006 SCT008 BKN010 12/11 Q1005 TEMPO BKN008=\n",
            "METAR EIDW 281600Z 22010KT 170V260 8000 -RADZ FEW006 SCT008 BKN010 12/11 Q1005 TEMPO BKN008=\n",
            "METAR EIDW 281530Z 22011KT 190V260 8000 -RADZ FEW007 SCT009 BKN012 12/11 Q1006 TEMPO BKN008=\n",
            "METAR EIDW 281500Z 22009KT 190V260 6000 -RADZ FEW006 SCT009 BKN011 12/11 Q1006 TEMPO BKN008=\n",
            "METAR EIDW 281430Z 22010KT 180V280 4000 -RADZ FEW006 SCT008 BKN010 12/11 Q1006 TEMPO BKN008=\n",
            "METAR EIDW 281400Z 22011KT 190V250 9999 -RADZ SCT010 BKN013 12/10 Q1007 TEMPO BKN010=\n",
            "METAR EIDW 281330Z 22010KT 190V270 9999 SCT010 BKN012 12/10 Q1007 TEMPO BKN010=\n",
            "METAR EIDW 281300Z 22011KT 180V280 9999 SCT011 BKN012 12/10 Q1008 TEMPO BKN010=\n",
            "METAR EIDW 281230Z 23011KT 200V270 9999 SCT011 BKN013 12/10 Q1008 TEMPO BKN010=\n",
            "METAR EIDW 281200Z 24012KT 190V280 9999 SCT009 BKN011 12/10 Q1009 TEMPO BKN010=\n",
            "METAR EIDW 281130Z 23009G19KT 200V280 9999 SCT009 BKN011 11/09 Q1009 TEMPO BKN010=\n",
            "METAR EIDW 281100Z 23011KT 200V280 9999 SCT009 BKN011 11/09 Q1009 TEMPO BKN010=\n",
            "METAR EIDW 281030Z 23010KT 190V280 9999 FEW009 BKN013 11/09 Q1009 TEMPO BKN010=\n",
            "METAR EIDW 281000Z 23009KT 190V280 9999 FEW010 SCT014 BKN038 10/08 Q1010 TEMPO BKN010=\n",
            "METAR EIDW 280930Z 20006KT 160V240 9999 -RADZ FEW008 SCT014 BKN017 10/08 Q1010 TEMPO BKN010=\n",
            "METAR EIDW 280900Z 16005KT 130V190 9999 -RADZ FEW008 SCT017 BKN020 09/07 Q1010 TEMPO BKN010=\n",
            "METAR EIDW 280830Z 16006KT 9999 -RA SCT014 BKN020 08/06 Q1011 TEMPO BKN010=\n",
            "METAR EIDW 280800Z 16005KT 130V190 6000 -RA SCT010 BKN020 06/05 Q1011 TEMPO BKN010=\n",
            "METAR EIDW 280730Z 16007KT 4000 -RA SCT010 BKN020 06/04 Q1011 TEMPO BKN010=\n",
            "METAR EIDW 280700Z 15008KT 9999 -RA SCT010 BKN020 06/04 Q1011 NOSIG=\n",
            "METAR EIDW 280630Z 16007KT 9999 -RA SCT010 BKN030 06/03 Q1012 NOSIG=\n",
            "METAR EIDW 280600Z 16007KT 120V180 9999 -RA SCT015 BKN040 07/03 Q1013 NOSIG=\n",
            "METAR EIDW 280530Z 15006KT 9999 -RA SCT015 BKN050 07/02 Q1013 NOSIG=\n",
            "METAR EIDW 280500Z 20004KT 120V320 9999 -RA FEW015 BKN070 06/02 Q1014 NOSIG=\n",
            "METAR EIDW 280430Z VRB03KT 9999 -RA FEW015 BKN070 06/02 Q1015 NOSIG=\n",
            "METAR EIDW 280400Z VRB02KT 9999 FEW015 BKN070 06/02 Q1015 NOSIG=\n",
            "METAR EIDW 280330Z 19004KT 160V230 9999 FEW015 BKN100 06/02 Q1015 NOSIG=\n",
            "METAR EIDW 280300Z 18005KT 120V200 9999 FEW015 BKN100 05/02 Q1016 NOSIG=\n",
            "METAR EIDW 280230Z 20005KT 170V250 9999 FEW015 BKN100 05/02 Q1017 NOSIG=\n",
            "METAR EIDW 280200Z 18005KT 9999 FEW015 BKN120 05/02 Q1017 NOSIG=\n",
            "METAR EIDW 280130Z 19005KT 9999 FEW015 BKN150 05/02 Q1017 NOSIG=\n",
            "METAR EIDW 280100Z 19005KT 9999 FEW015 SCT040 05/02 Q1017 NOSIG=\n",
            "METAR EIDW 280030Z 21004KT 170V260 9999 FEW015 SCT040 05/02 Q1018 NOSIG=\n",
            "METAR EIDW 280000Z 22004KT 180V260 9999 FEW015 SCT040 05/02 Q1018 NOSIG=\n",
            "METAR EIDW 272330Z 25006KT 190V280 9999 FEW015 SCT040 06/02 Q1018 NOSIG=\n",
            "METAR EIDW 272300Z 23005KT 190V270 9999 FEW015 SCT040 05/02 Q1018 NOSIG=\n",
            "METAR EIDW 272230Z 24005KT 170V280 9999 FEW015 BKN038 05/02 Q1018 NOSIG=\n",
            "METAR EIDW 272200Z 25005KT 200V280 9999 FEW015 BKN038 06/02 Q1018 NOSIG=\n",
            "METAR EIDW 272130Z 24005KT 170V300 9999 FEW015 BKN038 07/02 Q1018 NOSIG=\n",
            "METAR EIDW 272100Z 25007KT 210V280 9999 FEW015 BKN038 07/02 Q1018 NOSIG=\n",
            "METAR EIDW 272030Z 23004KT 180V270 9999 FEW015 BKN040 07/02 Q1018 NOSIG=\n",
            "METAR EIDW 272000Z 22006KT 200V260 9999 FEW015 BKN040 07/02 Q1018 NOSIG=\n",
            "METAR EIDW 271930Z 24005KT 190V270 9999 FEW015 SCT044 07/02 Q1018 NOSIG=\n",
            "METAR EIDW 271900Z 25006KT 210V290 9999 FEW015 SCT044 08/02 Q1018 NOSIG=\n",
            "METAR EIDW 271830Z 27007KT 220V290 9999 FEW015 BKN044 08/02 Q1018 NOSIG=\n",
            "METAR EIDW 271800Z 27006KT 9999 FEW015 SCT046 07/02 Q1018 NOSIG=\n",
            "METAR EIDW 271730Z 28010KT 9999 FEW015 SCT046 08/02 Q1017 NOSIG=\n",
            "METAR EIDW 271700Z 27013KT 9999 FEW015 BKN046 09/02 Q1017 NOSIG=\n",
            "METAR EIDW 271630Z 28010KT 9999 FEW025 SCT045 09/02 Q1016 NOSIG=\n",
            "METAR EIDW 271600Z 29015KT 9999 FEW025 BKN042 09/02 Q1016 NOSIG=\n",
            "METAR EIDW 271530Z 28019KT 9999 FEW029 BKN043 09/02 Q1016 NOSIG=\n",
            "METAR EIDW 271500Z 28020KT 9999 FEW029 BKN040 09/03 Q1016 NOSIG=\n",
            "METAR EIDW 271430Z 29017KT 9999 FEW029 BKN042 11/04 Q1015 NOSIG=\n",
            "METAR EIDW 271400Z 29018KT 9999 FEW012 SCT029 BKN033 10/04 Q1015 NOSIG=\n",
            "METAR EIDW 271330Z 29015KT 9999 FEW012 SCT018 BKN025 10/05 Q1015 NOSIG=\n",
            "METAR EIDW 271300Z 28011KT 250V320 9999 FEW012 SCT018 BKN028 10/07 Q1015 NOSIG=\n",
            "METAR EIDW 271230Z 28014KT 9999 FEW009 SCT015 BKN022 09/08 Q1015 NOSIG=\n",
            "METAR EIDW 271200Z 25010KT 200V290 6000 -DZ FEW006 SCT008 BKN010 09/08 Q1015 TEMPO 4000=\n",
            "METAR EIDW 271130Z 24010G21KT 190V280 7000 -DZ FEW006 SCT009 BKN011 09/08 Q1014 TEMPO 4000=\n",
            "METAR EIDW 271100Z 23010KT 190V270 9999 FEW008 SCT010 BKN012 09/07 Q1014 TEMPO BKN010=\n",
            "METAR EIDW 271030Z 23012G24KT 190V270 9999 FEW009 SCT011 BKN014 08/06 Q1014 TEMPO BKN012=\n",
            "METAR EIDW 271000Z 23012KT 200V260 9999 FEW010 SCT012 BKN015 08/05 Q1014 TEMPO BKN012=\n",
            "METAR EIDW 270930Z 23012KT 190V270 9999 FEW010 SCT013 BKN016 07/05 Q1014 TEMPO BKN012=\n",
            "METAR EIDW 270900Z 22012G22KT 190V270 9999 FEW010 SCT021 BKN040 07/05 Q1014 NOSIG=\n",
            "METAR EIDW 270830Z 22013KT 190V260 9999 FEW016 SCT045 BKN070 07/04 Q1015 NOSIG=\n",
            "METAR EIDW 270800Z 23012KT 190V290 9999 FEW016 SCT070 BKN080 07/04 Q1015 NOSIG=\n",
            "METAR EIDW 270730Z 22013G26KT 190V260 9999 FEW018 SCT050 BKN070 06/03 Q1015 NOSIG=\n",
            "METAR EIDW 270700Z 22012KT 200V280 9999 -RA FEW015 BKN060 07/03 Q1015 NOSIG=\n",
            "METAR EIDW 270630Z 22013KT 190V260 9999 FEW015 BKN032 07/02 Q1016 NOSIG=\n",
            "METAR EIDW 270600Z 22010KT 190V290 9999 FEW015 BKN037 07/02 Q1017 NOSIG=\n",
            "METAR EIDW 270530Z 22012KT 190V270 9999 FEW015 SCT030 BKN036 07/02 Q1017 NOSIG=\n",
            "METAR EIDW 270500Z 22008KT 180V260 9999 FEW015 BKN032 06/01 Q1018 NOSIG=\n",
            "METAR EIDW 270430Z 21009KT 180V240 9999 FEW027 BKN033 06/00 Q1018 NOSIG=\n",
            "METAR EIDW 270400Z 21008KT 9999 FEW027 BKN030 06/00 Q1019 NOSIG=\n",
            "METAR EIDW 270330Z 20006KT 170V230 9999 FEW035 SCT070 BKN090 05/00 Q1019 NOSIG=\n",
            "METAR EIDW 270300Z 20005KT 170V240 9999 SCT035 BKN100 05/00 Q1020 NOSIG=\n",
            "METAR EIDW 270230Z 20006KT CAVOK 05/01 Q1021 NOSIG=\n",
            "METAR EIDW 270200Z 20005KT 170V230 CAVOK 04/01 Q1021 NOSIG=\n",
            "METAR EIDW 270130Z 21006KT 180V240 CAVOK 04/00 Q1022 NOSIG=\n",
            "METAR EIDW 270100Z 21007KT 190V250 CAVOK 03/M00 Q1021 NOSIG=\n",
            "METAR EIDW 270030Z 22005KT 190V260 CAVOK 03/M00 Q1022 NOSIG=\n",
            "METAR EIDW 270000Z 21005KT 170V230 CAVOK 02/M00 Q1022 NOSIG=\n",
            "METAR EIDW 262330Z 20005KT CAVOK 03/M00 Q1022 NOSIG=\n",
            "METAR EIDW 262300Z 22005KT 190V260 CAVOK 03/M00 Q1023 NOSIG=\n",
            "METAR EIDW 262230Z 23004KT 200V260 CAVOK 04/M00 Q1023 NOSIG=\n",
            "METAR EIDW 262200Z 24004KT 200V260 CAVOK 04/M00 Q1023 NOSIG=\n",
            "METAR EIDW 262130Z 21005KT CAVOK 02/M00 Q1023 NOSIG=\n",
            "METAR EIDW 262100Z VRB03KT 9999 FEW010 03/M00 Q1023 NOSIG=\n",
            "METAR EIDW 262030Z 27005KT 220V290 9999 FEW010 02/M01 Q1023 NOSIG=\n",
            "METAR EIDW 262000Z 27005KT 9999 FEW010 01/M01 Q1023 NOSIG=\n",
            "METAR EIDW 261930Z 28006KT 9999 FEW010 SCT230 01/M01 Q1023 NOSIG=\n",
            "METAR EIDW 261900Z 26005KT 9999 FEW010 SCT230 03/M01 Q1023 NOSIG=\n",
            "METAR EIDW 261830Z 30005KT 9999 FEW012 SCT230 03/M00 Q1023 NOSIG=\n",
            "METAR EIDW 261800Z 33006KT 9999 FEW012 SCT230 05/01 Q1023 NOSIG=\n",
            "METAR EIDW 261730Z 35006KT 9999 FEW018 SCT230 06/01 Q1022 NOSIG=\n",
            "METAR EIDW 261700Z 33008KT 9999 FEW018 SCT210 07/01 Q1023 NOSIG=\n",
            "METAR EIDW 261630Z 35007KT 9999 FEW018 SCT210 07/01 Q1022 NOSIG=\n",
            "METAR EIDW 261600Z 34009KT 9999 FEW018 SCT036 07/01 Q1022 NOSIG=\n",
            "METAR EIDW 261530Z 34012KT 9999 FEW018 SCT036 08/01 Q1022 NOSIG=\n",
            "METAR EIDW 261500Z 01011KT 340V050 9999 FEW018 SCT036 09/00 Q1022 NOSIG=\n",
            "METAR EIDW 261430Z 35012KT 9999 FEW017 SCT034 09/01 Q1021 NOSIG=\n",
            "METAR EIDW 261400Z 34013KT 9999 FEW014 SCT030 09/02 Q1021 NOSIG=\n",
            "METAR EIDW 261330Z 34013KT 9999 FEW014 SCT030 08/02 Q1021 NOSIG=\n",
            "METAR EIDW 261300Z 34011KT 310V020 9999 FEW014 SCT024 08/03 Q1021 NOSIG=\n",
            "METAR EIDW 261230Z 35011KT 9999 FEW012 SCT022 08/02 Q1021 NOSIG=\n",
            "METAR EIDW 261200Z 35014KT 320V020 9999 FEW012 SCT022 08/03 Q1021 NOSIG=\n",
            "METAR EIDW 261130Z 36013KT 9999 FEW012 SCT020 07/03 Q1020 NOSIG=\n",
            "METAR EIDW 261100Z 36013KT 9999 FEW012 SCT020 07/03 Q1020 NOSIG=\n",
            "METAR EIDW 261030Z 35011KT 9999 FEW010 SCT210 06/03 Q1020 NOSIG=\n",
            "METAR EIDW 261000Z 34013KT 9999 FEW010 SCT210 05/03 Q1020 NOSIG=\n",
            "METAR EIDW 260930Z 34011KT 9999 FEW012 SCT210 04/02 Q1020 NOSIG=\n",
            "METAR EIDW 260900Z 32007KT 9999 FEW012 03/02 Q1019 NOSIG=\n",
            "METAR EIDW 260830Z 32010KT 9999 FEW010 02/01 Q1019 NOSIG=\n",
            "METAR EIDW 260800Z 32010KT 9999 FEW010 02/00 Q1018 NOSIG=\n",
            "METAR EIDW 260730Z 32011KT 9999 FEW010 02/00 Q1017 NOSIG=\n",
            "METAR EIDW 260700Z 32007KT 9999 FEW012 02/00 Q1017 NOSIG=\n",
            "METAR EIDW 260630Z 32010KT 9999 FEW025 01/00 Q1016 NOSIG=\n",
            "METAR EIDW 260600Z 30006KT 270V340 9999 FEW015 02/00 Q1016 NOSIG=\n",
            "METAR EIDW 260530Z 30008KT 9999 FEW012 01/00 Q1016 NOSIG=\n",
            "METAR EIDW 260500Z 32009KT 9999 FEW015 02/00 Q1015 NOSIG=\n",
            "METAR EIDW 260430Z 34010KT 9999 FEW010 02/01 Q1014 NOSIG=\n",
            "METAR EIDW 260400Z 33010KT 9999 FEW010 02/01 Q1014 NOSIG=\n",
            "METAR EIDW 260330Z 34011KT 9999 FEW010 03/01 Q1013 NOSIG=\n",
            "METAR EIDW 260300Z 34011KT 9999 FEW010 SCT020 03/02 Q1012 NOSIG=\n",
            "METAR EIDW 260230Z 35011KT 9999 FEW010 SCT020 03/01 Q1012 NOSIG=\n",
            "METAR EIDW 260200Z 35013KT 9999 FEW010 BKN017 03/02 Q1011 NOSIG=\n",
            "METAR EIDW 260130Z 35011KT 9999 FEW010 BKN016 04/02 Q1010 NOSIG=\n",
            "METAR EIDW 260100Z 35009KT 9999 FEW010 SCT015 BKN016 04/02 Q1010 NOSIG=\n",
            "METAR EIDW 260030Z 35010KT 9999 FEW010 SCT014 BKN016 04/02 Q1009 NOSIG=\n",
            "METAR EIDW 260000Z 35010KT 9999 FEW010 SCT016 04/02 Q1008 NOSIG=\n",
            "METAR EIDW 252330Z 35009KT 9999 FEW010 SCT016 04/02 Q1008 NOSIG=\n",
            "METAR EIDW 252300Z 34009KT 9999 FEW010 SCT025 BKN060 04/02 Q1007 NOSIG=\n",
            "METAR EIDW 252230Z 35011KT 9999 FEW010 SCT017 BKN025 05/03 Q1007 NOSIG=\n",
            "METAR EIDW 252200Z 35011KT 9999 FEW015 BKN050 05/03 Q1006 NOSIG=\n",
            "METAR EIDW 252130Z 36010KT 9999 FEW015 BKN025 05/03 Q1006 NOSIG=\n",
            "METAR EIDW 252100Z 02014KT 9999 FEW012 SCT018 BKN023 05/04 Q1005 NOSIG=\n",
            "METAR EIDW 252030Z 02011KT 9999 FEW018 SCT024 BKN060 06/03 Q1004 NOSIG=\n",
            "METAR EIDW 252000Z 03013KT 340V080 9999 FEW018 SCT021 BKN180 06/03 Q1004 NOSIG=\n",
            "METAR EIDW 251930Z 02013KT 320V070 9999 FEW021 BKN180 06/03 Q1003 NOSIG=\n",
            "METAR EIDW 251900Z 02013KT 9999 FEW018 SCT240 06/02 Q1002 NOSIG=\n",
            "METAR EIDW 251830Z 02013KT 9999 FEW018 BKN190 06/02 Q1001 NOSIG=\n",
            "METAR EIDW 251800Z 02015KT 350V050 9999 FEW015 BKN140 06/02 Q1001 NOSIG=\n",
            "METAR EIDW 251730Z 03016KT 9999 FEW015 SCT042 BKN180 06/03 Q1000 NOSIG=\n",
            "METAR EIDW 251700Z 04015KT 9999 FEW014 SCT017 BKN023 06/04 Q0999 NOSIG=\n",
            "METAR EIDW 251630Z 05015KT 9999 FEW012 SCT021 BKN140 07/03 Q0998 NOSIG=\n",
            "METAR EIDW 251600Z 05015KT 9999 FEW015 SCT017 BKN140 07/03 Q0998 NOSIG=\n",
            "METAR EIDW 251530Z 05016KT 9999 FEW016 SCT018 BKN140 07/03 Q0997 NOSIG=\n",
            "METAR EIDW 251500Z 05018KT 9999 SCT014 BKN017 BKN130 07/04 Q0996 NOSIG=\n",
            "METAR EIDW 251430Z 05019KT 9999 FEW013 BKN016 BKN130 07/04 Q0996 NOSIG=\n",
            "METAR EIDW 251400Z 05019KT 9999 FEW013 BKN016 BKN130 07/04 Q0996 NOSIG=\n",
            "METAR EIDW 251330Z 06016KT 9999 FEW013 BKN018 BKN120 08/04 Q0995 NOSIG=\n",
            "METAR EIDW 251300Z 07018KT 9999 SCT014 BKN018 BKN120 08/04 Q0995 NOSIG=\n",
            "METAR EIDW 251230Z 07014KT 9999 FEW014 SCT018 BKN120 08/03 Q0994 NOSIG=\n",
            "METAR EIDW 251200Z 07015KT 9999 FEW014 SCT018 BKN120 07/05 Q0994 NOSIG=\n",
            "METAR EIDW 251130Z 06012KT 9999 SCT014 SCT035 BKN120 07/04 Q0994 NOSIG=\n",
            "METAR EIDW 251100Z 06012KT 9999 FEW018 SCT021 BKN033 07/04 Q0994 NOSIG=\n",
            "METAR EIDW 251030Z 07011KT 9999 FEW018 BKN035 BKN120 07/04 Q0994 NOSIG=\n",
            "METAR EIDW 251000Z 09011KT 9999 FEW012 SCT016 BKN026 06/04 Q0993 NOSIG=\n",
            "METAR EIDW 250930Z 09010KT 9999 FEW009 SCT012 BKN016 06/05 Q0993 NOSIG=\n",
            "METAR EIDW 250900Z 10009KT 9999 FEW009 SCT012 BKN016 06/05 Q0993 NOSIG=\n",
            "METAR EIDW 250830Z 10010KT 9999 FEW009 SCT016 BKN036 06/05 Q0993 NOSIG=\n",
            "METAR EIDW 250800Z 09015KT 2800 RA BR FEW010 SCT013 BKN020 06/05 Q0993 BECMG 10KM=\n",
            "METAR EIDW 250730Z 11011KT 9000 -SHRA FEW010 SCT013 BKN030 06/04 Q0992 NOSIG=\n",
            "METAR EIDW 250700Z 11007KT 090V150 9999 -RA FEW010 SCT013 BKN030 06/04 Q0992 NOSIG=\n",
            "METAR EIDW 250630Z 11010KT 090V150 9999 SCT010 BKN015 06/05 Q0992 TEMPO BKN010=\n",
            "METAR EIDW 250600Z 08011KT 9999 FEW008 BKN009 06/05 Q0992 TEMPO BKN012=\n",
            "METAR EIDW 250530Z 10009KT 9999 FEW009 BKN011 05/04 Q0992 TEMPO SCT011=\n",
            "METAR EIDW 250500Z 08007KT 9999 FEW012 SCT022 BKN140 03/02 Q0992 NOSIG=\n",
            "METAR EIDW 250430Z 11004KT 9999 FEW012 BKN150 04/03 Q0992 NOSIG=\n",
            "METAR EIDW 250400Z 10003KT 9999 FEW015 BKN160 03/02 Q0993 NOSIG=\n",
            "METAR EIDW 250330Z 09004KT 9999 FEW030 BKN160 03/02 Q0992 NOSIG=\n",
            "METAR EIDW 250300Z 09006KT 9999 FEW020 BKN160 03/02 Q0993 NOSIG=\n",
            "METAR EIDW 250230Z 13004KT 090V160 9999 FEW020 BKN170 04/03 Q0993 NOSIG=\n",
            "METAR EIDW 250200Z 14006KT CAVOK 04/03 Q0993 NOSIG=\n",
            "METAR EIDW 250130Z 13005KT CAVOK 04/03 Q0994 NOSIG=\n",
            "METAR EIDW 250100Z 15004KT CAVOK 04/03 Q0994 NOSIG=\n",
            "METAR EIDW 250030Z 15004KT 9999 FEW015 BKN160 04/03 Q0994 NOSIG=\n",
            "METAR EIDW 250000Z 14004KT CAVOK 02/02 Q0994 NOSIG=\n",
            "METAR EIDW 242330Z 13003KT 9999 FEW009 BKN200 02/01 Q0994 NOSIG=\n",
            "METAR EIDW 242300Z VRB02KT 9999 FEW009 SCT012 03/02 Q0995 NOSIG=\n",
            "METAR EIDW 242230Z 15004KT 9999 FEW010 BKN180 04/03 Q0995 NOSIG=\n",
            "METAR EIDW 242200Z 15004KT 9999 FEW009 BKN190 03/02 Q0995 NOSIG=\n",
            "METAR EIDW 242130Z 16003KT 9999 FEW015 BKN190 04/02 Q0995 NOSIG=\n",
            "METAR EIDW 242100Z 15005KT 9999 FEW010 SCT022 BKN200 04/03 Q0996 NOSIG=\n",
            "METAR EIDW 242030Z 15004KT 9999 FEW010 SCT022 BKN180 04/03 Q0996 NOSIG=\n",
            "METAR EIDW 242000Z 16004KT 9999 FEW010 SCT022 BKN190 04/03 Q0996 NOSIG=\n",
            "METAR EIDW 241930Z 16003KT 9999 FEW010 SCT022 BKN190 02/01 Q0996 NOSIG=\n",
            "METAR EIDW 241900Z 13003KT 9999 FEW010 SCT022 BKN200 01/M00 Q0996 NOSIG=\n",
            "METAR EIDW 241830Z VRB01KT 9999 FEW014 SCT022 BKN210 03/01 Q0996 NOSIG=\n",
            "METAR EIDW 241800Z 27003KT 9999 FEW014 SCT022 BKN210 04/01 Q0996 NOSIG=\n",
            "METAR EIDW 241730Z 27005KT 9999 FEW012 SCT022 04/01 Q0996 NOSIG=\n",
            "METAR EIDW 241700Z 29005KT 9999 FEW015 SCT022 06/03 Q0996 NOSIG=\n",
            "METAR EIDW 241630Z 30006KT 9999 FEW013 SCT020 07/03 Q0996 NOSIG=\n",
            "METAR EIDW 241600Z 29008KT 9999 FEW013 SCT020 07/03 Q0996 NOSIG=\n",
            "METAR EIDW 241530Z 29007KT 9999 FEW013 SCT022 08/03 Q0995 NOSIG=\n",
            "METAR EIDW 241500Z 30007KT 270V330 9999 FEW013 SCT020 07/03 Q0995 NOSIG=\n",
            "METAR EIDW 241430Z 30008KT 9999 FEW013 SCT018 07/03 Q0995 NOSIG=\n",
            "METAR EIDW 241400Z 28009KT 240V300 9999 FEW010 SCT015 BKN019 06/03 Q0995 NOSIG=\n",
            "METAR EIDW 241330Z 29009KT 9999 FEW008 SCT013 BKN016 06/03 Q0995 BECMG BKN020=\n",
            "METAR EIDW 241300Z 29008KT 9999 FEW008 SCT010 BKN012 05/03 Q0995 BECMG BKN020=\n",
            "METAR EIDW 241230Z 28008KT 250V310 9999 FEW005 BKN008 05/03 Q0995 BECMG BKN012=\n",
            "METAR EIDW 241200Z 26007KT 230V300 9999 SCT004 BKN007 05/03 Q0995 BECMG BKN012=\n",
            "METAR EIDW 241130Z 28009KT 240V300 9999 SCT004 BKN007 04/03 Q0995 BECMG BKN012=\n",
            "METAR EIDW 241100Z 25006KT 180V290 9999 SCT004 BKN006 04/03 Q0994 BECMG BKN012=\n",
            "METAR EIDW 241030Z 24006KT 200V290 9999 FEW003 BKN005 03/02 Q0994 TEMPO BKN010=\n",
            "METAR EIDW 241000Z 24004KT 180V300 9999 FEW003 BKN005 03/02 Q0994 TEMPO BKN010=\n",
            "METAR EIDW 240930Z 26006KT 9999 FEW003 BKN005 03/02 Q0993 TEMPO BKN010=\n",
            "METAR EIDW 240900Z 28007KT 9999 FEW004 BKN006 03/02 Q0993 TEMPO BKN012=\n",
            "METAR EIDW 240830Z 26005KT 200V290 9999 FEW004 BKN006 03/02 Q0993 TEMPO BKN012=\n",
            "METAR EIDW 240800Z 28008KT 9999 BKN006 03/02 Q0992 TEMPO BKN012=\n",
            "METAR EIDW 240730Z 28006KT 9999 BKN005 03/02 Q0992 TEMPO BKN009=\n",
            "METAR EIDW 240700Z 28007KT 9999 BKN005 03/02 Q0991 TEMPO BKN009=\n",
            "METAR EIDW 240630Z 29008KT 9999 BKN004 02/02 Q0991 TEMPO BKN009=\n",
            "METAR EIDW 240600Z 28011KT 9999 BKN004 02/02 Q0990 TEMPO BKN009=\n",
            "METAR EIDW 240530Z 29010KT 9999 SCT005 BKN007 03/02 Q0990 NOSIG=\n",
            "METAR EIDW 240500Z 29007KT 9999 FEW008 BKN011 BKN017 03/02 Q0990 TEMPO BKN009=\n",
            "METAR EIDW 240430Z 26004KT 210V290 9999 FEW008 SCT011 BKN017 03/02 Q0989 NOSIG=\n",
            "METAR EIDW 240400Z 27004KT 9999 FEW008 SCT011 BKN014 03/02 Q0989 NOSIG=\n",
            "METAR EIDW 240330Z VRB03KT 9999 FEW008 SCT012 BKN015 03/02 Q0988 NOSIG=\n",
            "METAR EIDW 240300Z VRB03KT 9999 FEW008 FEW020CB BKN030 03/01 Q0988 NOSIG=\n",
            "METAR EIDW 240230Z VRB03KT 9999 FEW008 FEW020CB BKN050 03/01 Q0988 NOSIG=\n",
            "METAR EIDW 240200Z 23005KT 180V280 9999 FEW008 SCT020 BKN030 03/02 Q0988 NOSIG=\n",
            "METAR EIDW 240130Z 24005KT 190V290 9999 FEW012 BKN050 03/02 Q0987 NOSIG=\n",
            "METAR EIDW 240100Z 23006KT 180V280 9999 FEW012 BKN220 03/01 Q0987 NOSIG=\n",
            "METAR EIDW 240030Z 23005KT 200V280 9999 FEW012 SCT220 03/01 Q0987 NOSIG=\n",
            "METAR EIDW 240000Z 23007KT 180V280 9999 FEW012 SCT220 03/01 Q0987 NOSIG=\n",
            "METAR EIDW 232330Z 23008KT 190V280 9999 FEW012 03/01 Q0987 NOSIG=\n",
            "METAR EIDW 232300Z 23007KT 190V270 9999 FEW012 03/01 Q0986 NOSIG=\n",
            "METAR EIDW 232230Z 23008KT 190V270 9999 FEW010 SCT200 04/01 Q0986 NOSIG=\n",
            "METAR EIDW 232200Z 23008KT 190V260 9999 FEW010 SCT200 03/01 Q0986 NOSIG=\n",
            "METAR EIDW 232130Z 23007KT 190V260 9999 FEW010 SCT200 04/01 Q0986 NOSIG=\n",
            "METAR EIDW 232100Z 22009KT 190V270 9999 FEW010 SCT200 04/01 Q0986 NOSIG=\n",
            "METAR EIDW 232030Z 23008KT 190V280 9999 FEW010 SCT200 04/01 Q0986 NOSIG=\n",
            "METAR EIDW 232000Z 24008KT 190V280 9999 FEW010 SCT200 04/01 Q0986 NOSIG=\n",
            "METAR EIDW 231930Z 24009KT 200V280 9999 FEW010 SCT200 04/01 Q0986 NOSIG=\n",
            "METAR EIDW 231900Z 24008KT 200V270 9999 FEW010 SCT200 04/01 Q0985 NOSIG=\n",
            "METAR EIDW 231830Z 25007KT 210V270 9999 FEW010 05/01 Q0985 NOSIG=\n",
            "METAR EIDW 231800Z 25008KT 210V290 9999 FEW010 SCT030 05/00 Q0985 NOSIG=\n",
            "METAR EIDW 231730Z 25009KT 210V280 9999 FEW010 SCT030 06/00 Q0985 NOSIG=\n",
            "METAR EIDW 231700Z 25008KT 210V280 9999 FEW010 SCT030 06/01 Q0984 NOSIG=\n",
            "METAR EIDW 231630Z 26011KT 200V290 9999 FEW010 SCT030 07/01 Q0984 NOSIG=\n",
            "METAR EIDW 231600Z 26008KT 230V300 9999 FEW010 SCT030 07/01 Q0984 NOSIG=\n",
            "METAR EIDW 231530Z 27015KT 9999 FEW010 SCT030 06/01 Q0984 NOSIG=\n",
            "METAR EIDW 231500Z 27015KT 9999 FEW010 SCT020 07/01 Q0983 NOSIG=\n",
            "METAR EIDW 231430Z 27014KT 9999 FEW010 SCT020 08/02 Q0983 NOSIG=\n",
            "METAR EIDW 231400Z 26012KT 210V280 9999 FEW010 SCT020 06/02 Q0983 NOSIG=\n",
            "METAR EIDW 231330Z 25010KT 200V280 9999 FEW010 SCT020 BKN200 07/02 Q0982 NOSIG=\n",
            "METAR EIDW 231300Z 27012KT 9999 FEW010 SCT020 BKN200 06/02 Q0983 NOSIG=\n",
            "METAR EIDW 231230Z 27015KT 9999 FEW010 BKN016 06/03 Q0983 NOSIG=\n",
            "METAR EIDW 231200Z 27016KT 9999 FEW010 BKN016 05/02 Q0983 NOSIG=\n",
            "METAR EIDW 231130Z 26011KT 210V280 9999 FEW010 BKN016 05/02 Q0983 NOSIG=\n",
            "METAR EIDW 231100Z 25010KT 210V280 9999 FEW010 BKN016 04/02 Q0982 NOSIG=\n",
            "METAR EIDW 231030Z 25012KT 9999 BKN010 BKN220 03/01 Q0982 BECMG SCT010=\n",
            "METAR EIDW 231000Z 24009KT 190V280 9999 BKN010 BKN220 03/02 Q0982 BECMG SCT010=\n",
            "METAR EIDW 230930Z 24008KT 170V280 9999 SCT009 BKN220 03/01 Q0982 NOSIG=\n",
            "METAR EIDW 230900Z 24008KT 200V280 9999 SCT010 BKN220 03/01 Q0982 NOSIG=\n",
            "METAR EIDW 230830Z 24009KT 200V300 9999 SCT010 BKN220 03/01 Q0982 NOSIG=\n",
            "METAR EIDW 230800Z 23008KT 170V270 9999 FEW012 BKN220 02/01 Q0982 NOSIG=\n",
            "METAR EIDW 230730Z 24008KT 190V280 9999 FEW012 SCT230 03/01 Q0981 NOSIG=\n",
            "METAR EIDW 230700Z 24010G20KT 190V290 9999 FEW012 BKN230 03/01 Q0981 NOSIG=\n",
            "METAR EIDW 230630Z 25009KT 200V290 9999 FEW012 SCT240 02/01 Q0981 NOSIG=\n",
            "METAR EIDW 230600Z 24008KT 180V270 9999 FEW012 SCT230 03/01 Q0981 NOSIG=\n",
            "METAR EIDW 230530Z 25012KT 200V290 9999 FEW015 03/01 Q0980 NOSIG=\n",
            "METAR EIDW 230500Z 25011KT 9999 FEW018 BKN180 03/01 Q0980 NOSIG=\n",
            "METAR EIDW 230430Z 25011KT 210V290 9999 FEW018 03/01 Q0980 NOSIG=\n",
            "METAR EIDW 230400Z 25011KT 200V280 9999 FEW016 BKN190 03/01 Q0980 NOSIG=\n",
            "METAR EIDW 230330Z 25010KT 200V280 9999 FEW016 SCT130 03/01 Q0980 NOSIG=\n",
            "METAR EIDW 230300Z 25011KT 220V280 9999 FEW016 SCT120 BKN220 03/01 Q0980 NOSIG=\n",
            "METAR EIDW 230230Z 25012KT 220V280 9999 FEW013 BKN150 03/02 Q0980 NOSIG=\n",
            "METAR EIDW 230200Z 25010KT 200V280 9999 FEW010 SCT210 03/01 Q0980 NOSIG=\n",
            "METAR EIDW 230130Z 25009KT 200V290 9999 FEW012 SCT190 03/01 Q0980 NOSIG=\n",
            "METAR EIDW 230100Z 25010KT 210V280 9999 FEW012 BKN150 03/01 Q0980 NOSIG=\n",
            "METAR EIDW 230030Z 26014KT 230V290 9999 FEW014 SCT042 03/01 Q0980 NOSIG=\n",
            "METAR EIDW 230000Z 24010KT 200V280 9999 FEW014 SCT038 03/01 Q0980 NOSIG=\n",
            "METAR EIDW 222330Z 25009KT 200V280 9999 FEW018 SCT034 03/02 Q0980 NOSIG=\n",
            "METAR EIDW 222300Z 24011KT 200V280 9999 FEW018 SCT150 BKN200 03/01 Q0980 NOSIG=\n",
            "METAR EIDW 222230Z 25009KT 200V280 9999 FEW010 03/01 Q0980 NOSIG=\n",
            "METAR EIDW 222200Z 23008KT 190V300 9999 FEW010 SCT032 03/02 Q0980 NOSIG=\n",
            "METAR EIDW 222130Z 24009KT 200V280 9999 FEW012 03/02 Q0980 NOSIG=\n",
            "METAR EIDW 222100Z 23009KT 200V280 9999 FEW012 SCT020 BKN060 03/01 Q0980 NOSIG=\n",
            "METAR EIDW 222030Z 24009KT 190V280 9999 FEW016 SCT030 BKN060 04/01 Q0980 NOSIG=\n",
            "METAR EIDW 222000Z 25011KT 210V280 9999 -SHRA FEW016CB SCT030 BKN200 04/01 Q0980 NOSIG=\n",
            "METAR EIDW 221930Z 25010KT 190V290 9999 FEW020 SCT120 04/01 Q0980 NOSIG=\n",
            "METAR EIDW 221900Z 24011KT 210V280 9999 FEW020 SCT200 05/01 Q0980 NOSIG=\n",
            "METAR EIDW 221830Z 24011KT 200V280 9999 FEW020 SCT200 05/01 Q0980 NOSIG=\n",
            "METAR EIDW 221800Z 25012KT 200V290 9999 FEW020 SCT200 05/00 Q0980 NOSIG=\n",
            "METAR EIDW 221730Z 25011G21KT 180V280 9999 FEW024 SCT040 06/M00 Q0980 NOSIG=\n",
            "METAR EIDW 221700Z 25011G21KT 210V280 9999 FEW024 SCT040 06/M00 Q0980 NOSIG=\n",
            "METAR EIDW 221630Z 25011KT 190V280 9999 FEW024 SCT040 06/00 Q0980 NOSIG=\n",
            "METAR EIDW 221600Z 27013KT 230V290 9999 FEW024 SCT040 06/M00 Q0980 NOSIG=\n",
            "METAR EIDW 221530Z 27015KT 9999 FEW024 SCT040 06/00 Q0980 NOSIG=\n",
            "METAR EIDW 221500Z 27019KT 9999 FEW024 SCT040 07/00 Q0980 NOSIG=\n",
            "METAR EIDW 221430Z 27018G29KT 9999 FEW024 SCT027 07/M01 Q0980 NOSIG=\n",
            "METAR EIDW 221400Z 28019KT 9999 FEW024 SCT027 BKN030 06/00 Q0980 NOSIG=\n",
            "METAR EIDW 221330Z 26016KT 9999 FEW024 SCT027 BKN030 07/01 Q0979 NOSIG=\n",
            "METAR EIDW 221300Z 27016KT 9999 FEW024 SCT027 BKN030 06/01 Q0980 NOSIG=\n",
            "METAR EIDW 221230Z 27013G25KT 9999 FEW020 SCT160 BKN180 06/00 Q0980 NOSIG=\n",
            "METAR EIDW 221200Z 26011KT 180V280 9999 FEW016 SCT020 BKN160 05/01 Q0980 NOSIG=\n",
            "METAR EIDW 221130Z 26010KT 230V290 9999 FEW011 SCT020 BKN023 05/02 Q0981 NOSIG=\n",
            "METAR EIDW 221100Z 26012KT 9999 FEW011 BKN016 BKN150 05/02 Q0981 NOSIG=\n",
            "METAR EIDW 221030Z 26008KT 220V290 9999 FEW011 SCT110 BKN150 05/03 Q0980 NOSIG=\n",
            "METAR EIDW 221000Z 26008KT 230V290 9999 FEW010 SCT110 BKN150 05/03 Q0980 NOSIG=\n",
            "METAR EIDW 220930Z 25007KT 210V290 9999 FEW014 FEW018CB SCT038 04/02 Q0980 NOSIG=\n",
            "METAR EIDW 220900Z 25006KT 200V290 9999 FEW014 SCT048 BKN180 04/02 Q0980 NOSIG=\n",
            "METAR EIDW 220830Z 24007KT 200V290 9999 FEW011 SCT150 BKN180 04/03 Q0980 NOSIG=\n",
            "METAR EIDW 220800Z 25007KT 210V290 9999 FEW011 SCT150 BKN200 05/03 Q0981 NOSIG=\n",
            "METAR EIDW 220730Z 25006KT 200V290 9999 FEW011 SCT150 BKN190 05/03 Q0981 NOSIG=\n",
            "METAR EIDW 220700Z 26009KT 9999 FEW015 BKN120 05/03 Q0980 NOSIG=\n",
            "METAR EIDW 220630Z 25006KT 200V280 9999 FEW015 SCT120 BKN160 05/03 Q0980 NOSIG=\n",
            "METAR EIDW 220600Z 23006KT 190V270 9999 FEW015 SCT130 BKN160 05/04 Q0981 NOSIG=\n",
            "METAR EIDW 220530Z 24006KT 200V300 9999 FEW015 BKN140 05/04 Q0982 NOSIG=\n",
            "METAR EIDW 220500Z 22006KT 180V290 9999 FEW015 BKN140 06/03 Q0982 NOSIG=\n",
            "METAR EIDW 220430Z 21007KT 170V260 9999 FEW018 BKN140 05/04 Q0983 NOSIG=\n",
            "METAR EIDW 220400Z 22007KT 170V270 9999 FEW018 BKN120 05/04 Q0982 NOSIG=\n",
            "METAR EIDW 220330Z 24005KT 190V270 9999 FEW018 BKN140 05/04 Q0982 NOSIG=\n",
            "METAR EIDW 220300Z 19007KT 150V260 9999 FEW018 BKN140 05/03 Q0983 NOSIG=\n",
            "METAR EIDW 220230Z 26014KT 9999 -SHRA FEW014 FEW018CB BKN032 05/04 Q0985 NOSIG=\n",
            "METAR EIDW 220200Z 26018KT 230V290 6000 -SHRA FEW010 FEW018CB BKN024 05/04 Q0985 TEMPO SHRA=\n",
            "METAR EIDW 220130Z 26007KT 210V280 6000 -SHRA FEW010 FEW018CB BKN024 07/06 Q0985 TEMPO SHRA=\n",
            "METAR EIDW 220100Z 24008KT 200V280 8000 -SHRA FEW017CB SCT021 BKN026 08/06 Q0986 TEMPO SHRA=\n",
            "METAR EIDW 220030Z 22012G27KT 180V280 8000 SHRA FEW018CB SCT022 BKN028 08/06 Q0986 TEMPO -SHRA=\n",
            "METAR EIDW 220000Z 22011G21KT 190V260 9999 -RA FEW018 SCT026 BKN042 09/05 Q0987 NOSIG=\n",
            "METAR EIDW 212330Z 21016KT 180V240 9999 FEW022 BKN035 09/05 Q0987 NOSIG=\n",
            "METAR EIDW 212300Z 21014G24KT 9999 FEW022 BKN130 09/05 Q0987 NOSIG=\n",
            "METAR EIDW 212230Z 21012KT 170V240 9999 FEW018 BKN036 09/05 Q0988 NOSIG=\n",
            "METAR EIDW 212200Z 20014KT 9999 FEW018 SCT034 09/05 Q0989 NOSIG=\n",
            "METAR EIDW 212130Z 20010KT 170V230 9999 FEW022 08/05 Q0989 NOSIG=\n",
            "METAR EIDW 212100Z 20010KT 170V240 9999 FEW015 SCT032 08/05 Q0990 NOSIG=\n",
            "METAR EIDW 212030Z 19008KT 9999 FEW015 BKN035 08/06 Q0991 TEMPO BKN012=\n",
            "METAR EIDW 212000Z 22009KT 170V260 5000 -RA FEW010 SCT012 BKN015 08/07 Q0992 TEMPO BKN012=\n",
            "METAR EIDW 211930Z 21011KT 170V270 9999 -RA FEW015 SCT026 BKN032 09/05 Q0992 NOSIG=\n",
            "METAR EIDW 211900Z 20008KT 170V230 9999 FEW035 BKN045 09/04 Q0993 NOSIG=\n",
            "METAR EIDW 211830Z 21009KT 150V240 9999 FEW030 BKN040 10/04 Q0993 NOSIG=\n",
            "METAR EIDW 211800Z 23007KT 180V270 9999 FEW025 SCT036 10/04 Q0993 NOSIG=\n",
            "METAR EIDW 211730Z 23008G18KT 170V300 9999 FEW025 SCT250 10/04 Q0993 NOSIG=\n",
            "METAR EIDW 211700Z 24009KT 180V300 9999 FEW018 BKN250 11/05 Q0993 NOSIG=\n",
            "METAR EIDW 211630Z 25013KT 170V280 9999 FEW015 BKN250 11/06 Q0994 NOSIG=\n",
            "METAR EIDW 211600Z 25012KT 200V280 9999 FEW015 SCT028 11/06 Q0994 NOSIG=\n",
            "METAR EIDW 211530Z 27020G30KT 9999 FEW015 BKN028 11/06 Q0994 NOSIG=\n",
            "METAR EIDW 211500Z 26014KT 230V290 9999 FEW010 BKN025 12/07 Q0994 NOSIG=\n",
            "METAR EIDW 211430Z 27016KT 220V290 9999 FEW010 BKN030 12/07 Q0994 NOSIG=\n",
            "METAR EIDW 211400Z 27017G28KT 9999 FEW015 SCT022 11/08 Q0993 NOSIG=\n",
            "METAR EIDW 211330Z 26020G30KT 5000 VCSH FEW010 BKN022 13/09 Q0993 NOSIG=\n",
            "METAR EIDW 211300Z 26020G31KT 230V290 9999 FEW015 BKN020 13/09 Q0993 NOSIG=\n",
            "METAR EIDW 211230Z 27021G31KT 9999 FEW010 BKN020 13/09 Q0992 NOSIG=\n",
            "METAR EIDW 211200Z 26017G28KT 210V280 9999 FEW009 BKN018 13/09 Q0992 NOSIG=\n",
            "METAR EIDW 211130Z 26019KT 210V280 9999 -DZ FEW009 BKN013 12/10 Q0992 TEMPO BKN016=\n",
            "METAR EIDW 211100Z 25015G31KT 210V280 9999 -DZ FEW009 BKN012 13/11 Q0991 TEMPO BKN016=\n",
            "METAR EIDW 211030Z 24013G24KT 190V290 9999 -DZ FEW007 BKN011 13/11 Q0991 NOSIG=\n",
            "METAR EIDW 211000Z 23014KT 200V280 9999 -DZ FEW009 BKN014 13/11 Q0991 TEMPO BKN012=\n",
            "METAR EIDW 210930Z 22013KT 190V250 9999 FEW010 BKN015 13/10 Q0991 TEMPO BKN012=\n",
            "METAR EIDW 210900Z 20012KT 170V230 9999 FEW012 BKN016 BKN200 12/10 Q0991 TEMPO BKN012=\n",
            "METAR EIDW 210830Z 20015KT 170V230 9999 -DZ FEW010 SCT015 BKN019 12/10 Q0992 TEMPO BKN012=\n",
            "METAR EIDW 210800Z 19014G24KT 9999 FEW007 SCT013 BKN017 12/09 Q0992 TEMPO BKN012=\n",
            "METAR EIDW 210730Z 19014KT 9999 FEW007 SCT012 BKN016 12/09 Q0993 TEMPO BKN012=\n",
            "METAR EIDW 210700Z 17009KT 150V210 9999 FEW007 SCT012 BKN018 11/09 Q0994 TEMPO BKN012=\n",
            "METAR EIDW 210630Z 16011KT 9999 FEW007 SCT012 BKN018 10/09 Q0995 TEMPO BKN012=\n",
            "METAR EIDW 210600Z 16010KT 9999 -RA FEW007 SCT010 BKN017 11/09 Q0996 TEMPO BKN012=\n",
            "METAR EIDW 210530Z 16009KT 9999 -RA FEW006 SCT010 BKN018 09/09 Q0997 TEMPO BKN012=\n",
            "METAR EIDW 210500Z 15009KT 9999 -RA FEW005 SCT009 BKN018 09/08 Q0999 TEMPO BKN012=\n",
            "METAR EIDW 210430Z 14007KT 110V170 9999 -RA FEW003 SCT009 BKN016 09/08 Q1000 TEMPO BKN012=\n",
            "METAR EIDW 210400Z 14009KT 100V160 9999 -RA FEW010 SCT017 BKN050 08/08 Q1001 NOSIG=\n",
            "METAR EIDW 210330Z 13007KT 9999 -RA FEW010 SCT017 BKN050 08/07 Q1003 NOSIG=\n",
            "METAR EIDW 210300Z 14006KT 110V170 5000 -RADZ FEW003 SCT012 BKN025 08/07 Q1004 TEMPO 7000=\n",
            "METAR EIDW 210230Z 14010KT 110V170 1200 BR FEW002 BKN004 08/07 Q1006 TEMPO 800 FG BKN002=\n",
            "METAR EIDW 210200Z 14009KT 9999 FEW010 SCT023 BKN030 09/06 Q1007 NOSIG=\n",
            "METAR EIDW 210130Z 16014KT 9999 FEW010 SCT031 BKN044 09/06 Q1008 NOSIG=\n",
            "METAR EIDW 210100Z 15013KT 9999 FEW010 SCT050 BKN150 09/05 Q1009 NOSIG=\n",
            "METAR EIDW 210030Z 14008KT 110V170 9999 FEW010 BKN150 08/05 Q1010 NOSIG=\n",
            "METAR EIDW 210000Z 14006KT 110V170 9999 FEW010 BKN160 07/04 Q1012 NOSIG=\n",
            "METAR EIDW 202330Z 13004KT 100V160 9999 FEW010 BKN160 07/04 Q1013 NOSIG=\n",
            "METAR EIDW 202300Z 14005KT 120V180 9999 FEW012 BKN190 06/04 Q1014 NOSIG=\n",
            "METAR EIDW 202230Z 12004KT 100V160 9999 FEW012 BKN200 04/02 Q1015 NOSIG=\n",
            "METAR EIDW 202200Z VRB02KT 9999 FEW012 BKN200 06/05 Q1015 NOSIG=\n",
            "METAR EIDW 202130Z 20003KT 9999 FEW012 06/04 Q1016 NOSIG=\n",
            "METAR EIDW 202100Z 19005KT 9999 FEW012 05/04 Q1017 NOSIG=\n",
            "METAR EIDW 202030Z 18004KT CAVOK 07/04 Q1017 NOSIG=\n",
            "METAR EIDW 202000Z 20005KT 110V270 CAVOK 08/05 Q1017 NOSIG=\n",
            "METAR EIDW 201930Z 25008KT CAVOK 08/05 Q1017 NOSIG=\n",
            "METAR EIDW 201900Z 25006KT 210V300 9999 FEW040 BKN250 09/05 Q1017 NOSIG=\n",
            "METAR EIDW 201830Z 23005KT 200V280 CAVOK 09/05 Q1018 NOSIG=\n",
            "METAR EIDW 201800Z 24005KT 170V290 9999 FEW025 SCT250 09/05 Q1017 NOSIG=\n",
            "METAR EIDW 201730Z 25007KT 180V290 9999 FEW025 SCT250 10/06 Q1017 NOSIG=\n",
            "METAR EIDW 201700Z 24007KT 180V280 9999 FEW024 SCT210 10/06 Q1017 NOSIG=\n",
            "METAR EIDW 201630Z 26010KT 9999 FEW020 SCT210 11/07 Q1017 NOSIG=\n",
            "METAR EIDW 201600Z 27013KT 9999 FEW018 11/07 Q1017 NOSIG=\n",
            "METAR EIDW 201530Z 27017KT 9999 FEW012 12/08 Q1016 NOSIG=\n",
            "METAR EIDW 201500Z 27015KT 9999 FEW010 SCT060 12/09 Q1016 NOSIG=\n",
            "METAR EIDW 201430Z 27018G31KT 230V290 9999 VCSH FEW007 SCT013 BKN025 11/09 Q1016 NOSIG=\n",
            "METAR EIDW 201400Z 24014G25KT 190V280 9000 -RA FEW007 SCT011 BKN017 12/10 Q1015 TEMPO BKN010=\n",
            "METAR EIDW 201330Z 23015G28KT 190V290 9999 -RADZ FEW012 SCT017 BKN200 12/10 Q1015 NOSIG=\n",
            "METAR EIDW 201300Z 23014G25KT 190V270 9999 -RA FEW012 BKN050 BKN080 12/10 Q1015 NOSIG=\n",
            "METAR EIDW 201230Z 23013G27KT 190V280 9999 FEW012 SCT060 BKN160 12/10 Q1016 NOSIG=\n",
            "METAR EIDW 201200Z 22013G24KT 180V270 9999 -RA FEW012 SCT040 BKN080 12/09 Q1017 NOSIG=\n",
            "METAR EIDW 201130Z 22014G25KT 160V270 9999 FEW015 SCT016 BKN017 12/09 Q1017 NOSIG=\n",
            "METAR EIDW 201100Z 22012G23KT 190V260 9999 FEW015 BKN100 12/09 Q1017 NOSIG=\n",
            "METAR EIDW 201030Z 22013KT 190V260 9999 FEW015 BKN120 12/08 Q1017 NOSIG=\n",
            "METAR EIDW 201000Z 23012KT 190V270 9999 FEW015 SCT022 BKN130 12/08 Q1018 NOSIG=\n",
            "METAR EIDW 200930Z 23012G23KT 180V320 9999 FEW015 SCT022 BKN140 11/07 Q1018 NOSIG=\n",
            "METAR EIDW 200900Z 23010KT 190V270 9999 FEW015 BKN022 11/07 Q1018 NOSIG=\n",
            "METAR EIDW 200830Z 23009KT 190V260 9999 FEW012 BKN024 10/07 Q1019 NOSIG=\n",
            "METAR EIDW 200800Z 24011KT 200V270 9999 FEW012 BKN120 BKN180 10/07 Q1019 NOSIG=\n",
            "METAR EIDW 200730Z 23009KT 170V300 9999 FEW012 SCT120 BKN180 10/06 Q1019 NOSIG=\n",
            "METAR EIDW 200700Z 22009KT 180V260 9999 FEW012 BKN150 10/06 Q1019 NOSIG=\n",
            "METAR EIDW 200630Z 21012KT 180V250 9999 FEW012 BKN140 10/07 Q1019 NOSIG=\n",
            "METAR EIDW 200600Z 23010KT 180V270 9999 FEW012 BKN140 10/07 Q1020 NOSIG=\n",
            "METAR EIDW 200530Z 22011KT 180V260 9999 FEW011 SCT014 BKN150 10/08 Q1020 NOSIG=\n",
            "METAR EIDW 200500Z 22008KT 180V280 9999 FEW012 BKN017 BKN180 10/08 Q1021 NOSIG=\n",
            "METAR EIDW 200430Z 22011KT 180V270 9999 FEW012 SCT017 BKN180 10/08 Q1021 NOSIG=\n",
            "METAR EIDW 200400Z 21011KT 190V250 9999 FEW012 SCT017 BKN180 10/08 Q1021 NOSIG=\n",
            "METAR EIDW 200330Z 22008KT 190V260 9999 FEW012 BKN180 10/08 Q1022 NOSIG=\n",
            "METAR EIDW 200300Z 22007KT 170V260 9999 FEW012 SCT021 BKN180 09/07 Q1023 NOSIG=\n",
            "METAR EIDW 200230Z 22007KT 190V280 9999 FEW012 BKN021 09/07 Q1023 NOSIG=\n",
            "METAR EIDW 200200Z 23009KT 190V280 9999 FEW012 BKN021 BKN180 09/06 Q1024 NOSIG=\n",
            "METAR EIDW 200130Z 22008KT 170V260 9999 FEW012 SCT180 09/06 Q1024 NOSIG=\n",
            "METAR EIDW 200100Z 22009KT 190V250 9999 FEW012 SCT180 09/05 Q1025 NOSIG=\n",
            "METAR EIDW 200030Z 20007KT 170V230 9999 FEW012 BKN200 09/05 Q1025 NOSIG=\n",
            "METAR EIDW 200000Z 20005KT 170V230 9999 FEW012 BKN200 09/05 Q1025 NOSIG=\n",
            "METAR EIDW 192330Z 19007KT 160V220 9999 FEW012 BKN200 09/05 Q1026 NOSIG=\n",
            "METAR EIDW 192300Z 20006KT 160V230 9999 FEW012 BKN200 09/06 Q1026 NOSIG=\n",
            "METAR EIDW 192230Z 20007KT 170V230 9999 FEW012 BKN200 09/06 Q1026 NOSIG=\n",
            "METAR EIDW 192200Z 20007KT 160V230 9999 FEW012 BKN200 09/05 Q1027 NOSIG=\n",
            "METAR EIDW 192130Z 20006KT 9999 FEW012 BKN200 09/05 Q1027 NOSIG=\n",
            "METAR EIDW 192100Z 20007KT 170V230 9999 FEW012 BKN200 09/05 Q1027 NOSIG=\n",
            "METAR EIDW 192030Z 18007KT 9999 FEW012 BKN200 09/05 Q1027 NOSIG=\n",
            "METAR EIDW 192000Z 20006KT 170V240 9999 FEW012 BKN200 09/05 Q1028 NOSIG=\n",
            "METAR EIDW 191930Z 18004KT 9999 FEW012 BKN200 09/06 Q1028 NOSIG=\n",
            "METAR EIDW 191900Z 20006KT 170V230 9999 FEW012 BKN200 09/06 Q1028 NOSIG=\n",
            "METAR EIDW 191830Z 21006KT 9999 FEW012 BKN200 10/06 Q1028 NOSIG=\n",
            "METAR EIDW 191800Z 23004KT 190V280 9999 FEW012 SCT030 BKN200 10/06 Q1029 NOSIG=\n",
            "METAR EIDW 191730Z 24005KT 190V300 9999 FEW012 SCT030 BKN200 10/06 Q1028 NOSIG=\n",
            "METAR EIDW 191700Z 24006KT 210V280 9999 FEW012 SCT030 BKN200 10/06 Q1028 NOSIG=\n",
            "METAR EIDW 191630Z 25007KT 200V300 9999 FEW012 SCT030 BKN200 11/06 Q1028 NOSIG=\n",
            "METAR EIDW 191600Z 26010KT 210V290 9999 FEW012 SCT030 BKN200 11/06 Q1029 NOSIG=\n",
            "METAR EIDW 191530Z 26009KT 9999 FEW012 SCT030 BKN200 11/06 Q1029 NOSIG=\n",
            "METAR EIDW 191500Z 26011KT 210V290 9999 FEW012 SCT030 BKN200 11/06 Q1029 NOSIG=\n",
            "METAR EIDW 191430Z 26009KT 220V290 9999 FEW012 SCT030 BKN200 11/06 Q1029 NOSIG=\n",
            "METAR EIDW 191400Z 27014KT 9999 FEW012 SCT020 BKN200 11/06 Q1029 NOSIG=\n",
            "METAR EIDW 191330Z 27013KT 9999 FEW012 SCT020 BKN200 11/06 Q1029 NOSIG=\n",
            "METAR EIDW 191300Z 26012KT 230V290 9999 FEW012 SCT020 BKN200 11/06 Q1029 NOSIG=\n",
            "METAR EIDW 191230Z 26011KT 9999 SCT012 BKN020 11/07 Q1030 NOSIG=\n",
            "METAR EIDW 191200Z 27014KT 9999 SCT012 BKN016 10/08 Q1030 NOSIG=\n",
            "METAR EIDW 191130Z 25010KT 210V280 9999 SCT012 BKN200 10/08 Q1029 NOSIG=\n",
            "METAR EIDW 191100Z 25010KT 180V300 9999 SCT010 BKN200 10/08 Q1029 NOSIG=\n",
            "METAR EIDW 191030Z 26013KT 9999 FEW009 BKN250 09/07 Q1029 NOSIG=\n",
            "METAR EIDW 191000Z 27013KT 9999 FEW009 BKN250 09/07 Q1029 NOSIG=\n",
            "METAR EIDW 190930Z 26014KT 230V290 9999 FEW009 BKN250 09/07 Q1029 NOSIG=\n",
            "METAR EIDW 190900Z 26014KT 9999 FEW009 BKN250 08/07 Q1029 NOSIG=\n",
            "METAR EIDW 190830Z 26011KT 210V280 9999 FEW009 BKN250 08/07 Q1028 NOSIG=\n",
            "METAR EIDW 190800Z 26014KT 9000 FEW009 BKN250 08/07 Q1028 NOSIG=\n",
            "METAR EIDW 190730Z 25011KT 220V290 9999 FEW007 SCT250 08/07 Q1028 NOSIG=\n",
            "METAR EIDW 190700Z 26013KT 9999 FEW016 08/07 Q1027 NOSIG=\n",
            "METAR EIDW 190630Z 26013KT 9999 FEW012 BKN016 09/07 Q1027 NOSIG=\n",
            "METAR EIDW 190600Z 27012KT 9999 FEW012 SCT016 BKN023 09/07 Q1027 NOSIG=\n",
            "METAR EIDW 190530Z 27014KT 9999 FEW011 SCT013 BKN016 09/08 Q1027 NOSIG=\n",
            "METAR EIDW 190500Z 26009KT 210V280 9999 FEW011 SCT015 BKN018 09/08 Q1026 NOSIG=\n",
            "METAR EIDW 190430Z 25009KT 9999 FEW013 09/08 Q1026 NOSIG=\n",
            "METAR EIDW 190400Z 26014KT 9999 FEW010 SCT023 09/08 Q1026 NOSIG=\n",
            "METAR EIDW 190330Z 25013KT 220V290 9999 FEW010 BKN048 09/08 Q1026 NOSIG=\n",
            "METAR EIDW 190300Z 25012KT 210V290 9999 FEW007 SCT010 09/08 Q1026 NOSIG=\n",
            "METAR EIDW 190230Z 24012G23KT 190V280 9999 FEW007 SCT019 09/08 Q1026 NOSIG=\n",
            "METAR EIDW 190200Z 24012G24KT 210V280 5000 -RA FEW009 SCT035 BKN048 09/08 Q1026 NOSIG=\n",
            "METAR EIDW 190130Z 24010KT 200V280 9999 -RA FEW012 SCT029 BKN036 10/07 Q1026 NOSIG=\n",
            "METAR EIDW 190100Z 23009KT 190V270 9999 -RA FEW012 BKN080 BKN120 10/06 Q1026 NOSIG=\n",
            "METAR EIDW 190030Z 23009G19KT 190V280 9999 FEW016 BKN090 10/06 Q1026 NOSIG=\n",
            "METAR EIDW 190000Z 22009KT 170V260 9999 FEW018 BKN100 BKN140 10/06 Q1026 NOSIG=\n",
            "METAR EIDW 182330Z 22010KT 190V270 9999 FEW018 BKN130 10/06 Q1027 NOSIG=\n",
            "METAR EIDW 182300Z 23009KT 180V260 9999 FEW018 BKN140 10/07 Q1027 NOSIG=\n",
            "METAR EIDW 182230Z 23010KT 190V280 9999 FEW018 BKN200 10/07 Q1027 NOSIG=\n",
            "METAR EIDW 182200Z 24010G20KT 190V290 9999 FEW018 BKN160 10/07 Q1027 NOSIG=\n",
            "METAR EIDW 182130Z 24008KT 200V280 9999 FEW018 BKN140 10/07 Q1028 NOSIG=\n",
            "METAR EIDW 182100Z 24009KT 200V270 9999 FEW018 SCT140 10/07 Q1028 NOSIG=\n",
            "METAR EIDW 182030Z 25009KT 190V290 9999 FEW014 SCT140 BKN220 10/07 Q1028 NOSIG=\n",
            "METAR EIDW 182000Z 25007KT 210V280 9999 FEW024 BKN150 10/07 Q1028 NOSIG=\n",
            "METAR EIDW 181930Z 25009KT 220V280 9999 FEW024 BKN140 11/07 Q1028 NOSIG=\n",
            "METAR EIDW 181900Z 25009G19KT 210V270 9999 FEW015 SCT025 BKN150 11/07 Q1028 NOSIG=\n",
            "METAR EIDW 181830Z 26009KT 9999 FEW015 SCT028 BKN150 11/08 Q1028 NOSIG=\n",
            "METAR EIDW 181800Z 25007KT 200V280 9999 FEW015 SCT031 BKN210 11/08 Q1028 NOSIG=\n",
            "METAR EIDW 181730Z 25008KT 200V280 9999 FEW015 BKN160 11/08 Q1028 NOSIG=\n",
            "METAR EIDW 181700Z 26010KT 9999 FEW018 SCT031 11/07 Q1027 NOSIG=\n",
            "METAR EIDW 181630Z 25008KT 200V290 9999 FEW018 BKN170 12/08 Q1027 NOSIG=\n",
            "METAR EIDW 181600Z 27010KT 9999 FEW015 SCT028 12/09 Q1027 NOSIG=\n",
            "METAR EIDW 181530Z 28013KT 9999 FEW018 SCT022 BKN030 12/09 Q1027 NOSIG=\n",
            "METAR EIDW 181500Z 27010KT 9999 FEW018 SCT022 BKN028 12/09 Q1027 NOSIG=\n",
            "METAR EIDW 181430Z 27011KT 9999 FEW018 SCT021 BKN027 12/09 Q1027 NOSIG=\n",
            "METAR EIDW 181400Z 27012KT 9999 FEW024 BKN028 13/09 Q1027 NOSIG=\n",
            "METAR EIDW 181330Z 28013KT 9999 FEW016 BKN023 12/09 Q1027 NOSIG=\n",
            "METAR EIDW 181300Z 27013KT 9999 FEW016 SCT022 BKN026 13/09 Q1027 NOSIG=\n",
            "METAR EIDW 181230Z 26010KT 9999 FEW014 SCT020 13/10 Q1026 NOSIG=\n",
            "METAR EIDW 181200Z 27012KT 9999 FEW012 SCT021 12/09 Q1026 NOSIG=\n",
            "METAR EIDW 181130Z 27013KT 9999 FEW011 12/09 Q1026 NOSIG=\n",
            "METAR EIDW 181100Z 27011KT 9999 FEW007 SCT010 12/10 Q1025 NOSIG=\n",
            "METAR EIDW 181030Z 28011KT 9999 FEW006 SCT009 11/10 Q1025 NOSIG=\n",
            "METAR EIDW 181000Z 27010KT 9999 FEW006 SCT009 11/09 Q1024 NOSIG=\n",
            "METAR EIDW 180930Z 27008KT 9999 FEW006 10/10 Q1024 NOSIG=\n",
            "METAR EIDW 180900Z 27008KT 9999 FEW006 SCT060 10/09 Q1024 NOSIG=\n",
            "METAR EIDW 180830Z 27010KT 9999 FEW006 SCT008 BKN100 10/09 Q1023 NOSIG=\n",
            "METAR EIDW 180800Z 27009KT 9999 FEW006 BKN009 BKN100 10/09 Q1023 NOSIG=\n",
            "METAR EIDW 180730Z 27009KT 9999 FEW009 BKN070 BKN100 10/09 Q1022 NOSIG=\n",
            "METAR EIDW 180700Z 26008KT 180V290 9999 -RA FEW012 SCT070 BKN100 10/09 Q1022 NOSIG=\n",
            "METAR EIDW 180630Z 25006KT 220V280 9999 -DZ FEW012 BKN080 BKN120 10/09 Q1022 NOSIG=\n",
            "METAR EIDW 180600Z 25007KT 9999 FEW012 BKN080 10/09 Q1022 NOSIG=\n",
            "METAR EIDW 180530Z 26007KT 9999 FEW012 SCT100 10/09 Q1022 NOSIG=\n",
            "METAR EIDW 180500Z 26007KT 230V290 9999 FEW012 BKN100 10/09 Q1021 NOSIG=\n",
            "METAR EIDW 180430Z 25006KT 210V280 9999 FEW010 10/09 Q1021 NOSIG=\n",
            "METAR EIDW 180400Z 27008KT 9999 FEW010 SCT110 10/09 Q1021 NOSIG=\n",
            "METAR EIDW 180330Z 27010KT 9999 FEW010 SCT024 BKN170 10/09 Q1021 NOSIG=\n",
            "METAR EIDW 180300Z 26007KT 9999 FEW007 SCT028 BKN120 11/10 Q1021 NOSIG=\n",
            "METAR EIDW 180230Z 26007KT 9999 FEW007 BKN028 11/10 Q1021 NOSIG=\n",
            "METAR EIDW 180200Z 27006KT 9999 FEW007 SCT012 BKN029 11/10 Q1021 NOSIG=\n",
            "METAR EIDW 180130Z 26005KT 230V290 9999 FEW007 BKN011 11/10 Q1021 NOSIG=\n",
            "METAR EIDW 180100Z 26006KT 220V280 9999 FEW006 SCT009 BKN015 11/11 Q1021 NOSIG=\n",
            "METAR EIDW 180030Z 24005KT 200V280 9999 FEW006 SCT010 BKN015 12/11 Q1021 NOSIG=\n",
            "METAR EIDW 180000Z 23006KT 200V270 9999 FEW006 BKN010 12/11 Q1021 NOSIG=\n",
            "METAR EIDW 172330Z 21004KT 170V240 9999 FEW004 BKN008 BKN010 12/11 Q1021 NOSIG=\n",
            "METAR EIDW 172300Z 22004KT 190V260 9999 -DZ FEW004 SCT007 BKN010 12/11 Q1021 NOSIG=\n",
            "METAR EIDW 172230Z 22004KT 180V290 9999 FEW006 SCT010 BKN012 12/11 Q1021 NOSIG=\n",
            "METAR EIDW 172200Z 22006KT 170V280 9999 FEW007 SCT010 BKN012 12/11 Q1021 NOSIG=\n",
            "METAR EIDW 172130Z 23005KT 190V280 9999 FEW007 BKN013 BKN032 13/11 Q1021 NOSIG=\n",
            "METAR EIDW 172100Z 23006KT 190V280 9999 FEW007 SCT010 BKN013 13/11 Q1020 NOSIG=\n",
            "METAR EIDW 172030Z 23006KT 190V270 9999 FEW007 SCT010 BKN014 13/12 Q1020 NOSIG=\n",
            "METAR EIDW 172000Z 22007KT 190V260 9999 FEW007 SCT010 BKN014 13/12 Q1020 NOSIG=\n",
            "METAR EIDW 171930Z 22005KT 180V280 9999 -DZ FEW007 SCT009 BKN012 13/12 Q1020 NOSIG=\n",
            "METAR EIDW 171900Z 21005KT 180V240 9999 -DZ FEW008 SCT010 BKN012 13/12 Q1020 NOSIG=\n",
            "METAR EIDW 171830Z 22005KT 190V260 9999 FEW010 SCT017 BKN021 13/11 Q1019 NOSIG=\n",
            "METAR EIDW 171800Z 21008KT 170V240 9999 FEW010 SCT017 BKN200 13/11 Q1019 NOSIG=\n",
            "METAR EIDW 171730Z 21005KT 170V240 9999 -DZ FEW012 BKN017 13/11 Q1019 NOSIG=\n",
            "METAR EIDW 171700Z 22007KT 200V260 9999 -RADZ FEW010 SCT016 BKN032 12/11 Q1019 NOSIG=\n",
            "METAR EIDW 171630Z 22006KT 190V260 9999 -RA FEW010 SCT014 BKN060 12/11 Q1019 NOSIG=\n",
            "METAR EIDW 171600Z 23008KT 170V280 6000 -RA FEW008 SCT016 BKN032 13/11 Q1019 NOSIG=\n",
            "METAR EIDW 171530Z 22009KT 190V280 9999 FEW010 BKN012 BKN100 13/11 Q1019 NOSIG=\n",
            "METAR EIDW 171500Z 23009KT 180V270 9999 FEW009 BKN012 13/11 Q1018 NOSIG=\n",
            "METAR EIDW 171430Z 23010KT 190V270 9999 FEW008 BKN012 12/11 Q1019 NOSIG=\n",
            "METAR EIDW 171400Z 22008KT 160V260 8000 -RADZ FEW006 SCT013 BKN017 12/11 Q1019 NOSIG=\n",
            "METAR EIDW 171330Z 21009KT 190V250 9999 -RA FEW008 SCT013 BKN016 12/11 Q1019 NOSIG=\n",
            "METAR EIDW 171300Z 21005KT 180V250 5000 -RA FEW008 SCT018 BKN021 13/10 Q1019 NOSIG=\n",
            "METAR EIDW 171230Z 15008KT 9999 -DZ FEW008 SCT020 BKN026 12/11 Q1018 NOSIG=\n",
            "METAR EIDW 171200Z 12006KT 100V160 9999 -RA FEW012 SCT024 BKN060 11/10 Q1019 TEMPO 4000=\n",
            "METAR EIDW 171130Z 12006KT 090V160 8000 -RA FEW006 SCT022 BKN045 11/10 Q1020 TEMPO 4000=\n",
            "METAR EIDW 171100Z 14008KT 6000 -RA FEW006 SCT022 BKN028 11/10 Q1020 TEMPO 4000=\n",
            "METAR EIDW 171030Z 15010KT 110V170 8000 -RA FEW006 SCT028 BKN060 11/09 Q1020 TEMPO 3000=\n",
            "METAR EIDW 171000Z 11006KT 8000 FEW005 SCT060 BKN110 10/09 Q1020 TEMPO 3000=\n",
            "METAR EIDW 170930Z 13006KT 100V180 9999 FEW006 BKN160 10/09 Q1020 TEMPO 3000=\n",
            "METAR EIDW 170900Z 11004KT 090V150 9999 FEW006 BKN160 08/08 Q1021 TEMPO 3000=\n",
            "METAR EIDW 170830Z VRB02KT 8000 FEW005 BKN150 08/07 Q1021 TEMPO 3000=\n",
            "METAR EIDW 170800Z 14006KT 110V190 3000 BR SCT001 SCT030 10/08 Q1021 TEMPO 1500=\n",
            "METAR EIDW 170730Z 23006KT 190V280 9999 FEW001 SCT030 09/08 Q1021 NOSIG=\n",
            "METAR EIDW 170700Z VRB03KT 9999 FEW001 SCT030 09/08 Q1021 NOSIG=\n",
            "METAR EIDW 170630Z VRB03KT 9999 FEW001 SCT008 08/08 Q1021 NOSIG=\n",
            "METAR EIDW 170600Z 28003KT 9999 FEW001 SCT008 05/05 Q1021 NOSIG=\n",
            "METAR EIDW 170530Z 27003KT 9999 FEW001 SCT008 06/06 Q1021 NOSIG=\n",
            "METAR EIDW 170500Z 00000KT 9999 FEW002 SCT012 05/05 Q1021 NOSIG=\n",
            "METAR EIDW 170430Z 07003KT 9999 FEW002 SCT012 05/04 Q1020 NOSIG=\n",
            "METAR EIDW 170400Z VRB03KT 9999 FEW002 SCT012 06/05 Q1021 NOSIG=\n",
            "METAR EIDW 170330Z 14003KT 9999 FEW002 SCT012 06/05 Q1021 NOSIG=\n",
            "METAR EIDW 170300Z 15002KT 9999 FEW002 SCT012 09/08 Q1021 NOSIG=\n",
            "METAR EIDW 170230Z VRB03KT 9999 BCFG FEW002 BKN012 08/08 Q1021 NOSIG=\n",
            "METAR EIDW 170200Z VRB03KT 9999 BCFG FEW002 SCT016 07/06 Q1021 NOSIG=\n",
            "METAR EIDW 170130Z 10005KT 9999 SCT010 BKN016 08/07 Q1021 NOSIG=\n",
            "METAR EIDW 170100Z 11002KT 9999 FEW007 BKN014 09/09 Q1021 NOSIG=\n",
            "METAR EIDW 170030Z 12004KT 9999 FEW007 BKN014 09/09 Q1021 NOSIG=\n",
            "METAR EIDW 170000Z 00000KT 9999 FEW007 BKN012 10/09 Q1021 NOSIG=\n",
            "METAR EIDW 162330Z 11002KT 9999 -RA FEW010 BKN018 09/09 Q1020 NOSIG=\n",
            "METAR EIDW 162300Z VRB02KT 9999 -RA FEW010 BKN015 10/08 Q1020 NOSIG=\n",
            "METAR EIDW 162230Z 14003KT 9999 FEW010 BKN016 10/08 Q1020 NOSIG=\n",
            "METAR EIDW 162200Z 11004KT 9999 FEW010 BKN016 10/08 Q1020 NOSIG=\n",
            "METAR EIDW 162130Z VRB03KT 8000 -RA FEW011 SCT020 BKN026 09/08 Q1019 NOSIG=\n",
            "METAR EIDW 162100Z VRB03KT 8000 -RA FEW011 SCT022 BKN026 10/08 Q1019 NOSIG=\n",
            "METAR EIDW 162030Z VRB03KT 9999 FEW018 SCT028 BKN032 10/07 Q1019 NOSIG=\n",
            "METAR EIDW 162000Z 15004KT 9999 FEW018 SCT034 BKN050 09/07 Q1019 NOSIG=\n",
            "METAR EIDW 161930Z 14004KT 110V180 9999 FEW018 BKN038 09/08 Q1019 NOSIG=\n",
            "METAR EIDW 161900Z VRB03KT 9999 FEW018 BKN060 08/07 Q1018 NOSIG=\n",
            "METAR EIDW 161830Z 36001KT 9999 FEW018 SCT070 BKN100 09/07 Q1018 NOSIG=\n",
            "METAR EIDW 161800Z VRB02KT 9999 FEW022 BKN100 10/08 Q1017 NOSIG=\n",
            "METAR EIDW 161730Z 20003KT 9999 FEW018 BKN130 11/08 Q1017 NOSIG=\n",
            "METAR EIDW 161700Z 36001KT 9999 FEW022 SCT170 10/08 Q1017 NOSIG=\n",
            "METAR EIDW 161630Z 28006KT 9999 FEW020 SCT200 09/07 Q1017 NOSIG=\n",
            "METAR EIDW 161600Z 28011KT 9999 FEW016 SCT023 10/08 Q1016 NOSIG=\n",
            "METAR EIDW 161530Z 26012KT 9999 -DZ FEW014 SCT017 BKN022 11/08 Q1016 NOSIG=\n",
            "METAR EIDW 161500Z 25010KT 210V290 9999 -RADZ FEW014 SCT017 BKN022 11/08 Q1015 NOSIG=\n",
            "METAR EIDW 161430Z 26011KT 220V280 9999 -RADZ FEW014 SCT018 BKN022 11/08 Q1015 NOSIG=\n",
            "METAR EIDW 161400Z 27015KT 9999 FEW010 SCT022 11/08 Q1014 NOSIG=\n",
            "METAR EIDW 161330Z 26011KT 9999 -DZ FEW007 SCT010 BKN013 11/09 Q1014 NOSIG=\n",
            "METAR EIDW 161300Z 25010KT 210V280 3000 -RADZ FEW005 SCT008 BKN012 10/09 Q1014 NOSIG=\n",
            "METAR EIDW 161230Z 25011KT 210V280 9999 -RADZ FEW007 SCT009 BKN012 10/09 Q1013 NOSIG=\n",
            "METAR EIDW 161200Z 26010KT 230V290 6000 -RADZ FEW006 SCT008 BKN010 10/09 Q1013 NOSIG=\n",
            "METAR EIDW 161130Z 25012KT 200V280 9999 -DZ FEW008 SCT010 BKN014 11/09 Q1013 NOSIG=\n",
            "METAR EIDW 161100Z 25010KT 190V280 9999 -DZ FEW007 SCT009 BKN012 10/09 Q1012 NOSIG=\n",
            "METAR EIDW 161030Z 25011KT 210V290 9999 -DZ FEW006 SCT008 BKN011 10/09 Q1012 NOSIG=\n",
            "METAR EIDW 161000Z 24009KT 200V290 3000 -RADZ FEW004 SCT006 BKN008 09/09 Q1011 TEMPO 6000 BKN010=\n",
            "METAR EIDW 160930Z 24009KT 200V310 8000 -RADZ FEW006 SCT008 BKN010 09/08 Q1011 NOSIG=\n",
            "METAR EIDW 160900Z 24010KT 190V280 9999 -DZ FEW006 SCT008 BKN012 09/08 Q1010 NOSIG=\n",
            "METAR EIDW 160830Z 24010KT 190V280 9999 -RADZ FEW006 SCT008 BKN010 09/08 Q1010 NOSIG=\n",
            "METAR EIDW 160800Z 23009KT 200V280 9999 -RADZ SCT005 BKN010 BKN020 09/08 Q1009 NOSIG=\n",
            "METAR EIDW 160730Z 24008G18KT 190V290 6000 -RADZ SCT005 BKN010 BKN020 09/08 Q1009 NOSIG=\n",
            "METAR EIDW 160700Z 23008KT 200V280 6000 -RADZ SCT005 SCT010 BKN020 09/08 Q1008 NOSIG=\n",
            "METAR EIDW 160630Z 23009KT 200V280 6000 -RADZ SCT007 BKN010 09/08 Q1008 NOSIG=\n",
            "METAR EIDW 160600Z 23008KT 190V260 6000 -RADZ SCT007 BKN010 09/08 Q1008 NOSIG=\n",
            "METAR EIDW 160530Z 23008KT 190V280 6000 -RADZ SCT008 BKN020 09/08 Q1007 NOSIG=\n",
            "METAR EIDW 160500Z 23007KT 180V280 6000 -RADZ SCT008 BKN020 09/08 Q1007 NOSIG=\n",
            "METAR EIDW 160430Z 23008KT 190V270 6000 -RADZ SCT010 BKN020 09/07 Q1007 NOSIG=\n",
            "METAR EIDW 160400Z 24008KT 200V290 6000 -RADZ SCT010 BKN020 09/08 Q1007 NOSIG=\n",
            "METAR EIDW 160330Z 23006KT 180V280 9999 FEW014 SCT020 BKN050 09/07 Q1006 NOSIG=\n",
            "METAR EIDW 160300Z 23007KT 200V280 9999 FEW014 SCT020 09/07 Q1006 NOSIG=\n",
            "METAR EIDW 160230Z 23007KT 190V270 9999 FEW014 SCT020 BKN050 08/07 Q1006 NOSIG=\n",
            "METAR EIDW 160200Z 24004KT 190V280 9999 FEW014 SCT020 BKN050 08/06 Q1006 NOSIG=\n",
            "METAR EIDW 160130Z 23004KT 190V270 9999 FEW014 BKN050 08/07 Q1006 NOSIG=\n",
            "METAR EIDW 160100Z 22004KT 190V260 9999 FEW014 BKN050 08/07 Q1006 NOSIG=\n",
            "METAR EIDW 160030Z VRB03KT 9999 FEW014 SCT050 07/06 Q1005 NOSIG=\n",
            "METAR EIDW 160000Z 23005KT 190V270 9999 FEW014 SCT200 08/07 Q1005 NOSIG=\n",
            "METAR EIDW 152330Z 27004KT 230V290 9999 FEW014 SCT200 08/07 Q1005 NOSIG=\n",
            "METAR EIDW 152300Z VRB03KT 9999 FEW014 SCT200 09/07 Q1005 NOSIG=\n",
            "METAR EIDW 152230Z 26003KT 9999 SCT014 SCT200 09/07 Q1005 NOSIG=\n",
            "METAR EIDW 152200Z 24005KT 210V280 9999 SCT014 SCT200 09/07 Q1005 NOSIG=\n",
            "METAR EIDW 152130Z 25004KT 210V300 9999 SCT014 BKN210 09/08 Q1004 NOSIG=\n",
            "METAR EIDW 152100Z 26005KT 9999 FEW014 SCT021 BKN210 10/08 Q1004 NOSIG=\n",
            "METAR EIDW 152030Z 26006KT 220V280 9999 FEW017 SCT042 BKN210 10/08 Q1004 NOSIG=\n",
            "METAR EIDW 152000Z 27009KT 9999 FEW012 SCT033 BKN210 10/08 Q1004 NOSIG=\n",
            "METAR EIDW 151930Z 27008KT 9999 FEW012 SCT033 BKN210 10/09 Q1003 NOSIG=\n",
            "METAR EIDW 151900Z 27007KT 9999 FEW012 SCT027 BKN038 10/09 Q1003 NOSIG=\n",
            "METAR EIDW 151830Z 27008KT 9999 FEW012 SCT017 BKN020 11/09 Q1003 NOSIG=\n",
            "METAR EIDW 151800Z 24004KT 190V280 9999 FEW012 SCT017 BKN020 12/09 Q1002 NOSIG=\n",
            "METAR EIDW 151730Z 22005KT 190V280 9999 FEW015 SCT030 BKN150 12/09 Q1002 NOSIG=\n",
            "METAR EIDW 151700Z 22004KT 200V260 9999 FEW015 SCT025 BKN037 12/09 Q1002 NOSIG=\n",
            "METAR EIDW 151630Z 25004KT 180V300 9999 FEW012 SCT018 BKN032 12/09 Q1002 NOSIG=\n",
            "METAR EIDW 151600Z 26007KT 230V290 9999 FEW012 SCT018 BKN027 12/09 Q1002 NOSIG=\n",
            "METAR EIDW 151530Z 26008KT 230V290 9999 FEW011 SCT018 BKN200 13/09 Q1001 NOSIG=\n",
            "METAR EIDW 151500Z 27012KT 9999 FEW011 SCT014 BKN018 13/10 Q1001 NOSIG=\n",
            "METAR EIDW 151430Z 27011KT 9999 -DZ FEW011 SCT014 BKN016 12/10 Q1001 NOSIG=\n",
            "METAR EIDW 151400Z 27009KT 9999 FEW011 SCT016 BKN020 13/11 Q1001 NOSIG=\n",
            "METAR EIDW 151330Z 26008KT 230V310 9999 FEW010 BKN015 BKN150 13/10 Q1001 NOSIG=\n",
            "METAR EIDW 151300Z 27010KT 9999 FEW007 SCT009 BKN011 12/11 Q1000 BECMG BKN015=\n",
            "METAR EIDW 151230Z 27011KT 9999 FEW006 SCT008 BKN011 12/11 Q1000 BECMG BKN015=\n",
            "METAR EIDW 151200Z 27010KT 9999 FEW005 SCT006 BKN009 12/11 Q1000 BECMG BKN015=\n",
            "METAR EIDW 151130Z 24007KT 170V280 6000 -RADZ FEW004 SCT005 BKN007 12/11 Q1000 TEMPO 4000=\n",
            "METAR EIDW 151100Z 22009KT 190V260 7000 -RADZ FEW004 SCT005 BKN007 12/11 Q1000 TEMPO 4000=\n",
            "METAR EIDW 151030Z 22007KT 170V250 3000 -RADZ BR FEW005 SCT008 BKN013 12/12 Q1000 TEMPO BKN010=\n",
            "METAR EIDW 151000Z 21007KT 180V240 3000 -RADZ BR FEW006 SCT009 BKN013 12/11 Q1000 TEMPO BKN010=\n",
            "METAR EIDW 150930Z 21008KT 180V240 4000 -RADZ BR FEW007 SCT010 BKN013 12/11 Q1000 TEMPO BKN010=\n",
            "METAR EIDW 150900Z 20007KT 9999 FEW011 SCT015 BKN028 12/11 Q0999 NOSIG=\n",
            "METAR EIDW 150830Z 19006KT 160V220 9999 -RA FEW005 SCT013 BKN017 12/11 Q1000 NOSIG=\n",
            "METAR EIDW 150800Z VRB03KT 9999 -RA FEW002 BKN028 12/11 Q0999 NOSIG=\n",
            "METAR EIDW 150730Z VRB02KT 9999 -RA FEW010 BKN025 11/10 Q1000 NOSIG=\n",
            "METAR EIDW 150700Z 15005KT 9999 -RA FEW003 BKN019 10/10 Q1000 TEMPO 4000=\n",
            "METAR EIDW 150630Z 14005KT 100V160 9999 -RA FEW002 SCT020 BKN025 10/10 Q1000 TEMPO 4000=\n",
            "METAR EIDW 150600Z 15004KT 110V170 9000 -RA FEW005 BKN045 10/10 Q1000 RERA TEMPO 4000=\n",
            "METAR EIDW 150530Z 14006KT 110V170 6000 -RA FEW005 BKN045 10/10 Q1000 NOSIG=\n",
            "METAR EIDW 150500Z 14006KT 8000 -RA FEW002 BKN045 10/10 Q1001 NOSIG=\n",
            "METAR EIDW 150430Z 13004KT 100V180 9000 -RA FEW003 SCT025 BKN045 11/10 Q1001 NOSIG=\n",
            "METAR EIDW 150400Z VRB02KT 9999 FEW003 BKN020 BKN060 11/11 Q1001 TEMPO BKN010=\n",
            "METAR EIDW 150330Z 17005KT 9999 -RA FEW008 BKN090 11/11 Q1002 TEMPO BKN010=\n",
            "METAR EIDW 150300Z 20006KT 170V230 9999 -RA FEW010 SCT070 BKN080 11/11 Q1002 TEMPO BKN010=\n",
            "METAR EIDW 150230Z 22006KT 180V260 9999 -RA FEW010 BKN060 12/11 Q1002 TEMPO BKN010=\n",
            "METAR EIDW 150200Z 22007KT 180V250 9999 -RA FEW010 BKN070 12/10 Q1003 NOSIG=\n",
            "METAR EIDW 150130Z 22009KT 190V250 9999 -RA FEW010 SCT014 BKN070 12/11 Q1003 NOSIG=\n",
            "METAR EIDW 150100Z 22011KT 190V270 9999 FEW013 BKN014 12/11 Q1003 NOSIG=\n",
            "METAR EIDW 150030Z 22009KT 190V250 9999 BKN014 BKN090 12/11 Q1003 NOSIG=\n",
            "METAR EIDW 150000Z 20008KT 9999 FEW009 SCT070 BKN090 12/10 Q1002 NOSIG=\n",
            "METAR EIDW 142330Z 19007KT 9999 FEW009 BKN070 12/10 Q1002 NOSIG=\n",
            "METAR EIDW 142300Z 17006KT 9999 -RA FEW012 BKN080 12/10 Q1003 NOSIG=\n",
            "METAR EIDW 142230Z 14004KT 110V170 9999 -RA FEW008 SCT060 BKN080 11/10 Q1003 NOSIG=\n",
            "METAR EIDW 142200Z 16006KT 9999 -RA FEW015 BKN019 11/10 Q1003 NOSIG=\n",
            "METAR EIDW 142130Z 14006KT 110V170 8000 -RA FEW002 BKN020 11/10 Q1004 NOSIG=\n",
            "METAR EIDW 142100Z 15005KT 110V200 9999 -RADZ FEW012 SCT017 BKN036 11/10 Q1004 NOSIG=\n",
            "METAR EIDW 142030Z 16005KT 9999 -RA FEW012 SCT020 BKN048 11/10 Q1004 NOSIG=\n",
            "METAR EIDW 142000Z 16005KT 9999 -RA FEW012 SCT020 BKN048 11/10 Q1004 NOSIG=\n",
            "METAR EIDW 141930Z 15005KT 120V180 8000 -RADZ FEW010 SCT013 BKN016 11/10 Q1004 TEMPO 4000 BKN010=\n",
            "METAR EIDW 141900Z 15006KT 8000 -RADZ FEW012 SCT020 BKN029 11/10 Q1005 TEMPO 4000 BKN010=\n",
            "METAR EIDW 141830Z 15005KT 9000 -RADZ FEW012 SCT023 BKN032 11/10 Q1005 TEMPO 4000 BKN010=\n",
            "METAR EIDW 141800Z 14007KT 9999 -RADZ FEW012 SCT020 BKN050 12/10 Q1005 TEMPO 4000 BKN010=\n",
            "METAR EIDW 141730Z 17006KT 130V200 9999 -RA FEW012 SCT022 BKN060 12/10 Q1005 NOSIG=\n",
            "METAR EIDW 141700Z 19007KT 9999 FEW012 SCT022 BKN090 13/09 Q1005 NOSIG=\n",
            "METAR EIDW 141630Z 19007KT 140V210 9999 FEW015 SCT022 BKN090 13/09 Q1005 NOSIG=\n",
            "METAR EIDW 141600Z 20008KT 170V230 9999 FEW015 SCT022 BKN080 13/10 Q1005 NOSIG=\n",
            "METAR EIDW 141530Z 21009KT 170V250 9999 FEW015 SCT022 BKN110 13/09 Q1005 NOSIG=\n",
            "METAR EIDW 141500Z 22009KT 180V260 9999 FEW015 SCT022 BKN150 13/09 Q1005 NOSIG=\n",
            "METAR EIDW 141430Z 22009KT 180V260 9999 FEW015 BKN036 13/10 Q1005 NOSIG=\n",
            "METAR EIDW 141400Z 22009KT 170V270 9999 FEW015 BKN036 13/10 Q1005 NOSIG=\n",
            "METAR EIDW 141330Z 22010KT 200V270 9999 FEW013 SCT026 BKN036 13/10 Q1005 NOSIG=\n",
            "METAR EIDW 141300Z 22009KT 190V260 9999 FEW013 SCT032 BKN140 13/10 Q1005 NOSIG=\n",
            "METAR EIDW 141230Z 21010KT 190V250 9999 FEW011 SCT014 BKN017 13/11 Q1005 NOSIG=\n",
            "METAR EIDW 141200Z 22007KT 190V290 9999 FEW009 SCT011 BKN013 13/11 Q1004 BECMG SCT015=\n",
            "METAR EIDW 141130Z 23008KT 190V260 9999 FEW009 SCT011 BKN013 13/11 Q1004 BECMG SCT015=\n",
            "METAR EIDW 141100Z 21009KT 180V270 9999 FEW009 SCT011 BKN013 13/11 Q1004 BECMG SCT015=\n",
            "METAR EIDW 141030Z 18004KT 140V210 9999 FEW008 SCT010 BKN012 12/11 Q1004 BECMG SCT015=\n",
            "METAR EIDW 141000Z 22005KT 190V270 9999 FEW009 SCT010 BKN012 12/11 Q1004 BECMG SCT015=\n",
            "METAR EIDW 140930Z 21006KT 180V240 9999 FEW009 SCT010 BKN012 12/10 Q1004 BECMG SCT015=\n",
            "METAR EIDW 140900Z 20006KT 170V250 9999 FEW010 SCT015 BKN060 11/10 Q1003 NOSIG=\n",
            "METAR EIDW 140830Z 20006KT 170V250 9999 FEW010 SCT016 BKN060 11/10 Q1003 NOSIG=\n",
            "METAR EIDW 140800Z 20004KT 160V220 9999 FEW010 BKN060 BKN120 10/09 Q1003 NOSIG=\n",
            "METAR EIDW 140730Z 20005KT 170V230 9999 FEW012 BKN060 10/09 Q1003 NOSIG=\n",
            "METAR EIDW 140700Z 20006KT 9999 FEW014 SCT020 BKN060 11/09 Q1003 NOSIG=\n",
            "METAR EIDW 140630Z 19006KT 9999 FEW012 SCT014 BKN060 11/10 Q1003 NOSIG=\n",
            "METAR EIDW 140600Z 19005KT 9999 FEW010 SCT040 BKN060 11/10 Q1003 NOSIG=\n",
            "METAR EIDW 140530Z 20005KT 9999 FEW010 SCT015 BKN020 10/10 Q1003 NOSIG=\n",
            "METAR EIDW 140500Z 20007KT 9999 FEW010 BKN060 10/09 Q1003 NOSIG=\n",
            "METAR EIDW 140430Z 21004KT 9999 FEW010 BKN130 10/09 Q1002 NOSIG=\n",
            "METAR EIDW 140400Z 21005KT 170V230 9999 FEW010 BKN021 10/10 Q1003 NOSIG=\n",
            "METAR EIDW 140330Z 21006KT 9999 FEW010 BKN030 10/09 Q1003 NOSIG=\n",
            "METAR EIDW 140300Z 21007KT 9999 FEW009 SCT026 10/09 Q1003 NOSIG=\n",
            "METAR EIDW 140230Z 22007KT 190V260 9999 FEW009 SCT011 BKN060 10/09 Q1003 NOSIG=\n",
            "METAR EIDW 140200Z 22006KT 9999 SCT011 BKN060 09/09 Q1003 NOSIG=\n",
            "METAR EIDW 140130Z 00000KT 0400 R28L/1000D R10R/P2000 R28R/1900U BCFG FEW002 SCT060 BKN090 09/08 Q1003 BECMG 6000=\n",
            "METAR EIDW 140100Z 00000KT 4000 R28L/P2000 R10R/1700D R28R/P2000 BCFG FEW002 SCT060 BKN090 06/06 Q1003 TEMPO 6000=\n",
            "METAR EIDW 140030Z VRB03KT 5000 -RA FEW001 BKN060 08/07 Q1003 TEMPO 6000=\n",
            "METAR EIDW 140000Z 14004KT 110V170 5000 -RA FEW001 BKN070 08/08 Q1003 TEMPO 6000=\n",
            "METAR EIDW 132330Z 14007KT 4500 -RA FEW001 SCT003 BKN006 08/08 Q1003 TEMPO 6000=\n",
            "METAR EIDW 132300Z 14007KT 110V170 5000 -RA FEW001 SCT002 BKN003 08/08 Q1003 TEMPO SCT003=\n",
            "METAR EIDW 132230Z 13005KT 100V160 8000 -RA FEW002 SCT005 BKN014 08/07 Q1003 NOSIG=\n",
            "METAR EIDW 132200Z 14006KT 100V170 4200 -RA FEW002 BKN003 BKN013 08/08 Q1004 TEMPO 6000 BKN005=\n",
            "METAR EIDW 132130Z 12007KT 3600 -DZ BR SCT002 BKN003 08/08 Q1004 TEMPO BKN005=\n",
            "METAR EIDW 132100Z 12005KT 100V160 1800 -RADZ BR SCT002 BKN003 08/08 Q1004 TEMPO 3000 BKN005=\n",
            "METAR EIDW 132030Z 14006KT 110V170 1800 -RADZ BR SCT002 BKN003 08/08 Q1004 TEMPO BKN002=\n",
            "METAR EIDW 132000Z 14006KT 110V170 2500 -RADZ BR SCT002 BKN003 08/07 Q1004 NOSIG=\n",
            "METAR EIDW 131930Z 13005KT 100V170 7000 -RADZ SCT002 BKN004 08/07 Q1004 TEMPO 3000=\n",
            "METAR EIDW 131900Z 14004KT 110V170 6000 -RADZ SCT002 BKN004 08/07 Q1004 TEMPO 3000=\n",
            "METAR EIDW 131830Z 14006KT 6000 -RADZ SCT002 BKN004 08/07 Q1004 TEMPO 3000=\n",
            "METAR EIDW 131800Z 14006KT 100V160 9999 -RADZ FEW002 BKN004 08/07 Q1004 TEMPO 3000=\n",
            "METAR EIDW 131730Z 12007KT 9999 -RA FEW003 SCT004 BKN006 08/07 Q1004 TEMPO BKN004=\n",
            "METAR EIDW 131700Z 14006KT 9999 FEW004 SCT005 BKN007 08/07 Q1004 TEMPO BKN004=\n",
            "METAR EIDW 131630Z 13006KT 100V170 9999 FEW005 SCT006 BKN009 08/07 Q1004 TEMPO BKN004=\n",
            "METAR EIDW 131600Z 11007KT 080V160 9999 FEW004 SCT005 BKN007 08/07 Q1004 TEMPO BKN004=\n",
            "METAR EIDW 131530Z 10008KT 070V140 9999 FEW004 SCT005 BKN007 09/07 Q1003 TEMPO BKN004=\n",
            "METAR EIDW 131500Z 10008KT 9999 FEW004 SCT005 BKN007 08/07 Q1004 TEMPO BKN004=\n",
            "METAR EIDW 131430Z 11007KT 080V140 9999 FEW004 SCT005 BKN007 08/07 Q1004 TEMPO BKN004=\n",
            "METAR EIDW 131400Z 11007KT 9999 FEW005 SCT007 BKN011 08/07 Q1004 BECMG SCT003 BKN006=\n",
            "METAR EIDW 131330Z 12007KT 9999 FEW006 SCT008 BKN016 08/06 Q1004 BECMG SCT003 BKN006=\n",
            "METAR EIDW 131300Z 13006KT 100V170 9999 FEW009 SCT013 BKN022 08/06 Q1005 BECMG SCT003 BKN006=\n",
            "METAR EIDW 131230Z 13006KT 100V170 9999 FEW015 SCT024 BKN029 08/05 Q1005 NOSIG=\n",
            "METAR EIDW 131200Z 14004KT 110V170 9999 FEW015 SCT023 BKN027 08/05 Q1005 NOSIG=\n",
            "METAR EIDW 131130Z 11004KT 080V140 9999 FEW018 BKN027 08/04 Q1005 NOSIG=\n",
            "METAR EIDW 131100Z VRB03KT 9999 FEW018 BKN030 08/04 Q1005 NOSIG=\n",
            "METAR EIDW 131030Z 14004KT 080V190 9999 FEW018 SCT028 BKN035 07/04 Q1006 NOSIG=\n",
            "METAR EIDW 131000Z 18004KT 150V210 9999 FEW018 SCT028 BKN039 07/04 Q1006 NOSIG=\n",
            "METAR EIDW 130930Z 17004KT 9999 FEW018 SCT028 BKN040 06/03 Q1006 NOSIG=\n",
            "METAR EIDW 130900Z 17004KT 9999 FEW020 SCT045 BKN150 06/03 Q1006 NOSIG=\n",
            "METAR EIDW 130830Z 16005KT 9999 FEW020 SCT045 BKN150 05/03 Q1006 NOSIG=\n",
            "METAR EIDW 130800Z VRB02KT 9999 FEW023 SCT047 BKN150 05/03 Q1006 NOSIG=\n",
            "METAR EIDW 130730Z 19003KT 9999 FEW023 SCT037 BKN170 04/02 Q1006 NOSIG=\n",
            "METAR EIDW 130700Z 20005KT 9999 FEW023 SCT037 BKN170 04/02 Q1006 NOSIG=\n",
            "METAR EIDW 130630Z 20005KT 9999 FEW023 SCT042 BKN160 04/02 Q1006 NOSIG=\n",
            "METAR EIDW 130600Z 21005KT 9999 FEW023 SCT042 BKN170 04/02 Q1006 NOSIG=\n",
            "METAR EIDW 130530Z 21006KT 9999 FEW018 SCT050 BKN170 04/02 Q1006 NOSIG=\n",
            "METAR EIDW 130500Z 20006KT 170V230 9999 FEW018 SCT037 BKN170 04/02 Q1006 NOSIG=\n",
            "METAR EIDW 130430Z 21005KT 9999 FEW018 SCT037 BKN170 04/02 Q1006 NOSIG=\n",
            "METAR EIDW 130400Z 21005KT 190V250 9999 FEW015 SCT045 BKN180 04/02 Q1007 NOSIG=\n",
            "METAR EIDW 130330Z 20005KT 170V240 9999 FEW015 BKN050 04/03 Q1007 NOSIG=\n",
            "METAR EIDW 130300Z 22005KT 200V260 9999 FEW015 BKN050 05/03 Q1007 NOSIG=\n",
            "METAR EIDW 130230Z 21007KT 170V240 9999 FEW013 BKN050 05/03 Q1007 NOSIG=\n",
            "METAR EIDW 130200Z 21006KT 190V260 9999 FEW018 BKN050 05/03 Q1007 NOSIG=\n",
            "METAR EIDW 130130Z 21007KT 9999 FEW018 SCT048 BKN220 05/03 Q1007 NOSIG=\n",
            "METAR EIDW 130100Z 22007KT 190V260 9999 FEW018 SCT048 BKN220 05/03 Q1007 NOSIG=\n",
            "METAR EIDW 130030Z 23007KT 190V280 9999 FEW018 SCT060 BKN240 05/03 Q1006 NOSIG=\n",
            "METAR EIDW 130000Z 23007KT 190V270 9999 FEW018 SCT050 BKN240 05/03 Q1006 NOSIG=\n",
            "METAR EIDW 122330Z 23007KT 190V280 9999 FEW018 BKN050 05/03 Q1006 NOSIG=\n",
            "METAR EIDW 122300Z 23007KT 190V270 9999 FEW018 05/02 Q1006 NOSIG=\n",
            "METAR EIDW 122230Z 23008KT 190V270 9999 FEW018 SCT060 06/03 Q1006 NOSIG=\n",
            "METAR EIDW 122200Z 24007KT 200V300 9999 FEW018 BKN060 06/03 Q1005 NOSIG=\n",
            "METAR EIDW 122130Z 24008KT 200V270 9999 FEW018 BKN060 06/03 Q1005 NOSIG=\n",
            "METAR EIDW 122100Z 24008KT 190V280 9999 FEW011 SCT050 05/04 Q1005 NOSIG=\n",
            "METAR EIDW 122030Z 23008KT 200V260 9999 FEW012 BKN050 05/04 Q1005 NOSIG=\n",
            "METAR EIDW 122000Z NIL=\n",
            "METAR EIDW 121930Z 25009KT 180V290 9999 -SHRA FEW015CB BKN020 06/04 Q1004 TEMPO SHRA=\n",
            "METAR EIDW 121900Z 24009KT 200V280 9999 FEW015CB BKN050 06/03 Q1004 TEMPO SHRA=\n",
            "METAR EIDW 121830Z 24011KT 190V280 9999 -SHRA FEW012 BKN025 07/03 Q1003 NOSIG=\n",
            "METAR EIDW 121800Z 24011KT 190V280 9999 -SHRA FEW012 SCT025 07/03 Q1003 NOSIG=\n",
            "METAR EIDW 121730Z 23011KT 200V280 9999 FEW012 SCT025 07/03 Q1003 NOSIG=\n",
            "METAR EIDW 121700Z 23011G21KT 200V280 9999 FEW012 SCT025 07/04 Q1002 NOSIG=\n",
            "METAR EIDW 121630Z 24009KT 200V300 9999 FEW012 SCT025 07/03 Q1002 NOSIG=\n",
            "METAR EIDW 121600Z 24011KT 190V270 9999 -SHRA FEW012 SCT025 07/03 Q1002 NOSIG=\n",
            "METAR EIDW 121530Z 23010G22KT 200V290 9999 -SHRA FEW012 SCT025 08/02 Q1002 NOSIG=\n",
            "METAR EIDW 121500Z 23013G24KT 200V280 9999 FEW012 SCT025 08/03 Q1002 NOSIG=\n",
            "METAR EIDW 121430Z 25008KT 210V290 9999 FEW012 SCT020 08/03 Q1002 NOSIG=\n",
            "METAR EIDW 121400Z 23011G21KT 190V290 9999 -SHRA FEW012 BKN030 08/02 Q1002 NOSIG=\n",
            "METAR EIDW 121330Z 23012KT 190V280 9999 FEW012 BKN030 08/02 Q1002 NOSIG=\n",
            "METAR EIDW 121300Z 24012G23KT 200V280 9999 FEW012 BKN020 08/02 Q1002 NOSIG=\n",
            "METAR EIDW 121230Z 22011G21KT 190V280 9999 FEW015 SCT030 07/02 Q1002 NOSIG=\n",
            "METAR EIDW 121200Z 23011KT 200V280 9999 FEW015 SCT030 07/03 Q1002 NOSIG=\n",
            "METAR EIDW 121130Z 24010KT 200V280 9999 FEW015 SCT030 07/02 Q1002 NOSIG=\n",
            "METAR EIDW 121100Z 23010KT 200V270 9999 FEW015 06/02 Q1002 NOSIG=\n",
            "METAR EIDW 121030Z 23009KT 190V280 9999 FEW015 05/01 Q1002 NOSIG=\n",
            "METAR EIDW 121000Z 23009KT 200V280 9999 FEW015 05/01 Q1001 NOSIG=\n",
            "METAR EIDW 120930Z 23009KT 190V280 9999 FEW015 04/01 Q1001 NOSIG=\n",
            "METAR EIDW 120900Z 24007KT 200V290 9999 FEW015 03/00 Q1001 NOSIG=\n",
            "METAR EIDW 120830Z 23008KT 170V270 9999 FEW015 03/00 Q1001 NOSIG=\n",
            "METAR EIDW 120800Z 24007KT 180V300 9999 FEW015 02/M00 Q1000 NOSIG=\n",
            "METAR EIDW 120730Z 23009KT 190V270 9999 FEW010 02/M00 Q1000 NOSIG=\n",
            "METAR EIDW 120700Z 23007KT 170V290 9999 FEW013 02/00 Q1000 NOSIG=\n",
            "METAR EIDW 120630Z 24007KT 190V280 9999 FEW018 02/M00 Q0999 NOSIG=\n",
            "METAR EIDW 120600Z 24008KT 200V270 9999 FEW018 02/M00 Q0999 NOSIG=\n",
            "METAR EIDW 120530Z 24008KT 190V280 9999 FEW018 02/M00 Q0998 NOSIG=\n",
            "METAR EIDW 120500Z 24009KT 210V290 9999 FEW018 02/00 Q0998 NOSIG=\n",
            "METAR EIDW 120430Z 24009KT 200V270 9999 FEW018 02/00 Q0998 NOSIG=\n",
            "METAR EIDW 120400Z 24009KT 210V290 9999 FEW018 02/00 Q0997 NOSIG=\n",
            "METAR EIDW 120330Z 24009KT 190V280 9999 FEW018 02/00 Q0997 NOSIG=\n",
            "METAR EIDW 120300Z 24009KT 190V280 9999 FEW018 02/00 Q0997 NOSIG=\n",
            "METAR EIDW 120230Z 25011KT 220V280 9999 FEW018 03/00 Q0997 NOSIG=\n",
            "METAR EIDW 120200Z 25010KT 200V280 9999 FEW018 03/00 Q0996 NOSIG=\n",
            "METAR EIDW 120130Z 24009KT 190V270 9999 FEW018 03/00 Q0996 NOSIG=\n",
            "METAR EIDW 120100Z 24008KT 190V280 9999 FEW018 03/01 Q0996 NOSIG=\n",
            "METAR EIDW 120030Z 25011KT 210V280 9999 FEW018 03/01 Q0996 NOSIG=\n",
            "METAR EIDW 120000Z 25009KT 200V270 9999 FEW018 03/01 Q0996 NOSIG=\n",
            "METAR EIDW 112330Z 25008KT 200V280 9999 FEW018 03/01 Q0995 NOSIG=\n",
            "METAR EIDW 112300Z 24006KT 210V280 9999 FEW018 04/01 Q0995 NOSIG=\n",
            "METAR EIDW 112230Z 24008KT 200V280 9999 FEW018 04/01 Q0995 NOSIG=\n",
            "METAR EIDW 112200Z 24006KT 200V260 9999 FEW018 SCT130 04/01 Q0995 NOSIG=\n",
            "METAR EIDW 112130Z 24006KT 190V340 9999 FEW018 SCT120 04/02 Q0995 NOSIG=\n",
            "METAR EIDW 112100Z 24007KT 200V280 9999 FEW018 04/01 Q0995 NOSIG=\n",
            "METAR EIDW 112030Z 23007KT 190V280 9999 FEW018 SCT100 04/01 Q0994 NOSIG=\n",
            "METAR EIDW 112000Z 23006KT 190V270 9999 FEW018 04/01 Q0994 NOSIG=\n",
            "METAR EIDW 111930Z 23006KT 180V260 9999 FEW030 05/01 Q0994 NOSIG=\n",
            "METAR EIDW 111900Z 23005KT 170V290 9999 FEW040 05/01 Q0994 NOSIG=\n",
            "METAR EIDW 111830Z 22005KT 190V250 9999 FEW020 05/01 Q0994 NOSIG=\n",
            "METAR EIDW 111800Z 24005KT 170V290 9999 FEW020 FEW025CB 06/01 Q0994 NOSIG=\n",
            "METAR EIDW 111730Z 25004KT 210V290 9999 FEW020 FEW025CB 06/01 Q0993 NOSIG=\n",
            "METAR EIDW 111700Z 25007KT 200V290 9999 FEW020 07/02 Q0993 NOSIG=\n",
            "METAR EIDW 111630Z 27010KT 9999 FEW020 07/03 Q0993 NOSIG=\n",
            "METAR EIDW 111600Z 27013KT 9999 -SHRA FEW010 FEW025CB SCT040 07/03 Q0993 NOSIG=\n",
            "METAR EIDW 111530Z 26012KT 9999 FEW018 FEW025CB 08/02 Q0992 NOSIG=\n",
            "METAR EIDW 111500Z 28017KT 9999 FEW018 FEW025CB SCT030 08/03 Q0992 NOSIG=\n",
            "METAR EIDW 111430Z 27015KT 9999 FEW018 SCT028 08/04 Q0992 NOSIG=\n",
            "METAR EIDW 111400Z 27016KT 9999 FEW018 SCT026 08/03 Q0992 NOSIG=\n",
            "METAR EIDW 111330Z 26014KT 9999 FEW016 SCT024 08/04 Q0992 NOSIG=\n",
            "METAR EIDW 111300Z 28016KT 9999 FEW016 SCT025 08/04 Q0992 NOSIG=\n",
            "METAR EIDW 111230Z 27013KT 9999 FEW016 SCT020 08/05 Q0992 NOSIG=\n",
            "METAR EIDW 111200Z 27014KT 9999 FEW016 BKN250 08/04 Q0992 NOSIG=\n",
            "METAR EIDW 111130Z 27013KT 9999 FEW015 SCT250 07/05 Q0992 NOSIG=\n",
            "METAR EIDW 111100Z 26013KT 9999 FEW012 BKN250 07/04 Q0992 NOSIG=\n",
            "METAR EIDW 111030Z 26015KT 9999 FEW015 BKN250 06/04 Q0991 NOSIG=\n",
            "METAR EIDW 111000Z 25008KT 210V290 9999 FEW010 BKN250 05/04 Q0991 NOSIG=\n",
            "METAR EIDW 110930Z 25007KT 200V320 9999 FEW006 SCT250 04/03 Q0991 NOSIG=\n",
            "METAR EIDW 110900Z 25006KT 190V280 9999 FEW010 SCT120 04/03 Q0991 NOSIG=\n",
            "METAR EIDW 110830Z 25007KT 220V290 9999 FEW007 SCT120 04/03 Q0991 NOSIG=\n",
            "METAR EIDW 110800Z 26009KT 9999 FEW015 SCT120 04/03 Q0990 NOSIG=\n",
            "METAR EIDW 110730Z 26011KT 220V300 9999 FEW015 BKN120 04/04 Q0990 NOSIG=\n",
            "METAR EIDW 110700Z 26009KT 230V300 9999 FEW004 BKN120 05/04 Q0989 NOSIG=\n",
            "METAR EIDW 110630Z 25007KT 200V290 8000 FEW003 SCT006 BKN008 05/04 Q0989 NOSIG=\n",
            "METAR EIDW 110600Z 26009KT 230V290 8000 FEW002 SCT004 BKN006 05/05 Q0989 NOSIG=\n",
            "METAR EIDW 110530Z 25006KT 220V280 3000 BR FEW002 SCT003 BKN005 05/05 Q0989 TEMPO 4000=\n",
            "METAR EIDW 110500Z 26008KT 240V300 2000 BR FEW001 SCT003 BKN005 05/04 Q0989 TEMPO 4000=\n",
            "METAR EIDW 110430Z 26008KT 2000 BR FEW001 SCT003 BKN042 04/04 Q0988 TEMPO 4000=\n",
            "METAR EIDW 110400Z 26005KT 0400 R28L/1900U R10R/P2000 R28R/1100U FG FEW001 BKN002 04/04 Q0988 TEMPO 4000=\n",
            "METAR EIDW 110330Z 27005KT 230V290 0800 R28L/2000 R10R/2000 R28R/1800U FG FEW002 BKN003 04/04 Q0988 TEMPO 4000=\n",
            "METAR EIDW 110300Z 27005KT 0300 FG BKN002 04/03 Q0988 TEMPO 4000=\n",
            "METAR EIDW 110230Z 25005KT 200V280 0300 FG BKN001 03/03 Q0988 TEMPO 4000=\n",
            "METAR EIDW 110200Z VRB03KT 0500 FG BKN002 03/03 Q0987 TEMPO 4000=\n",
            "METAR EIDW 110130Z 27007KT 0500 FG BKN002 02/02 Q0987 TEMPO 4000=\n",
            "METAR EIDW 110100Z 28008KT 0200 FG BKN001 01/01 Q0987 TEMPO 4000=\n",
            "METAR EIDW 110030Z 28004KT 0800 FG FEW001 BKN005 01/01 Q0987 TEMPO 4000=\n",
            "METAR EIDW 110000Z 29005KT 8000 BCFG FEW002 00/00 Q0986 TEMPO 4000=\n",
            "METAR EIDW 102330Z 28007KT 0800 FG FEW001 SCT003 BKN005 01/01 Q0986 TEMPO 4000 BKN012=\n",
            "METAR EIDW 102300Z 25003KT 0700 FG FEW001 SCT003 BKN005 02/01 Q0986 TEMPO 4000 BKN012=\n",
            "METAR EIDW 102230Z 25004KT 0800 FG FEW001 SCT003 BKN006 03/03 Q0986 TEMPO 4000 BKN012=\n",
            "METAR EIDW 102200Z VRB03KT 8000 BCFG FEW004 SCT032 02/02 Q0985 NOSIG=\n",
            "METAR EIDW 102130Z 34004KT 290V010 8000 FEW014 SCT036 03/03 Q0985 NOSIG=\n",
            "METAR EIDW 102100Z 33004KT 300V360 8000 FEW014 SCT034 03/03 Q0985 NOSIG=\n",
            "METAR EIDW 102030Z 02005KT 9000 FEW014 SCT036 03/02 Q0984 NOSIG=\n",
            "METAR EIDW 102000Z 03005KT 9999 FEW018 03/02 Q0984 NOSIG=\n",
            "METAR EIDW 101930Z 04007KT 360V060 9999 FEW018 04/03 Q0984 NOSIG=\n",
            "METAR EIDW 101900Z 04007KT 010V070 9999 FEW018 SCT200 05/04 Q0984 NOSIG=\n",
            "METAR EIDW 101830Z 04006KT 9999 FEW040 SCT100 05/04 Q0983 NOSIG=\n",
            "METAR EIDW 101800Z 05007KT 9999 FEW016 SCT040 BKN100 07/05 Q0983 NOSIG=\n",
            "METAR EIDW 111100Z 26013KT 9999 FEW012 BKN250 07/04 Q0992 NOSIG=\n",
            "METAR EIDW 101730Z 06006KT 9999 FEW015 SCT040 BKN090 07/05 Q0982 NOSIG=\n",
            "METAR EIDW 101700Z 06006KT 040V100 9999 FEW015 SCT040 BKN090 08/06 Q0982 NOSIG=\n",
            "METAR EIDW 101630Z 07006KT 9999 FEW013 SCT037 BKN090 08/06 Q0982 NOSIG=\n",
            "METAR EIDW 101600Z 08006KT 9999 VCSH FEW013 SCT036 BKN100 08/06 Q0982 NOSIG=\n",
            "METAR EIDW 101530Z 09007KT 9999 FEW013 SCT036 BKN110 09/05 Q0981 NOSIG=\n",
            "METAR EIDW 101500Z 11007KT 090V160 9999 FEW013 SCT030 BKN110 09/05 Q0981 NOSIG=\n",
            "METAR EIDW 101430Z 12007KT 090V160 9999 VCSH FEW011 SCT013 BKN030 09/06 Q0981 NOSIG=\n",
            "METAR EIDW 101400Z 13009KT 100V160 9999 SCT011 BKN013 BKN015 09/06 Q0981 NOSIG=\n",
            "METAR EIDW 101330Z 13009KT 100V160 9999 SCT010 BKN012 BKN016 09/06 Q0980 NOSIG=\n",
            "METAR EIDW 101300Z 12008KT 090V160 9999 FEW008 BKN011 BKN013 09/06 Q0980 TEMPO -SHRA BKN010=\n",
            "METAR EIDW 101230Z 14009KT 100V180 9999 FEW008 SCT010 BKN012 09/07 Q0980 TEMPO -SHRA BKN010=\n",
            "METAR EIDW 101200Z 13009KT 100V170 9999 FEW007 SCT009 BKN011 09/07 Q0980 TEMPO -SHRA BKN010=\n",
            "METAR EIDW 101130Z 14008KT 110V180 9999 FEW007 BKN010 09/06 Q0980 TEMPO -SHRA BKN010=\n",
            "METAR EIDW 101100Z 12009KT 100V160 9999 FEW007 SCT009 09/07 Q0980 TEMPO -SHRA BKN010=\n",
            "METAR EIDW 101030Z 14010KT 9999 VCSH FEW007 SCT009 08/07 Q0979 BECMG BKN015=\n",
            "METAR EIDW 101000Z 14008KT 100V160 9999 -SHRA FEW007 BKN009 07/07 Q0979 BECMG BKN015=\n",
            "METAR EIDW 100930Z VRB03KT 9999 -SHRA FEW007 BKN009 FEW018CB 06/06 Q0979 BECMG BKN015=\n",
            "METAR EIDW 100900Z 12004KT 080V170 9999 VCSH FEW007 SCT009 FEW018CB 05/05 Q0979 NOSIG=\n",
            "METAR EIDW 100830Z 10004KT 9999 VCSH FEW010 SCT016 FEW018CB 02/02 Q0978 NOSIG=\n",
            "METAR EIDW 100800Z 10003KT 9999 VCSH FEW010 SCT016 FEW018CB 02/01 Q0978 NOSIG=\n",
            "METAR EIDW 100730Z 11004KT 9999 -RADZ FEW010 SCT016 03/02 Q0978 NOSIG=\n",
            "METAR EIDW 100700Z 12003KT 9999 FEW010 SCT024 02/02 Q0977 NOSIG=\n",
            "METAR EIDW 100630Z 10003KT 9999 FEW012 SCT021 02/02 Q0977 NOSIG=\n",
            "METAR EIDW 100600Z 11004KT 9999 FEW011 02/02 Q0977 NOSIG=\n",
            "METAR EIDW 100530Z 11004KT 080V140 9999 FEW008 SCT038 02/02 Q0977 NOSIG=\n",
            "METAR EIDW 100500Z 09005KT 9999 FEW007 SCT011 BKN022 02/01 Q0976 NOSIG=\n",
            "METAR EIDW 100430Z 10005KT 9999 FEW007 01/01 Q0976 NOSIG=\n",
            "METAR EIDW 100400Z 11004KT 9999 FEW008 01/01 Q0976 NOSIG=\n",
            "METAR EIDW 100330Z VRB03KT 9999 FEW010 02/01 Q0976 NOSIG=\n",
            "METAR EIDW 100300Z 14004KT 9999 FEW010 01/01 Q0976 NOSIG=\n",
            "METAR EIDW 100230Z VRB03KT 9999 FEW010 02/02 Q0976 NOSIG=\n",
            "METAR EIDW 100200Z 14004KT 9999 FEW005 01/01 Q0976 NOSIG=\n",
            "METAR EIDW 100130Z 14004KT 100V170 9999 FEW005 02/01 Q0976 NOSIG=\n",
            "METAR EIDW 100100Z 13002KT 9999 FEW008 02/01 Q0976 NOSIG=\n",
            "METAR EIDW 100030Z VRB01KT 9999 FEW010 03/02 Q0976 NOSIG=\n",
            "METAR EIDW 100000Z 15003KT 9999 FEW015 SCT050 05/04 Q0975 NOSIG=\n",
            "METAR EIDW 092330Z 15004KT 9999 FEW015 SCT022 BKN048 06/06 Q0975 NOSIG=\n",
            "METAR EIDW 092300Z 15005KT 110V170 9999 FEW012 SCT017 BKN042 06/06 Q0975 NOSIG=\n",
            "METAR EIDW 092230Z 13005KT 080V170 9999 FEW005 SCT017 BKN042 06/05 Q0975 NOSIG=\n",
            "METAR EIDW 092200Z 13005KT 100V180 9999 FEW005 SCT017 BKN036 06/06 Q0975 NOSIG=\n",
            "METAR EIDW 092130Z 11004KT 9999 FEW005 SCT008 BKN020 06/06 Q0975 TEMPO 3000=\n",
            "METAR EIDW 092100Z VRB02KT 9999 FEW005 SCT007 BKN018 06/06 Q0974 TEMPO 3000=\n",
            "METAR EIDW 092030Z VRB02KT 9999 FEW005 BKN007 BKN016 06/06 Q0974 TEMPO 3000=\n",
            "METAR EIDW 092000Z 13002KT 6000 -DZ FEW007 SCT009 BKN011 06/06 Q0974 NOSIG=\n",
            "METAR EIDW 091930Z 10003KT 9999 SCT007 BKN011 06/06 Q0974 NOSIG=\n",
            "METAR EIDW 091900Z VRB03KT 9999 FEW005 BKN007 06/06 Q0974 NOSIG=\n",
            "METAR EIDW 091830Z VRB03KT 9999 FEW004 BKN007 06/06 Q0974 TEMPO 3000=\n",
            "METAR EIDW 091800Z 06005KT 020V100 8000 FEW003 SCT005 BKN007 06/06 Q0973 TEMPO 3000=\n",
            "METAR EIDW 091730Z 05005KT 020V080 7000 FEW003 BKN005 06/06 Q0973 TEMPO 3000=\n",
            "METAR EIDW 091700Z 04006KT 010V090 7000 -DZ FEW004 BKN006 BKN009 06/06 Q0973 NOSIG=\n",
            "METAR EIDW 091630Z 04006KT 010V110 4000 -RA FEW004 SCT005 BKN007 06/06 Q0973 NOSIG=\n",
            "METAR EIDW 091600Z 05006KT 6000 -RA SCT004 SCT005 BKN006 06/06 Q0973 TEMPO 4000=\n",
            "METAR EIDW 091530Z 06008KT 5000 -RADZ FEW003 BKN005 BKN007 06/06 Q0973 TEMPO 4000=\n",
            "METAR EIDW 091500Z 05007KT 020V100 9999 FEW005 SCT007 BKN008 06/06 Q0973 TEMPO 4000=\n",
            "METAR EIDW 091430Z 05008KT 9999 FEW007 BKN008 07/05 Q0973 TEMPO 4000=\n",
            "METAR EIDW 091400Z 06009KT 9999 FEW006 BKN009 06/05 Q0973 TEMPO 4000=\n",
            "METAR EIDW 091330Z 06008KT 8000 FEW006 SCT008 BKN009 06/05 Q0973 TEMPO 4000=\n",
            "METAR EIDW 091300Z 07010KT 9999 FEW006 BKN008 06/05 Q0973 TEMPO 4000=\n",
            "METAR EIDW 091230Z 06009KT 7000 FEW005 BKN007 06/05 Q0973 TEMPO 3000=\n",
            "METAR EIDW 091200Z 07008KT 040V110 7000 -DZ FEW005 SCT007 BKN008 06/05 Q0974 TEMPO 3000=\n",
            "METAR EIDW 091130Z 07009KT 4500 -RADZ BR FEW004 BKN005 BKN006 06/05 Q0974 TEMPO 3000=\n",
            "METAR EIDW 091100Z 06010KT 4000 -DZ BR FEW006 BKN009 BKN011 06/05 Q0974 TEMPO 3000=\n",
            "METAR EIDW 091030Z 07010KT 5000 -DZ FEW006 BKN008 06/05 Q0974 TEMPO 4000=\n",
            "METAR EIDW 091000Z 07010KT 7000 FEW006 BKN007 06/05 Q0974 TEMPO 4000=\n",
            "METAR EIDW 090930Z 07010KT 9999 -DZ FEW006 BKN007 06/05 Q0974 TEMPO 4000=\n",
            "METAR EIDW 090900Z 07011KT 030V090 9999 FEW006 BKN007 06/05 Q0974 TEMPO 4000=\n",
            "METAR EIDW 090830Z 07012KT 9999 FEW006 BKN008 06/05 Q0973 TEMPO 4000=\n",
            "METAR EIDW 090800Z 08014KT 9999 -RA FEW004 SCT005 BKN006 06/05 Q0973 TEMPO 4000=\n",
            "METAR EIDW 090730Z 08014KT 9999 FEW004 SCT005 BKN006 06/05 Q0973 TEMPO 4000=\n",
            "METAR EIDW 090700Z 08014KT 9999 FEW004 SCT005 BKN006 06/05 Q0973 TEMPO 4000=\n",
            "METAR EIDW 090630Z 08015KT 9999 FEW004 SCT006 BKN007 06/05 Q0973 TEMPO 4000=\n",
            "METAR EIDW 090600Z 08016KT 9999 -RA FEW004 SCT005 BKN006 05/05 Q0973 TEMPO 4000=\n",
            "METAR EIDW 090530Z 08014KT 9999 -RA FEW004 SCT005 BKN006 05/05 Q0973 TEMPO 4000=\n",
            "METAR EIDW 090500Z 08016KT 9999 -RA FEW004 SCT005 BKN006 05/05 Q0973 TEMPO 4000=\n",
            "METAR EIDW 090430Z 07017KT 6000 -RA FEW003 SCT004 BKN006 05/05 Q0973 TEMPO 4000=\n",
            "METAR EIDW 090400Z 08015KT 9999 -RA FEW004 SCT006 BKN007 05/05 Q0973 TEMPO 4000=\n",
            "METAR EIDW 090330Z 08014KT 9999 -RA FEW003 SCT005 BKN006 05/05 Q0973 TEMPO 4000=\n",
            "METAR EIDW 090300Z 08017KT 9999 -RA FEW003 SCT005 BKN006 05/05 Q0974 TEMPO 4000=\n",
            "METAR EIDW 090230Z 08016KT 5000 -RA FEW003 SCT004 BKN006 05/05 Q0974 TEMPO 1500=\n",
            "METAR EIDW 090200Z 08017KT 6000 -RA FEW003 SCT004 BKN006 05/05 Q0974 TEMPO 1500=\n",
            "METAR EIDW 090130Z 08016KT 5000 -RA FEW002 SCT003 BKN005 05/05 Q0974 TEMPO 1500=\n",
            "METAR EIDW 090100Z 08018KT 2500 RA FEW002 SCT003 BKN004 05/05 Q0974 TEMPO 1500=\n",
            "METAR EIDW 090030Z 09017KT 2500 -RA BR FEW002 SCT003 BKN004 05/05 Q0975 TEMPO 1500=\n",
            "METAR EIDW 090000Z 09013KT 2000 -RA BR FEW002 SCT003 BKN004 06/05 Q0975 TEMPO 1500=\n",
            "METAR EIDW 082330Z 08013KT 5000 -RA FEW002 SCT004 BKN005 06/05 Q0975 TEMPO 1500=\n",
            "METAR EIDW 082300Z 09016KT 5000 -RA FEW002 SCT004 BKN005 06/05 Q0975 TEMPO 1500=\n",
            "METAR EIDW 082230Z 09018KT 1800 -RA BR SCT002 BKN003 06/06 Q0976 TEMPO 3000=\n",
            "METAR EIDW 082200Z 09016KT 1700 -RA BR SCT002 BKN003 06/06 Q0976 TEMPO 3000=\n",
            "METAR EIDW 082130Z 09017KT 1400 -RA BR SCT001 BKN002 07/06 Q0976 TEMPO 3000=\n",
            "METAR EIDW 082100Z 08015KT 1300 -RA BR SCT001 BKN002 07/07 Q0976 TEMPO 1500 BR=\n",
            "METAR EIDW 082030Z 09012KT 0600 R10R/P2000 R28L/1900U R10L/1900U -RA FG SCT001 BKN002 07/07 Q0976 TEMPO 1500 BR=\n",
            "METAR EIDW 082000Z 08011KT 0900 -RADZ FG SCT001 BKN002 07/07 Q0976 TEMPO 1500 BR=\n",
            "METAR EIDW 081930Z 08013KT 1500 -RADZ BR FEW001 BKN002 07/07 Q0977 TEMPO 0800 FG=\n",
            "METAR EIDW 081900Z 08015KT 1500 -RADZ BR FEW001 BKN002 07/06 Q0977 TEMPO 0800 FG=\n",
            "METAR EIDW 081830Z 08016KT 0900 -RADZ FG SCT001 BKN002 07/06 Q0977 TEMPO 1500=\n",
            "METAR EIDW 081800Z 07016KT 1200 -DZ BR SCT001 BKN002 06/06 Q0978 TEMPO 0800 FG BKN001=\n",
            "METAR EIDW 081730Z 08015KT 0800 R10R/P2000 R28L/P2000 R10L/1800D -RA FG FEW001 BKN002 06/06 Q0978 TEMPO BKN001=\n",
            "METAR EIDW 081700Z 08015KT 1500 -RADZ BR SCT002 BKN003 06/06 Q0979 RERA TEMPO 0800 FG BKN001=\n",
            "METAR EIDW 081630Z 08015KT 2000 R10R/P2000 R28L/P2000 R10L/1800U RA FEW002 BKN003 06/05 Q0979 TEMPO 0800 FG BKN001=\n",
            "METAR EIDW 081600Z 08016KT 0900 R10R/P2000 R28L/P2000 R10L/1500 DZ FG SCT002 BKN003 06/05 Q0980 TEMPO BKN001=\n",
            "METAR EIDW 081530Z 09016KT 1000 R10R/P2000 R28L/P2000 R10L/1600D DZ BR SCT002 BKN003 05/05 Q0980 NOSIG=\n",
            "METAR EIDW 081500Z 08017KT 2000 R10R/P2000 R28L/P2000 R10L/1700D -DZ BR SCT002 BKN003 05/05 Q0981 NOSIG=\n",
            "METAR EIDW 081430Z 09016KT 2800 R10R/P2000N R28L/P2000N R10L/1500D -DZ SCT002 BKN003 05/05 Q0981 NOSIG=\n",
            "METAR EIDW 081400Z 09015KT 1500 R10R/P2000 R28L/P2000 R10L/1500 DZ BKN002 BKN003 05/05 Q0982 NOSIG=\n",
            "METAR EIDW 081330Z 09016KT 1200 R10R/P2000N R28L/1700 R10L/1200 -RADZ BR FEW002 BKN003 05/05 Q0983 NOSIG=\n",
            "METAR EIDW 081300Z 09017KT 1800 R10R/P2000N R28L/1800 R10L/1200 -RADZ BR FEW002 BKN003 05/05 Q0983 NOSIG=\n",
            "METAR EIDW 081230Z 09016KT 2500 R10R/P2000N R28L/1900U R10L/1300U -RADZ BR SCT002 BKN003 05/05 Q0984 NOSIG=\n",
            "METAR EIDW 081200Z 09018KT 1200 R28L/1900U R10L/1200 -RADZ BR FEW002 SCT003 BKN004 05/04 Q0984 NOSIG=\n",
            "METAR EIDW 081130Z 09020G30KT 2200 -RADZ BR FEW003 SCT004 BKN005 05/04 Q0985 NOSIG=\n",
            "METAR EIDW 081100Z 09020G30KT 2500 -RADZ BR FEW004 BKN005 05/04 Q0985 TEMPO 2000=\n",
            "METAR EIDW 081030Z 09022KT 6000 -RA SCT005 BKN006 05/04 Q0985 TEMPO 3000=\n",
            "METAR EIDW 081000Z 09022KT 7000 -RA FEW006 BKN007 BKN011 05/04 Q0986 RERA TEMPO 3000=\n",
            "METAR EIDW 080930Z 09019KT 5000 RA FEW006 SCT010 BKN014 05/04 Q0986 TEMPO 3000 BKN010=\n",
            "METAR EIDW 080900Z 09017KT 5000 RA FEW009 BKN012 BKN015 04/03 Q0987 TEMPO 3000 BKN010=\n",
            "METAR EIDW 080830Z 08018KT 4000 -RA FEW010 BKN012 03/02 Q0988 RERA TEMPO 3000 BKN010=\n",
            "METAR EIDW 080800Z 09019KT 9000 RA FEW010 SCT012 BKN016 03/02 Q0988 TEMPO BKN012=\n",
            "METAR EIDW 080730Z 09016KT 9999 -RA FEW010 SCT012 BKN016 03/01 Q0989 TEMPO BKN012=\n",
            "METAR EIDW 080700Z 09019KT 9999 -RA FEW011 SCT015 BKN018 04/02 Q0990 TEMPO BKN012=\n",
            "METAR EIDW 080630Z 09020KT 9999 -RA FEW011 SCT013 BKN018 04/02 Q0991 TEMPO BKN012=\n",
            "METAR EIDW 080600Z 09017KT 9999 -RA FEW011 SCT013 BKN016 03/02 Q0992 TEMPO BKN012=\n",
            "METAR EIDW 080530Z 08019KT 9999 -RA FEW011 SCT014 BKN018 03/01 Q0992 TEMPO BKN012=\n",
            "METAR EIDW 080500Z 08017KT 9999 -RA FEW011 SCT015 BKN022 03/01 Q0993 NOSIG=\n",
            "METAR EIDW 080430Z 08017KT 9999 -RA FEW011 SCT022 BKN035 03/01 Q0994 NOSIG=\n",
            "METAR EIDW 080400Z 10014KT 9999 -RA FEW011 SCT018 BKN022 03/01 Q0995 NOSIG=\n",
            "METAR EIDW 080330Z 09014KT 9999 -RA FEW011 SCT018 BKN027 03/01 Q0996 NOSIG=\n",
            "METAR EIDW 080300Z 11014KT 9999 -RA FEW011 SCT017 BKN022 04/01 Q0997 NOSIG=\n",
            "METAR EIDW 080230Z 09015KT 9999 -RA FEW011 SCT018 BKN025 05/02 Q0997 NOSIG=\n",
            "METAR EIDW 080200Z 10013KT 9999 FEW013 SCT020 BKN026 05/02 Q0998 NOSIG=\n",
            "METAR EIDW 080130Z 10012KT 9999 FEW013 SCT020 BKN025 05/02 Q0999 NOSIG=\n",
            "METAR EIDW 080100Z 10013KT 9999 FEW013 SCT020 BKN025 05/02 Q0999 NOSIG=\n",
            "METAR EIDW 080030Z 09011KT 9999 FEW013 SCT020 BKN025 05/02 Q1000 NOSIG=\n",
            "METAR EIDW 080000Z 09011KT 9999 FEW015 SCT024 BKN033 04/01 Q1000 NOSIG=\n",
            "METAR EIDW 072330Z 10011KT 9999 FEW015 SCT022 BKN028 04/01 Q1001 NOSIG=\n",
            "METAR EIDW 072300Z 09009KT 9999 FEW015 SCT022 BKN030 04/01 Q1002 NOSIG=\n",
            "METAR EIDW 072230Z 10008KT 9999 FEW015 SCT028 BKN140 03/01 Q1002 NOSIG=\n",
            "METAR EIDW 072200Z 09008KT 9999 FEW015 SCT025 BKN120 02/01 Q1002 NOSIG=\n",
            "METAR EIDW 072130Z 08006KT 9999 FEW017 SCT025 BKN060 02/M00 Q1003 NOSIG=\n",
            "METAR EIDW 072100Z 09006KT 9999 FEW017 BKN120 02/M00 Q1003 NOSIG=\n",
            "METAR EIDW 072030Z 09006KT 9999 FEW017 BKN120 01/M01 Q1003 NOSIG=\n",
            "METAR EIDW 072000Z 08006KT 9999 FEW017 BKN120 01/M01 Q1004 NOSIG=\n",
            "METAR EIDW 071930Z 08006KT 9999 FEW017 BKN120 01/M00 Q1004 NOSIG=\n",
            "METAR EIDW 071900Z 06005KT 020V080 9999 FEW017 BKN120 02/M00 Q1005 NOSIG=\n",
            "METAR EIDW 071830Z 04004KT 010V080 9999 FEW017 BKN120 02/M00 Q1005 NOSIG=\n",
            "METAR EIDW 071800Z 02004KT 340V050 9999 FEW017 BKN120 03/M00 Q1005 NOSIG=\n",
            "METAR EIDW 071730Z 03004KT 9999 FEW017 BKN120 03/00 Q1005 NOSIG=\n",
            "METAR EIDW 071700Z 04006KT 9999 FEW017 BKN120 04/00 Q1005 NOSIG=\n",
            "METAR EIDW 071630Z 03005KT 9999 FEW017 BKN200 05/01 Q1006 NOSIG=\n",
            "METAR EIDW 071600Z 01006KT 9999 FEW017 BKN200 05/01 Q1006 NOSIG=\n",
            "METAR EIDW 071530Z 03005KT 360V060 9999 FEW017 BKN200 05/00 Q1006 NOSIG=\n",
            "METAR EIDW 071500Z 04005KT 360V070 9999 FEW017 BKN200 06/01 Q1006 NOSIG=\n",
            "METAR EIDW 071430Z 01004KT 330V060 9999 FEW014 BKN220 06/01 Q1006 NOSIG=\n",
            "METAR EIDW 071400Z 34005KT 9999 FEW014 BKN220 06/01 Q1006 NOSIG=\n",
            "METAR EIDW 071330Z 35005KT 310V010 9999 FEW014 BKN220 06/02 Q1007 NOSIG=\n",
            "METAR EIDW 071300Z 36006KT 300V040 9999 FEW014 BKN220 06/01 Q1007 NOSIG=\n",
            "METAR EIDW 071230Z 35006KT 310V030 9999 FEW014 BKN220 06/01 Q1007 NOSIG=\n",
            "METAR EIDW 071200Z 36004KT 320V040 9999 FEW014 BKN220 05/00 Q1007 NOSIG=\n",
            "METAR EIDW 071130Z 33004KT 300V360 9999 FEW014 BKN220 05/00 Q1007 NOSIG=\n",
            "METAR EIDW 071100Z 32005KT 300V010 9999 FEW014 BKN220 04/01 Q1007 NOSIG=\n",
            "METAR EIDW 071030Z 32005KT 9999 FEW014 BKN220 03/00 Q1007 NOSIG=\n",
            "METAR EIDW 071000Z 29005KT 9999 FEW014 BKN220 02/00 Q1007 NOSIG=\n",
            "METAR EIDW 070930Z 28004KT 9999 FEW014 SCT120 BKN220 01/M00 Q1007 NOSIG=\n",
            "METAR EIDW 070900Z VRB02KT 9999 FEW014 SCT120 BKN220 00/M01 Q1007 NOSIG=\n",
            "METAR EIDW 070830Z 30005KT 9999 FEW014 BKN130 00/M01 Q1007 NOSIG=\n",
            "METAR EIDW 070800Z VRB03KT 9999 FEW014 BKN140 01/M00 Q1007 NOSIG=\n",
            "METAR EIDW 070730Z 29005KT 9999 FEW012 BKN130 01/M00 Q1007 NOSIG=\n",
            "METAR EIDW 070700Z 30007KT 9999 FEW011 BKN140 01/00 Q1007 NOSIG=\n",
            "METAR EIDW 070630Z 29006KT 9999 FEW012 BKN140 01/00 Q1007 NOSIG=\n",
            "METAR EIDW 070600Z 30005KT 9999 FEW013 BKN110 01/M00 Q1007 NOSIG=\n",
            "METAR EIDW 070530Z 27005KT 9999 FEW013 BKN110 00/M00 Q1007 NOSIG=\n",
            "METAR EIDW 070500Z 28006KT 9999 FEW013 BKN140 M00/M01 Q1007 NOSIG=\n",
            "METAR EIDW 070430Z 27003KT 9999 FEW013 SCT130 M00/M01 Q1007 NOSIG=\n",
            "METAR EIDW 070400Z 30004KT 9999 FEW013 BKN130 M00/M01 Q1006 NOSIG=\n",
            "METAR EIDW 070330Z 28005KT 9999 FEW013 SCT130 00/M00 Q1007 NOSIG=\n",
            "METAR EIDW 070300Z 30006KT 9999 FEW013 SCT110 01/M00 Q1008 NOSIG=\n",
            "METAR EIDW 070230Z 30005KT 9999 FEW013 BKN100 01/00 Q1007 NOSIG=\n",
            "METAR EIDW 070200Z 32005KT 9999 FEW013 BKN100 02/01 Q1007 NOSIG=\n",
            "METAR EIDW 070130Z 31004KT 9999 FEW013 BKN100 02/02 Q1007 NOSIG=\n",
            "METAR EIDW 070100Z 30004KT 9999 FEW013 BKN110 02/01 Q1007 NOSIG=\n",
            "METAR EIDW 070030Z 30005KT 9999 FEW013 BKN110 03/01 Q1008 NOSIG=\n",
            "METAR EIDW 070000Z 33005KT 9999 FEW013 BKN110 03/01 Q1007 NOSIG=\n",
            "METAR EIDW 062330Z 31006KT 9999 FEW013 BKN110 03/01 Q1007 NOSIG=\n",
            "METAR EIDW 062300Z 31006KT 9999 FEW013 BKN120 03/01 Q1007 NOSIG=\n",
            "METAR EIDW 062230Z 29006KT 9999 FEW013 BKN120 02/01 Q1007 NOSIG=\n",
            "METAR EIDW 062200Z 30006KT 9999 FEW013 BKN120 02/01 Q1007 NOSIG=\n",
            "METAR EIDW 062130Z 29005KT 9999 FEW015 BKN120 02/01 Q1007 NOSIG=\n",
            "METAR EIDW 062100Z 30006KT 9999 FEW015 BKN140 02/01 Q1007 NOSIG=\n",
            "METAR EIDW 062030Z 31006KT 9999 FEW015 BKN140 02/01 Q1006 NOSIG=\n",
            "METAR EIDW 062000Z 30005KT 9999 FEW013 SCT050 BKN140 02/01 Q1006 NOSIG=\n",
            "METAR EIDW 061930Z 30007KT 9999 FEW013 SCT050 BKN140 02/01 Q1006 NOSIG=\n",
            "METAR EIDW 061900Z 31007KT 9999 FEW013 SCT050 BKN140 02/01 Q1006 NOSIG=\n",
            "METAR EIDW 061830Z 32006KT 9999 FDW013 SCT050 BKN140 02/00 Q1006 NOSIG=\n",
            "METAR EIDW 061800Z 31004KT 9999 FEW013 SCT050 BKN140 03/01 Q1006 NOSIG=\n",
            "METAR EIDW 061730Z 32005KT 9999 FEW013 SCT050 BKN140 04/01 Q1006 NOSIG=\n",
            "METAR EIDW 061700Z 32006KT 9999 FEW013 BKN050 05/02 Q1005 NOSIG=\n",
            "METAR EIDW 061630Z 33006KT 9999 FEW013 BKN050 06/02 Q1005 NOSIG=\n",
            "METAR EIDW 061600Z 33007KT 9999 FEW013 BKN050 06/03 Q1004 NOSIG=\n",
            "METAR EIDW 061530Z 34006KT 9999 FEW013 BKN040 06/02 Q1004 NOSIG=\n",
            "METAR EIDW 061500Z 34006KT 310V010 9999 FEW013 BKN035 07/03 Q1005 NOSIG=\n",
            "METAR EIDW 061430Z 32006KT 290V350 9999 FEW013 BKN035 06/03 Q1005 NOSIG=\n",
            "METAR EIDW 061400Z 32006KT 9999 FEW009 SCT016 BKN040 07/04 Q1005 NOSIG=\n",
            "METAR EIDW 061330Z 32008KT 9999 FEW009 SCT016 BKN040 07/04 Q1005 NOSIG=\n",
            "METAR EIDW 061300Z 32008KT 9999 -RA FEW007 SCT013 BKN030 07/05 Q1005 NOSIG=\n",
            "METAR EIDW 061230Z 28006KT 9999 -RA FEW007 SCT013 BKN025 07/05 Q1005 NOSIG=\n",
            "METAR EIDW 061200Z 28005KT 9000 -RA FEW007 SCT013 BKN025 06/05 Q1005 NOSIG=\n",
            "METAR EIDW 061130Z 33005KT 290V360 7000 -RA FEW008 BKN010 BKN020 06/05 Q1005 TEMPO SCT010=\n",
            "METAR EIDW 061100Z 31005KT 7000 -RA FEW008 BKN010 BKN020 07/06 Q1005 TEMPO SCT010=\n",
            "METAR EIDW 061030Z 32008KT 7000 -RA FEW008 SCT012 BKN022 07/06 Q1005 TEMPO BKN012=\n",
            "METAR EIDW 061000Z 33012KT 7000 -RA FEW006 SCT012 BKN022 07/06 Q1004 TEMPO BKN012=\n",
            "METAR EIDW 060930Z 33013KT 3500 RA FEW006 SCT009 BKN012 07/06 Q1004 TEMPO 6000=\n",
            "METAR EIDW 060900Z 33009KT 3500 RA FEW004 SCT007 BKN010 08/07 Q1003 TEMPO 6000=\n",
            "METAR EIDW 060830Z 26013G26KT 200V300 3000 RA FEW004 SCT007 BKN010 10/09 Q1003 TEMPO 6000=\n",
            "METAR EIDW 060800Z 24011G23KT 200V280 8000 -RA SCT006 BKN009 11/10 Q1002 NOSIG=\n",
            "METAR EIDW 060730Z 25011KT 200V280 8000 -RA FEW006 BKN009 11/10 Q1002 NOSIG=\n",
            "METAR EIDW 060700Z 24012G26KT 200V290 9999 -DZ FEW007 BKN010 11/09 Q1002 NOSIG=\n",
            "METAR EIDW 060630Z 24014G25KT 200V280 5000 -RADZ FEW007 BKN010 10/09 Q1002 NOSIG=\n",
            "METAR EIDW 060600Z 24013G25KT 180V280 6000 -RADZ FEW007 BKN011 10/09 Q1002 NOSIG=\n",
            "METAR EIDW 060530Z 23013G25KT 170V280 8000 -RADZ FEW008 BKN011 10/08 Q1002 NOSIG=\n",
            "METAR EIDW 060500Z 23013KT 200V280 4000 -RADZ FEW006 BKN010 10/09 Q1003 BECMG 9999=\n",
            "METAR EIDW 060430Z 24013G28KT 200V280 6000 -RADZ FEW010 BKN015 10/08 Q1003 NOSIG=\n",
            "METAR EIDW 060400Z 24013G24KT 200V280 9999 FEW012 BKN019 11/07 Q1003 NOSIG=\n",
            "METAR EIDW 060330Z 23013G23KT 190V270 9999 FEW012 BKN019 11/07 Q1003 NOSIG=\n",
            "METAR EIDW 060300Z 23013G24KT 190V280 9999 FEW011 BKN022 10/08 Q1004 NOSIG=\n",
            "METAR EIDW 060230Z 24013KT 190V290 9999 -DZ SCT011 BKN014 10/08 Q1005 NOSIG=\n",
            "METAR EIDW 060200Z 23012G23KT 200V290 9999 SCT011 BKN015 11/08 Q1005 NOSIG=\n",
            "METAR EIDW 060130Z 23011KT 180V300 9999 -DZ SCT010 BKN014 10/08 Q1006 NOSIG=\n",
            "METAR EIDW 060100Z 23010KT 200V270 9999 FEW010 SCT014 BKN017 10/08 Q1006 NOSIG=\n",
            "METAR EIDW 060030Z 23013G23KT 200V260 9000 -DZ FEW009 SCT011 BKN014 11/08 Q1006 NOSIG=\n",
            "METAR EIDW 060000Z 24011KT 200V280 9999 -DZ FEW009 SCT011 BKN015 10/09 Q1006 NOSIG=\n",
            "METAR EIDW 052330Z 24012G22KT 190V290 9999 -DZ FEW009 SCT013 BKN016 10/08 Q1007 NOSIG=\n",
            "METAR EIDW 052300Z 24011G23KT 190V270 6000 -DZ FEW009 SCT013 BKN016 10/09 Q1007 NOSIG=\n",
            "METAR EIDW 052230Z 24013KT 200V270 9999 -RADZ FEW009 SCT011 BKN014 10/09 Q1007 NOSIG=\n",
            "METAR EIDW 052200Z 24013G23KT 200V280 9999 FEW014 SCT016 BKN019 11/08 Q1007 NOSIG=\n",
            "METAR EIDW 052130Z 23011G23KT 170V280 9999 FEW014 BKN022 11/08 Q1007 WS RWY28L NOSIG=\n",
            "METAR EIDW 052100Z 24011G22KT 200V270 9999 -DZ FEW011 SCT016 BKN022 11/08 Q1008 WS RWY28L NOSIG=\n",
            "METAR EIDW 052030Z 25016G28KT 210V280 9999 -DZ FEW013 BKN024 11/08 Q1008 WS RWY28L NOSIG=\n",
            "METAR EIDW 052000Z 24014G25KT 200V290 9999 -DZ FEW013 BKN024 12/07 Q1008 WS RWY28L NOSIG=\n",
            "METAR EIDW 051930Z 25014G29KT 200V280 9999 FEW013 BKN027 11/07 Q1008 NOSIG=\n",
            "METAR EIDW 051900Z 25013G24KT 210V280 9999 FEW013 BKN027 11/07 Q1008 NOSIG=\n",
            "METAR EIDW 051830Z 24012KT 200V280 9999 FEW013 BKN027 11/07 Q1008 NOSIG=\n",
            "METAR EIDW 051800Z 24013KT 200V280 9999 FEW013 BKN027 11/07 Q1009 NOSIG=\n",
            "METAR EIDW 051730Z 24012G23KT 200V280 9999 FEW013 BKN030 11/07 Q1009 NOSIG=\n",
            "METAR EIDW 051700Z 24015G29KT 200V270 9999 FEW013 BKN030 12/07 Q1009 NOSIG=\n",
            "METAR EIDW 051630Z 25015G25KT 210V280 9999 FEW013 BKN030 12/07 Q1009 NOSIG=\n",
            "METAR EIDW 051600Z 24013G24KT 200V270 9999 FEW013 BKN030 11/07 Q1009 NOSIG=\n",
            "METAR EIDW 051530Z 25013G27KT 200V290 9999 FEW013 BKN030 12/07 Q1010 NOSIG=\n",
            "METAR EIDW 051500Z 24013G24KT 200V280 9999 FEW013 BKN027 12/07 Q1011 NOSIG=\n",
            "METAR EIDW 051430Z 24016G26KT 200V280 9999 FEW013 BKN027 12/07 Q1011 NOSIG=\n",
            "METAR EIDW 051400Z 25017G29KT 210V280 9999 FEW013 BKN027 12/06 Q1011 NOSIG=\n",
            "METAR EIDW 051330Z 25016G29KT 220V290 9999 FEW013 BKN027 12/06 Q1011 NOSIG=\n",
            "METAR EIDW 051300Z 25013G24KT 210V280 9999 FEW013 BKN027 11/07 Q1012 NOSIG=\n",
            "METAR EIDW 051230Z 24015G28KT 210V280 9999 FEW013 BKN027 11/07 Q1012 NOSIG=\n",
            "METAR EIDW 051200Z 25015KT 210V270 9999 FEW013 BKN027 11/07 Q1012 NOSIG=\n",
            "METAR EIDW 051130Z 25014G30KT 210V270 9999 FEW013 BKN027 11/07 Q1012 NOSIG=\n",
            "METAR EIDW 051100Z 24015G28KT 190V290 9999 FEW013 BKN027 10/07 Q1013 NOSIG=\n",
            "METAR EIDW 051030Z 24015G26KT 190V270 9999 FEW013 BKN024 10/07 Q1013 NOSIG=\n",
            "METAR EIDW 051000Z 24013G25KT 200V280 9999 FEW013 BKN024 10/07 Q1013 NOSIG=\n",
            "METAR EIDW 050930Z 24014G24KT 210V280 9999 FEW013 SCT024 BKN028 10/07 Q1013 NOSIG=\n",
            "METAR EIDW 050900Z 24011KT 200V280 9999 FEW011 BKN021 BKN027 10/07 Q1014 NOSIG=\n",
            "METAR EIDW 050830Z 23012G23KT 200V280 9999 FEW011 BKN021 BKN027 09/07 Q1014 NOSIG=\n",
            "METAR EIDW 050800Z 23012KT 190V260 9999 FEW011 BKN021 09/07 Q1014 NOSIG=\n",
            "METAR EIDW 050730Z 24014G24KT 200V280 9999 FEW016 BKN023 09/07 Q1015 NOSIG=\n",
            "METAR EIDW 050700Z 24013G26KT 210V280 9999 FEW016 BKN023 09/06 Q1015 NOSIG=\n",
            "METAR EIDW 050630Z 24013G25KT 190V270 9999 FEW013 BKN022 09/06 Q1015 NOSIG=\n",
            "METAR EIDW 050600Z 25013KT 210V290 9999 FEW018 BKN022 09/06 Q1015 NOSIG=\n",
            "METAR EIDW 050530Z 25015G26KT 210V280 9999 FEW018 BKN022 10/06 Q1016 NOSIG=\n",
            "METAR EIDW 050500Z 25015G26KT 200V270 9999 SCT020 BKN025 09/06 Q1016 NOSIG=\n",
            "METAR EIDW 050430Z 25016G28KT 200V270 9999 FEW016 SCT021 BKN025 10/06 Q1016 NOSIG=\n",
            "METAR EIDW 050400Z 25015G29KT 210V280 9999 FEW016 SCT019 BKN023 09/06 Q1016 NOSIG=\n",
            "METAR EIDW 050330Z 24012G23KT 210V280 9999 FEW016 BKN021 09/06 Q1017 NOSIG=\n",
            "METAR EIDW 050300Z 24012G22KT 190V270 9999 FEW017 BKN021 10/06 Q1018 NOSIG=\n",
            "METAR EIDW 050230Z 25013KT 210V280 9999 FEW017 BKN021 10/06 Q1018 NOSIG=\n",
            "METAR EIDW 050200Z 24012KT 210V290 9999 FEW016 SCT019 BKN023 10/06 Q1018 NOSIG=\n",
            "METAR EIDW 050130Z 24012G23KT 200V280 9999 SCT019 BKN023 10/06 Q1019 NOSIG=\n",
            "METAR EIDW 050100Z 24010KT 190V280 9999 SCT019 BKN023 10/06 Q1019 NOSIG=\n",
            "METAR EIDW 050030Z 25014G25KT 210V290 9999 BKN021 10/06 Q1019 NOSIG=\n",
            "METAR EIDW 050000Z 24014G26KT 190V280 9999 BKN021 11/06 Q1019 NOSIG=\n",
            "METAR EIDW 042330Z 24013G29KT 190V280 9999 BKN021 11/06 Q1019 NOSIG=\n",
            "METAR EIDW 042300Z 24013G25KT 210V280 9999 BKN021 11/06 Q1020 WS RWY28L NOSIG=\n",
            "METAR EIDW 042230Z 24013G29KT 200V270 9999 BKN021 11/06 Q1020 WS RWY28L NOSIG=\n",
            "METAR EIDW 042200Z 25014G27KT 170V270 9999 BKN021 11/07 Q1020 WS RWY28L NOSIG=\n",
            "METAR EIDW 042130Z 25013G26KT 200V290 9999 BKN020 11/07 Q1020 WS RWY28L NOSIG=\n",
            "METAR EIDW 042100Z 24013G23KT 200V280 9999 BKN020 11/07 Q1020 NOSIG=\n",
            "METAR EIDW 042030Z 25014G27KT 220V280 9999 BKN022 11/06 Q1019 NOSIG=\n",
            "METAR EIDW 042000Z 25014G25KT 190V270 9999 FEW021 BKN025 11/07 Q1019 NOSIG=\n",
            "METAR EIDW 041930Z 25014G25KT 200V280 9999 BKN023 11/07 Q1020 NOSIG=\n",
            "METAR EIDW 041900Z 25015G26KT 210V280 9999 BKN022 11/07 Q1020 NOSIG=\n",
            "METAR EIDW 041830Z 25018G32KT 200V290 9999 BKN022 11/07 Q1019 TEMPO BKN012=\n",
            "METAR EIDW 041800Z 25017G32KT 220V280 9999 BKN020 11/07 Q1019 TEMPO BKN012=\n",
            "METAR EIDW 041730Z 26018G33KT 220V280 9999 SCT018 BKN020 12/07 Q1019 TEMPO BKN012=\n",
            "METAR EIDW 041700Z 26016G26KT 220V280 9999 SCT018 BKN020 12/08 Q1019 TEMPO BKN012=\n",
            "METAR EIDW 041630Z 26021G32KT 230V290 9999 SCT018 BKN022 12/08 Q1020 NOSIG=\n",
            "METAR EIDW 041600Z 26017G27KT 220V290 9999 FEW016 BKN022 12/08 Q1020 NOSIG=\n",
            "METAR EIDW 041530Z 26019G34KT 230V290 9999 FEW016 SCT023 BKN025 13/08 Q1019 NOSIG=\n",
            "METAR EIDW 041500Z 26019G31KT 9999 FEW016 BKN025 13/08 Q1019 NOSIG=\n",
            "METAR EIDW 041430Z 26019G31KT 210V290 9999 FEW016 BKN024 BKN250 13/08 Q1019 NOSIG=\n",
            "METAR EIDW 041400Z 26020G31KT 230V290 9999 FEW016 BKN023 BKN027 13/09 Q1019 NOSIG=\n",
            "METAR EIDW 041330Z 26019G29KT 9999 FEW016 BKN023 BKN050 13/09 Q1019 TEMPO BKN010=\n",
            "METAR EIDW 041300Z 26019G34KT 9999 FEW014 BKN018 BKN050 13/09 Q1019 TEMPO BKN010=\n",
            "METAR EIDW 041230Z 26017G31KT 210V280 9999 FEW014 BKN017 BKN050 13/09 Q1019 TEMPO BKN010=\n",
            "METAR EIDW 041200Z 26019G33KT 220V280 9999 -DZ FEW014 BKN016 12/10 Q1019 TEMPO BKN010=\n",
            "METAR EIDW 041130Z 26017G31KT 230V290 9999 -DZ SCT011 SCT013 BKN015 12/10 Q1019 TEMPO BKN010=\n",
            "METAR EIDW 041100Z 25015KT 200V280 9999 -DZ FEW012 BKN015 12/10 Q1019 TEMPO BKN010=\n",
            "METAR EIDW 041030Z 26017G27KT 210V280 9999 -DZ FEW011 BKN014 BKN018 12/10 Q1019 TEMPO BKN010=\n",
            "METAR EIDW 041000Z 25016G30KT 210V280 9999 -DZ FEW013 BKN016 BKN020 12/09 Q1019 TEMPO BKN010=\n",
            "METAR EIDW 040930Z 25016G29KT 210V280 9999 FEW009 BKN014 BKN018 12/09 Q1019 TEMPO BKN010=\n",
            "METAR EIDW 040900Z 24012G24KT 200V290 9999 -DZ FEW009 SCT011 BKN018 11/10 Q1019 NOSIG=\n",
            "METAR EIDW 040830Z 24012G22KT 190V280 9999 FEW010 SCT016 BKN018 11/09 Q1019 NOSIG=\n",
            "METAR EIDW 040800Z 24011G21KT 200V280 9999 -DZ FEW009 BKN011 10/09 Q1020 NOSIG=\n",
            "METAR EIDW 040730Z 24010KT 180V270 9999 FEW010 SCT011 BKN015 10/08 Q1020 NOSIG=\n",
            "METAR EIDW 040700Z 24010KT 180V280 9999 FEW010 SCT013 BKN016 09/08 Q1021 NOSIG=\n",
            "METAR EIDW 040630Z 24009KT 170V280 9999 FEW010 BKN013 09/07 Q1021 NOSIG=\n",
            "METAR EIDW 040600Z 24007KT 180V280 9999 FEW010 BKN012 09/07 Q1022 NOSIG=\n",
            "METAR EIDW 040530Z 25009KT 190V280 9999 FEW010 SCT070 09/07 Q1022 NOSIG=\n",
            "METAR EIDW 040500Z 25011KT 200V290 9999 FEW010 SCT013 BKN070 09/07 Q1022 NOSIG=\n",
            "METAR EIDW 040430Z 25010KT 200V280 9999 FEW010 BKN013 09/07 Q1022 NOSIG=\n",
            "METAR EIDW 040400Z 25008KT 190V290 9999 FEW009 BKN013 09/07 Q1022 NOSIG=\n",
            "METAR EIDW 040330Z 25009KT 200V280 9999 FEW009 BKN013 09/07 Q1023 NOSIG=\n",
            "METAR EIDW 040300Z 25008KT 200V290 9999 FEW007 BKN013 09/07 Q1023 NOSIG=\n",
            "METAR EIDW 040230Z 24006KT 190V280 9999 FEW007 BKN009 08/07 Q1023 NOSIG=\n",
            "METAR EIDW 040200Z 24008KT 200V300 9999 FEW005 BKN008 08/07 Q1024 NOSIG=\n",
            "METAR EIDW 040130Z 26008KT 220V290 9999 FEW005 BKN008 08/07 Q1024 NOSIG=\n",
            "METAR EIDW 040100Z 26008KT 9999 SCT005 BKN008 08/07 Q1024 NOSIG=\n",
            "METAR EIDW 040030Z 25008KT 210V280 6000 -DZ BKN007 08/07 Q1024 NOSIG=\n",
            "METAR EIDW 040000Z 26012KT 230V290 9999 FEW007 BKN026 08/06 Q1024 NOSIG=\n",
            "METAR EIDW 032330Z 25009KT 200V280 5000 -DZ FEW008 SCT009 BKN010 08/07 Q1024 TEMPO BKN009=\n",
            "METAR EIDW 032300Z 24006KT 190V280 9999 -DZ FEW008 SCT009 BKN010 08/07 Q1024 NOSIG=\n",
            "METAR EIDW 032230Z 25007KT 210V290 9999 FEW006 SCT011 08/06 Q1024 NOSIG=\n",
            "METAR EIDW 032200Z 25008KT 200V280 9999 FEW009 BKN180 08/06 Q1024 NOSIG=\n",
            "METAR EIDW 032130Z 24008KT 190V280 9999 FEW009 BKN033 08/06 Q1025 NOSIG=\n",
            "METAR EIDW 032100Z 25011KT 210V290 9999 FEW014 SCT021 BKN024 08/05 Q1025 NOSIG=\n",
            "METAR EIDW 032030Z 25008KT 210V280 9999 FEW014 BKN031 08/06 Q1025 NOSIG=\n",
            "METAR EIDW 032000Z 25009KT 200V290 9999 FEW016 BKN031 08/06 Q1025 NOSIG=\n",
            "METAR EIDW 031930Z 25008KT 210V290 9999 FEW014 SCT018 BKN032 08/05 Q1025 NOSIG=\n",
            "METAR EIDW 031900Z 26010KT 9999 FEW013 SCT018 BKN032 08/05 Q1025 NOSIG=\n",
            "METAR EIDW 031830Z 26008KT 9999 FEW013 SCT016 BKN018 09/06 Q1025 NOSIG=\n",
            "METAR EIDW 031800Z 26009KT 230V290 9999 FEW012 SCT015 BKN018 08/06 Q1025 NOSIG=\n",
            "METAR EIDW 031730Z 27012KT 9999 SCT014 BKN018 09/07 Q1025 NOSIG=\n",
            "METAR EIDW 031700Z 27012KT 9999 FEW012 SCT015 BKN030 09/06 Q1025 NOSIG=\n",
            "METAR EIDW 031630Z 26011KT 9999 FEW009 SCT011 BKN030 09/07 Q1025 NOSIG=\n",
            "METAR EIDW 031600Z 26011KT 9999 FEW009 SCT011 BKN030 09/07 Q1024 NOSIG=\n",
            "METAR EIDW 031530Z 26012G22KT 230V290 9999 FEW009 SCT015 BKN200 09/07 Q1025 NOSIG=\n",
            "METAR EIDW 031500Z 27011KT 9999 FEW009 SCT015 BKN020 09/07 Q1025 NOSIG=\n",
            "METAR EIDW 031430Z 28013KT 9999 FEW009 SCT013 BKN020 10/08 Q1025 NOSIG=\n",
            "METAR EIDW 031400Z 27012KT 9999 FEW007 SCT011 BKN013 09/07 Q1025 BECMG SCT015=\n",
            "METAR EIDW 031330Z 26011KT 9999 FEW007 BKN009 BKN250 10/08 Q1025 BECMG SCT015=\n",
            "METAR EIDW 031300Z 27010KT 230V290 9999 -DZ FEW004 SCT007 BKN009 09/08 Q1026 TEMPO 4000=\n",
            "METAR EIDW 031230Z 28009KT 7000 -DZ FEW004 SCT007 BKN009 09/08 Q1026 TEMPO 4000=\n",
            "METAR EIDW 031200Z 29010KT 9999 -DZ FEW006 SCT008 BKN009 08/07 Q1026 BECMG BKN012=\n",
            "METAR EIDW 031130Z 28010KT 9999 -DZ FEW008 BKN009 09/07 Q1026 NOSIG=\n",
            "METAR EIDW 031100Z 27010KT 9000 -DZ FEW009 SCT010 BKN014 09/08 Q1026 NOSIG=\n",
            "METAR EIDW 031030Z 28009KT 9999 FEW009 SCT018 BKN037 09/07 Q1026 NOSIG=\n",
            "METAR EIDW 031000Z 29010KT 9999 -DZ FEW009 SCT017 BKN037 08/07 Q1026 NOSIG=\n",
            "METAR EIDW 030930Z 28011KT 9999 -DZ FEW009 SCT017 BKN026 09/07 Q1026 NOSIG=\n",
            "METAR EIDW 030900Z 28011KT 9999 -DZ FEW009 SCT017 BKN026 08/08 Q1025 NOSIG=\n",
            "METAR EIDW 030830Z 29012KT 9999 -DZ FEW006 BKN016 BKN019 09/07 Q1025 NOSIG=\n",
            "METAR EIDW 030800Z 28008KT 9999 -DZ FEW009 BKN016 09/08 Q1025 NOSIG=\n",
            "METAR EIDW 030730Z 28010KT 9999 FEW009 BKN016 BKN035 09/08 Q1025 NOSIG=\n",
            "METAR EIDW 030700Z 28015KT 6000 -RADZ FEW009 SCT011 BKN015 10/08 Q1025 NOSIG=\n",
            "METAR EIDW 030630Z 27013KT 9999 FEW010 BKN013 10/09 Q1024 NOSIG=\n",
            "METAR EIDW 030600Z 27015KT 9999 FEW010 BKN014 10/09 Q1024 NOSIG=\n",
            "METAR EIDW 030530Z 27014KT 9999 FEW008 BKN011 10/09 Q1024 NOSIG=\n",
            "METAR EIDW 030500Z 27017KT 9999 FEW008 SCT011 10/09 Q1024 NOSIG=\n",
            "METAR EIDW 030430Z 26015G26KT 9999 FEW007 SCT010 11/09 Q1023 NOSIG=\n",
            "METAR EIDW 030400Z 25014KT 220V280 9999 FEW007 BKN010 11/10 Q1023 NOSIG=\n",
            "METAR EIDW 030330Z 26011KT 9999 -RA SCT009 BKN011 11/10 Q1024 NOSIG=\n",
            "METAR EIDW 030300Z 25010G20KT 200V290 9999 -DZ SCT006 BKN007 11/10 Q1024 TEMPO 3000=\n",
            "METAR EIDW 030230Z 25009KT 200V290 6000 -DZ SCT006 BKN007 11/10 Q1024 TEMPO 3000=\n",
            "METAR EIDW 030200Z 24010KT 200V280 3000 -RADZ FEW004 SCT005 BKN006 11/11 Q1024 TEMPO 5000=\n",
            "METAR EIDW 030130Z 24007KT 190V280 5000 -DZ SCT005 BKN006 11/11 Q1024 TEMPO 4000=\n",
            "METAR EIDW 030100Z 24009KT 200V280 3000 -DZ FEW004 SCT005 BKN006 11/11 Q1024 TEMPO 6000=\n",
            "METAR EIDW 030030Z 24009KT 200V290 3600 -DZ FEW004 SCT005 BKN007 11/11 Q1024 TEMPO 6000=\n",
            "METAR EIDW 030000Z 24007KT 190V290 7000 -DZ FEW004 SCT005 BKN006 11/11 Q1024 TEMPO 4000=\n",
            "METAR EIDW 022330Z 23008KT 190V280 3600 -DZ FEW004 SCT005 BKN006 11/11 Q1024 NOSIG=\n",
            "METAR EIDW 022300Z 24008KT 200V280 3600 DZ FEW004 SCT005 BKN006 12/11 Q1024 NOSIG=\n",
            "METAR EIDW 022230Z 24007KT 190V290 9999 -DZ FEW007 SCT008 BKN009 12/10 Q1024 NOSIG=\n",
            "METAR EIDW 022200Z 24009KT 190V280 9999 -DZ FEW007 SCT008 BKN009 12/10 Q1024 NOSIG=\n",
            "METAR EIDW 022130Z 23010G21KT 190V280 9999 FEW007 BKN009 12/10 Q1024 NOSIG=\n",
            "METAR EIDW 022100Z 24009G19KT 180V280 9000 -DZ FEW007 BKN009 12/10 Q1024 NOSIG=\n",
            "METAR EIDW 022030Z 25010G20KT 200V290 8000 -DZ SCT010 BKN012 12/10 Q1024 NOSIG=\n",
            "METAR EIDW 022000Z 24011KT 190V270 9999 SCT010 BKN012 12/10 Q1024 NOSIG=\n",
            "METAR EIDW 021930Z 24010G20KT 200V290 9999 SCT009 BKN012 12/10 Q1024 NOSIG=\n",
            "METAR EIDW 021900Z 25011G21KT 200V290 9999 -DZ SCT010 BKN012 12/10 Q1024 NOSIG=\n",
            "METAR EIDW 021830Z 25011KT 200V290 9999 FEW012 BKN014 13/10 Q1024 NOSIG=\n",
            "METAR EIDW 021800Z 25013G23KT 200V280 9999 FEW012 BKN014 12/10 Q1024 NOSIG=\n",
            "METAR EIDW 021730Z 24011G21KT 200V290 9999 FEW012 BKN014 13/10 Q1024 NOSIG=\n",
            "METAR EIDW 021700Z 25013G23KT 210V280 9999 FEW012 BKN014 13/10 Q1024 NOSIG=\n",
            "METAR EIDW 021630Z 24011G21KT 200V280 9999 FEW012 BKN014 13/10 Q1024 NOSIG=\n",
            "METAR EIDW 021600Z 25013KT 200V280 9999 FEW012 BKN016 13/10 Q1024 NOSIG=\n",
            "METAR EIDW 021530Z 25015KT 210V280 9999 FEW012 BKN018 BKN021 13/09 Q1024 NOSIG=\n",
            "METAR EIDW 021500Z 25013G23KT 210V290 9999 FEW008 BKN016 12/10 Q1024 NOSIG=\n",
            "METAR EIDW 021430Z 25014G27KT 200V280 9999 -DZ FEW012 BKN016 BKN018 13/10 Q1024 NOSIG=\n",
            "METAR EIDW 021400Z 25014G24KT 210V280 9999 FEW012 BKN016 BKN018 12/10 Q1024 NOSIG=\n",
            "METAR EIDW 021330Z 24011G21KT 200V280 9999 -DZ FEW009 SCT012 BKN015 12/10 Q1024 NOSIG=\n",
            "METAR EIDW 021300Z 24009KT 190V300 6000 -DZ FEW009 BKN013 12/10 Q1025 NOSIG=\n",
            "METAR EIDW 021230Z 24010KT 200V280 5000 -DZ FEW010 BKN013 12/10 Q1025 NOSIG=\n",
            "METAR EIDW 021200Z 24009KT 190V280 9999 -DZ FEW010 BKN013 12/10 Q1025 NOSIG=\n",
            "METAR EIDW 021130Z 25011KT 200V280 9999 FEW010 BKN014 12/09 Q1025 NOSIG=\n",
            "METAR EIDW 021100Z 25012KT 200V320 9999 FEW010 BKN014 BKN016 11/09 Q1025 NOSIG=\n",
            "METAR EIDW 021030Z 25012KT 200V320 9999 -DZ FEW010 SCT012 BKN014 11/09 Q1025 TEMPO BKN010=\n",
            "METAR EIDW 021000Z 24012G22KT 210V290 9999 -DZ FEW010 SCT012 BKN014 11/09 Q1025 TEMPO BKN010=\n",
            "METAR EIDW 020930Z 25013KT 200V290 9999 -DZ FEW011 SCT013 BKN015 11/09 Q1025 TEMPO BKN010=\n",
            "METAR EIDW 020900Z 25015G26KT 220V280 9999 -DZ FEW011 BKN014 BKN016 11/09 Q1025 TEMPO BKN010=\n",
            "METAR EIDW 020830Z 25014G25KT 210V290 9999 FEW011 SCT013 BKN016 11/08 Q1025 NOSIG=\n",
            "METAR EIDW 020800Z 25014G26KT 210V280 9999 -DZ FEW012 SCT013 BKN016 11/09 Q1025 NOSIG=\n",
            "METAR EIDW 020730Z 24011G23KT 200V280 9999 FEW012 SCT014 BKN015 11/09 Q1025 NOSIG=\n",
            "METAR EIDW 020700Z 24012G23KT 200V290 9999 FEW014 BKN015 11/08 Q1025 NOSIG=\n",
            "METAR EIDW 020630Z 25013G24KT 220V280 9999 FEW010 BKN015 11/09 Q1025 TEMPO BKN010=\n",
            "METAR EIDW 020600Z 25012KT 200V270 9999 FEW010 BKN016 11/08 Q1025 TEMPO BKN010=\n",
            "METAR EIDW 020530Z 25011KT 210V290 9999 FEW010 SCT013 BKN015 11/09 Q1025 TEMPO BKN010=\n",
            "METAR EIDW 020500Z 24010KT 200V290 9999 FEW010 SCT014 BKN020 10/08 Q1025 TEMPO BKN010=\n",
            "METAR EIDW 020430Z 24009KT 200V310 9999 FEW009 BKN010 10/08 Q1025 TEMPO SCT010=\n",
            "METAR EIDW 020400Z 24010G20KT 190V280 9999 FEW005 SCT009 BKN010 10/09 Q1026 TEMPO SCT010=\n",
            "METAR EIDW 020330Z 24010KT 180V300 9999 -DZ FEW005 BKN009 10/08 Q1026 NOSIG=\n",
            "METAR EIDW 020300Z 24011G21KT 200V280 9999 FEW005 BKN009 10/08 Q1026 NOSIG=\n",
            "METAR EIDW 020230Z 23009KT 150V290 9999 -DZ FEW008 BKN009 BKN010 10/08 Q1026 NOSIG=\n",
            "METAR EIDW 020200Z 23009KT 9999 FEW005 SCT008 BKN009 10/08 Q1027 NOSIG=\n",
            "METAR EIDW 020130Z 23009KT 190V270 9999 -DZ FEW005 BKN008 10/08 Q1027 NOSIG=\n",
            "METAR EIDW 020100Z 24010G20KT 190V290 9999 FEW005 BKN009 10/08 Q1027 TEMPO SCT009=\n",
            "METAR EIDW 020030Z 24011G21KT 180V290 9999 FEW008 BKN011 10/08 Q1027 TEMPO SCT011=\n",
            "METAR EIDW 020000Z 24009G20KT 200V280 9999 FEW008 BKN011 10/08 Q1027 TEMPO SCT011=\n",
            "METAR EIDW 012330Z 23011G24KT 200V280 9999 FEW009 BKN011 10/08 Q1027 TEMPO SCT011=\n",
            "METAR EIDW 012300Z 24011G21KT 200V290 9999 FEW009 BKN011 10/08 Q1027 TEMPO SCT011=\n",
            "METAR EIDW 012230Z 24013G25KT 210V270 9999 FEW009 SCT012 09/08 Q1027 NOSIG=\n",
            "METAR EIDW 012200Z 24012KT 200V270 9999 FEW009 09/08 Q1027 NOSIG=\n",
            "METAR EIDW 012130Z 24012KT 200V280 9999 FEW009 SCT011 09/08 Q1027 TEMPO BKN008=\n",
            "METAR EIDW 012100Z 24013G24KT 200V280 9999 FEW009 BKN011 09/07 Q1028 TEMPO BKN008=\n",
            "METAR EIDW 012030Z 24012KT 200V270 9999 FEW009 BKN011 09/07 Q1028 TEMPO BKN008=\n",
            "METAR EIDW 012000Z 24011KT 210V290 9999 FEW009 BKN010 09/07 Q1028 TEMPO BKN008=\n",
            "METAR EIDW 011930Z 24010KT 200V280 9999 SCT011 BKN013 09/06 Q1028 NOSIG=\n",
            "METAR EIDW 011900Z 24010KT 200V280 9999 FEW015 BKN021 08/06 Q1029 NOSIG=\n",
            "METAR EIDW 011830Z 24011KT 200V270 9999 FEW015 BKN023 08/05 Q1029 NOSIG=\n",
            "METAR EIDW 011800Z 24008KT 190V290 9999 FEW015 SCT019 BKN023 08/05 Q1029 NOSIG=\n",
            "METAR EIDW 011730Z 23009KT 200V280 9999 FEW018 SCT210 08/04 Q1029 NOSIG=\n",
            "METAR EIDW 011700Z 24010KT 200V270 9999 FEW034 BKN210 08/04 Q1030 NOSIG=\n",
            "METAR EIDW 011630Z 23011KT 200V270 9999 FEW034 BKN210 08/04 Q1030 NOSIG=\n",
            "METAR EIDW 011600Z 23011KT 200V280 CAVOK 08/03 Q1030 NOSIG=\n",
            "METAR EIDW 011530Z 24010KT 190V280 9999 FEW028 BKN210 08/03 Q1030 NOSIG=\n",
            "METAR EIDW 011500Z 23011G21KT 190V280 9999 FEW028 BKN210 08/03 Q1031 NOSIG=\n",
            "METAR EIDW 011430Z 23010KT 190V280 CAVOK 08/02 Q1031 NOSIG=\n",
            "METAR EIDW 011400Z 22011KT 180V260 CAVOK 08/02 Q1032 NOSIG=\n",
            "METAR EIDW 011330Z 22014KT 190V260 9999 FEW023 BKN210 08/03 Q1032 NOSIG=\n",
            "METAR EIDW 011300Z 23007KT 190V270 9999 FEW015 SCT180 07/03 Q1033 NOSIG=\n",
            "METAR EIDW 011230Z 23007KT 190V270 9999 FEW015 BKN160 07/02 Q1033 NOSIG=\n",
            "METAR EIDW 011200Z 22008KT 190V300 9999 FEW028 BKN200 07/03 Q1033 NOSIG=\n",
            "METAR EIDW 011130Z 21006KT 170V250 9999 FEW032 SCT130 BKN210 07/02 Q1034 NOSIG=\n",
            "METAR EIDW 011100Z 21007KT 170V230 9999 FEW032 SCT140 BKN210 07/03 Q1034 NOSIG=\n",
            "METAR EIDW 011030Z 21005KT 170V250 9999 FEW032 BKN180 06/02 Q1034 NOSIG=\n",
            "METAR EIDW 011000Z 20006KT 150V230 9999 FEW018 SCT032 BKN120 05/02 Q1033 NOSIG=\n",
            "METAR EIDW 010930Z 20005KT 170V230 9999 FEW018 BKN032 04/01 Q1034 NOSIG=\n",
            "METAR EIDW 010900Z 22005KT 190V250 9999 FEW018 BKN032 03/01 Q1034 NOSIG=\n",
            "METAR EIDW 010830Z 22005KT 180V270 9999 FEW010 BKN032 BKN210 04/00 Q1033 NOSIG=\n",
            "METAR EIDW 010800Z 24005KT 200V280 9999 FEW010 SCT032 BKN200 04/00 Q1033 NOSIG=\n",
            "METAR EIDW 010730Z 25006KT 190V280 9999 FEW010 BKN032 03/00 Q1032 NOSIG=\n",
            "METAR EIDW 010700Z 25008KT 220V290 9999 FEW010 BKN032 04/01 Q1032 NOSIG=\n",
            "METAR EIDW 010630Z 24007KT 200V290 9999 FEW010 SCT032 04/00 Q1032 NOSIG=\n",
            "METAR EIDW 010600Z 25007KT 200V270 9999 FEW010 SCT032 03/00 Q1032 NOSIG=\n",
            "METAR EIDW 010530Z 25007KT 200V280 9999 FEW010 BKN032 04/01 Q1032 NOSIG=\n",
            "METAR EIDW 010500Z 25006KT 210V270 9999 FEW010 BKN032 03/01 Q1032 NOSIG=\n",
            "METAR EIDW 010430Z 25007KT 210V280 9999 FEW010 BKN032 03/01 Q1031 NOSIG=\n",
            "METAR EIDW 010400Z 25007KT 210V280 9999 FEW010 SCT032 03/00 Q1031 NOSIG=\n",
            "METAR EIDW 010330Z 25007KT 220V280 9999 FEW010 SCT032 03/00 Q1031 NOSIG=\n",
            "METAR EIDW 010300Z 25007KT 230V290 9999 FEW010 BKN032 03/00 Q1030 NOSIG=\n",
            "METAR EIDW 010230Z 26009KT 9999 FEW010 BKN032 03/01 Q1030 NOSIG=\n",
            "METAR EIDW 010200Z 26011KT 9999 FEW010 BKN032 03/01 Q1030 NOSIG=\n",
            "METAR EIDW 010130Z 26011KT 9999 FEW010 SCT035 03/01 Q1029 NOSIG=\n",
            "METAR EIDW 010100Z 26011KT 9999 FEW010 BKN035 04/01 Q1030 NOSIG=\n",
            "TAF EIDW 292300Z 0100/0124 16008KT 9999 FEW015 SCT025\n",
            "         TEMPO 0100/0110 4000 -RA BKN010\n",
            "         BECMG 0102/0104 28012KT\n",
            "         PROB30 TEMPO 0102/0107 2000 RASN BKN003\n",
            "         PROB30 TEMPO 0107/0110 26015G25KT BKN005\n",
            "         BECMG 0111/0113 23010KT\n",
            "         BECMG 0115/0117 06010KT\n",
            "         BECMG 0118/0120 31010KT\n",
            "         TEMPO 0119/0124 4000 -SHRA BKN008\n",
            "         PROB30 TEMPO 0119/0124 1500 -SHRAGS BKN003\n",
            "         BECMG 0120/0122 01015KT=\n",
            "TAF AMD EIDW 291834Z 2918/0118 22008KT 9999 FEW016 SCT025\n",
            "         PROB30 TEMPO 2918/2920 24015G26KT -SHRA FEW018CB\n",
            "         BECMG 2919/2921 16008KT\n",
            "         TEMPO 0100/0110 4000 -RA BKN010\n",
            "         BECMG 0102/0104 28012KT\n",
            "         PROB30 TEMPO 0102/0107 2000 RASN BKN003\n",
            "         PROB30 TEMPO 0107/0111 26015G25KT\n",
            "         PROB30 TEMPO 0112/0118 -SHRA SCT018CB\n",
            "         BECMG 0110/0113 23010KT\n",
            "         BECMG 0114/0116 06010KT=\n",
            "TAF EIDW 291700Z 2918/0118 26010KT 9999 FEW018 SCT026\n",
            "         PROB30 TEMPO 2918/2920 27015G28KT -SHRA FEW018CB\n",
            "         BECMG 2919/2921 16008KT\n",
            "         TEMPO 0100/0110 4000 -RA BKN010\n",
            "         BECMG 0102/0104 28012KT\n",
            "         PROB30 TEMPO 0102/0107 2000 -RASN BKN003\n",
            "         PROB30 TEMPO 0108/0112 26015G25KT\n",
            "         PROB30 TEMPO 0112/0118 -SHRA SCT018CB\n",
            "         BECMG 0112/0114 23010KT\n",
            "         BECMG 0114/0116 06010KT=\n",
            "TAF EIDW 291100Z 2912/0112 24012KT 9999 FEW016 SCT022\n",
            "         TEMPO 2912/2918 24015G28KT -SHRA FEW018CB\n",
            "         PROB30 TEMPO 2912/2916 24020G33KT\n",
            "         BECMG 2919/2921 16008KT\n",
            "         TEMPO 0102/0112 4000 -RA BKN010\n",
            "         BECMG 0103/0105 28012KT\n",
            "         PROB30 TEMPO 0103/0108 2000 -RASN BKN003\n",
            "         PROB30 TEMPO 0108/0112 26015G25KT=\n",
            "TAF EIDW 290500Z 2906/0106 24012KT 9999 FEW010\n",
            "         TEMPO 2908/2918 24015G28KT -SHRA FEW018CB\n",
            "         PROB30 TEMPO 2912/2916 24020G33KT\n",
            "         BECMG 2920/2922 16008KT\n",
            "         TEMPO 0102/0106 4000 -RA BKN010\n",
            "         BECMG 0103/0105 29008KT\n",
            "         PROB30 TEMPO 0104/0106 2000 -RASN BKN003=\n",
            "TAF EIDW 282300Z 2900/2924 26013KT 9999 FEW010 SCT030\n",
            "         TEMPO 2900/2902 25015G27KT -SHRA BKN012\n",
            "         BECMG 2903/2905 23012KT\n",
            "         TEMPO 2910/2917 24015G28KT\n",
            "         TEMPO 2912/2917 -SHRA FEW018CB\n",
            "         PROB30 TEMPO 2912/2915 24020G33KT\n",
            "         BECMG 2920/2922 16008KT=\n",
            "TAF EIDW 281700Z 2818/2918 23012KT 9999 SCT008 BKN011\n",
            "         TEMPO 2818/2824 4000 -RADZ BKN007\n",
            "         PROB40 TEMPO 2818/2821 22015G25KT\n",
            "         BECMG 2821/2823 26013KT FEW015 SCT030\n",
            "         TEMPO 2821/2902 25015G27KT -SHRA BKN012\n",
            "         BECMG 2903/2905 23010KT\n",
            "         TEMPO 2908/2918 24015G28KT -SHRA FEW018CB\n",
            "         PROB30 TEMPO 2912/2915 24021G32KT=\n",
            "TAF EIDW 281100Z 2812/2912 23012KT 9999 SCT010 BKN020\n",
            "         TEMPO 2812/2824 -RADZ BKN012\n",
            "         PROB40 TEMPO 2812/2821 22015G25KT 4000 -RADZ BKN008\n",
            "         BECMG 2821/2823 26013KT\n",
            "         TEMPO 2821/2902 25015G27KT\n",
            "         BECMG 2903/2905 23010KT\n",
            "         TEMPO 2908/2912 24016G28KT=\n",
            "TAF AMD EIDW 280814Z 2808/2906 16007KT 9999 -RA SCT010 BKN020\n",
            "         BECMG 2808/2810 22012KT\n",
            "         TEMPO 2808/2818 -RADZ BKN012\n",
            "         TEMPO 2809/2814 23015G26KT\n",
            "         PROB30 TEMPO 2812/2818 4000 -RADZ BKN008\n",
            "         PROB40 TEMPO 2818/2821 RA BKN012\n",
            "         BECMG 2819/2821 26015G27KT\n",
            "         BECMG 2901/2903 23010KT=\n",
            "TAF EIDW 280500Z 2806/2906 20005KT 9999 -RA FEW015 SCT040\n",
            "         BECMG 2806/2808 22012KT\n",
            "         PROB30 TEMPO 2806/2808 4000 RA BKN012\n",
            "         TEMPO 2808/2818 -RADZ BKN012\n",
            "         TEMPO 2809/2814 23015G26KT\n",
            "         PROB30 TEMPO 2812/2818 4000 -RADZ BKN008\n",
            "         PROB40 TEMPO 2818/2821 RA BKN012\n",
            "         BECMG 2819/2821 26015G27KT\n",
            "         BECMG 2901/2903 23010KT=\n",
            "TAF EIDW 272300Z 2800/2824 22006KT 9999 FEW015 SCT040\n",
            "         BECMG 2801/2803 18005KT\n",
            "         BECMG 2806/2808 22012KT\n",
            "         TEMPO 2806/2818 -RADZ BKN012\n",
            "         TEMPO 2809/2814 23015G26KT\n",
            "         PROB30 TEMPO 2812/2818 4000 -RADZ BKN008\n",
            "         PROB40 TEMPO 2818/2821 RA BKN012\n",
            "         BECMG 2819/2821 27015G27KT=\n",
            "TAF EIDW 271700Z 2718/2818 27010KT 9999 FEW020 BKN030\n",
            "         BECMG 2801/2803 18005KT\n",
            "         BECMG 2806/2808 22012KT\n",
            "         TEMPO 2809/2814 23015G26KT\n",
            "         PROB30 TEMPO 2812/2818 4000 -RADZ BKN010=\n",
            "TAF EIDW 271100Z 2712/2812 23013KT 9999 FEW020 BKN030\n",
            "         TEMPO 2712/2713 4000 -RA BKN010\n",
            "         BECMG 2712/2714 28013KT\n",
            "         BECMG 2715/2717 27007KT\n",
            "         BECMG 2801/2803 18005KT\n",
            "         BECMG 2806/2808 21012KT\n",
            "         TEMPO 2809/2812 22015G26KT=\n",
            "TAF EIDW 270500Z 2706/2806 22013KT 9999 FEW020 BKN030\n",
            "         TEMPO 2706/2712 23015G25KT\n",
            "         TEMPO 2708/2712 BKN012\n",
            "         BECMG 2712/2714 28013KT\n",
            "         PROB30 TEMPO 2712/2715 29015G25KT\n",
            "         BECMG 2715/2717 27007KT\n",
            "         BECMG 2717/2719 24005KT\n",
            "         BECMG 2804/2806 21008KT=\n",
            "TAF EIDW 262300Z 2700/2724 22006KT 9999 FEW020\n",
            "         BECMG 2703/2705 22013KT\n",
            "         TEMPO 2705/2712 24015G25KT\n",
            "         TEMPO 2708/2712 BKN012\n",
            "         BECMG 2711/2713 28013KT\n",
            "         PROB30 TEMPO 2712/2715 29015G25KT\n",
            "         BECMG 2715/2717 27007KT\n",
            "         BECMG 2717/2719 24005KT=\n",
            "TAF EIDW 261700Z 2618/2718 32006KT 9999 FEW020\n",
            "         BECMG 2618/2620 27005KT\n",
            "         BECMG 2621/2623 23006KT\n",
            "         BECMG 2703/2705 22013KT\n",
            "         TEMPO 2705/2712 24015G25KT\n",
            "         TEMPO 2708/2712 BKN012\n",
            "         BECMG 2711/2713 28013KT\n",
            "         PROB30 TEMPO 2712/2715 29015G25KT\n",
            "         BECMG 2715/2717 27007KT=\n",
            "TAF EIDW 261100Z 2612/2712 35012KT 9999 FEW015 SCT020\n",
            "         BECMG 2616/2618 VRB03KT\n",
            "         BECMG 2620/2622 23006KT\n",
            "         BECMG 2703/2705 22013KT\n",
            "         PROB40 TEMPO 2705/2712 24015G25KT\n",
            "         TEMPO 2708/2712 BKN012\n",
            "         BECMG 2710/2712 25013KT=\n",
            "TAF AMD EIDW 260553Z 2606/2706 29007KT 9999 FEW015\n",
            "         BECMG 2606/2608 33010KT\n",
            "         BECMG 2610/2612 01013KT\n",
            "         BECMG 2616/2618 VRB03KT\n",
            "         BECMG 2620/2622 24006KT\n",
            "         BECMG 2703/2705 24013KT\n",
            "         PROB40 TEMPO 2705/2706 24015G25KT=\n",
            "TAF EIDW 260500Z 2606/2706 34010KT 9999 FEW015\n",
            "         BECMG 2610/2612 01013KT\n",
            "         BECMG 2616/2618 VRB03KT\n",
            "         BECMG 2620/2622 24006KT\n",
            "         BECMG 2703/2705 24013KT\n",
            "         PROB40 TEMPO 2705/2706 24015G25KT=\n",
            "TAF EIDW 252300Z 2600/2624 36010KT 9999 FEW018 SCT025\n",
            "         BECMG 2616/2618 VRB03KT\n",
            "         BECMG 2620/2622 24006KT=\n",
            "TAF EIDW 251700Z 2518/2618 05014KT 9999 FEW015 SCT025\n",
            "         BECMG 2520/2522 36010KT\n",
            "         BECMG 2616/2618 VRB03KT=\n",
            "TAF EIDW 251100Z 2512/2612 05014KT 9999 FEW015 BKN025\n",
            "         TEMPO 2512/2517 06017G27KT\n",
            "         BECMG 2520/2522 36012KT=\n",
            "TAF AMD EIDW 250750Z 2507/2606 09008KT 9999 FEW012 BKN025\n",
            "         TEMPO 2507/2509 4000 -SHRA BKN012\n",
            "         BECMG 2507/2509 09013KT\n",
            "         BECMG 2511/2513 06015KT\n",
            "         TEMPO 2512/2517 06017G27KT\n",
            "         BECMG 2517/2519 03013KT\n",
            "         BECMG 2520/2522 36012KT=\n",
            "TAF AMD EIDW 250609Z 2506/2606 09008KT 9999 FEW009 BKN025\n",
            "         TEMPO 2506/2509 -SHRA BKN009\n",
            "         BECMG 2507/2509 09013KT\n",
            "         BECMG 2511/2513 06015KT\n",
            "         TEMPO 2512/2517 06017G27KT\n",
            "         BECMG 2517/2519 03013KT\n",
            "         BECMG 2520/2522 36012KT=\n",
            "TAF EIDW 250500Z 2506/2606 10008KT 9999 FEW012 SCT025\n",
            "         PROB30 TEMPO 2506/2508 -SHRA BKN012\n",
            "         BECMG 2507/2509 10013KT\n",
            "         BECMG 2511/2513 07015KT\n",
            "         TEMPO 2512/2517 06017G27KT\n",
            "         BECMG 2517/2519 03013KT\n",
            "         BECMG 2520/2522 36012KT=\n",
            "TAF EIDW 242300Z 2500/2524 15004KT 9999 SCT012\n",
            "         BECMG 2504/2506 12007KT\n",
            "         PROB40 TEMPO 2505/2508 -SHRA BKN012\n",
            "         BECMG 2507/2509 10012KT\n",
            "         BECMG 2511/2513 07015KT\n",
            "         TEMPO 2512/2517 06017G27KT\n",
            "         BECMG 2517/2519 04013KT\n",
            "         BECMG 2519/2521 01012KT\n",
            "         TEMPO 2520/2523 -SHRA BKN012=\n",
            "TAF EIDW 241700Z 2418/2518 27006KT 9999 FEW013 SCT028\n",
            "         BECMG 2418/2420 VRB03KT\n",
            "         BECMG 2504/2506 12008KT\n",
            "         BECMG 2507/2509 09010KT\n",
            "         BECMG 2510/2512 06013KT\n",
            "         TEMPO 2512/2516 05015G26KT\n",
            "         BECMG 2516/2518 02012KT=\n",
            "TAF AMD EIDW 241509Z 2415/2512 29008KT 9999 FEW013 SCT025\n",
            "         BECMG 2416/2418 24005KT\n",
            "         BECMG 2418/2420 VRB03KT\n",
            "         BECMG 2504/2506 12008KT\n",
            "         BECMG 2507/2509 08010KT\n",
            "         BECMG 2510/2512 05013KT=\n",
            "TAF EIDW 241100Z 2412/2512 26008KT 9999 BKN006\n",
            "         BECMG 2412/2414 FEW015 SCT035\n",
            "         BECMG 2416/2418 23005KT\n",
            "         BECMG 2418/2420 VRB03KT\n",
            "         BECMG 2504/2506 12008KT\n",
            "         BECMG 2507/2509 08010KT\n",
            "         BECMG 2510/2512 05013KT=\n",
            "TAF AMD EIDW 240837Z 2408/2506 27009KT 9999 BKN006\n",
            "         TEMPO 2408/2412 FEW006 BKN012\n",
            "         PROB30 TEMPO 2408/2411 3000 BR BKN004\n",
            "         BECMG 2412/2414 FEW020 SCT035\n",
            "         BECMG 2418/2420 VRB03KT\n",
            "         BECMG 2504/2506 12010KT=\n",
            "TAF EIDW 240500Z 2406/2506 30008KT 9999 FEW008 BKN012\n",
            "         TEMPO 2406/2413 BKN009\n",
            "         PROB40 TEMPO 2406/2411 3000 BR BKN004\n",
            "         BECMG 2412/2414 26009KT FEW020 SCT035\n",
            "         BECMG 2418/2420 VRB03KT\n",
            "         BECMG 2504/2506 12010KT=\n",
            "TAF EIDW 232300Z 2400/2424 24008KT 9999 FEW018 SCT030\n",
            "         PROB40 TEMPO 2400/2402 -SHRA BKN010 FEW018CB\n",
            "         PROB30 TEMPO 2402/2406 3000 BR BKN004\n",
            "         BECMG 2405/2407 30006KT\n",
            "         TEMPO 2406/2411 3000 BR BKN004\n",
            "         PROB30 TEMPO 2406/2410 0500 FG BKN001\n",
            "         BECMG 2409/2411 27007KT\n",
            "         PROB30 TEMPO 2412/2415 BKN009\n",
            "         BECMG 2418/2420 VRB03KT=\n",
            "TAF EIDW 231700Z 2318/2418 25011KT 9999 FEW018 SCT030\n",
            "         PROB40 TEMPO 2318/2402 -SHRA FEW018CB\n",
            "         TEMPO 2321/2402 BKN010\n",
            "         BECMG 2401/2403 31008KT\n",
            "         PROB30 TEMPO 2402/2406 3000 BR BKN004\n",
            "         TEMPO 2406/2411 3000 BR BKN004\n",
            "         PROB30 TEMPO 2406/2410 0500 FG BKN001\n",
            "         BECMG 2408/2410 28010KT\n",
            "         BECMG 2416/2418 28005KT=\n",
            "TAF EIDW 231100Z 2312/2412 25012KT 9999 FEW010 BKN020\n",
            "         TEMPO 2312/2316 -SHRA FEW018CB\n",
            "         PROB30 TEMPO 2312/2316 26015G25KT\n",
            "         PROB40 TEMPO 2316/2402 -SHRA FEW018CB\n",
            "         BECMG 2401/2403 29008KT\n",
            "         PROB30 2402/2410 0500 FG BKN001\n",
            "         BECMG 2410/2412 32010KT\n",
            "         PROB30 TEMPO 2410/2411 3000 BR BKN004=\n",
            "TAF AMD EIDW 230959Z 2309/2406 24011KT 9999 SCT010\n",
            "         TEMPO 2309/2312 BKN010\n",
            "         TEMPO 2312/2324 -SHRA FEW018CB\n",
            "         BECMG 2403/2405 29007KT\n",
            "         PROB40 TEMPO 2401/2406 3000 BR BKN005=\n",
            "TAF EIDW 230500Z 2306/2406 24010KT 9999 FEW016 SCT030\n",
            "         TEMPO 2311/2324 -SHRA FEW018CB\n",
            "         BECMG 2403/2405 29007KT\n",
            "         PROB40 TEMPO 2401/2406 3000 BR BKN005=\n",
            "TAF EIDW 222300Z 2300/2324 24010KT 9999 FEW015 SCT030\n",
            "         PROB40 TEMPO 2300/2303 25015G25KT -SHRA FEW018CB\n",
            "         TEMPO 2312/2324 -SHRA FEW018CB\n",
            "         PROB30 TEMPO 2314/2317 25015G25KT=\n",
            "TAF EIDW 221700Z 2218/2318 25012KT 9999 FEW015 SCT025\n",
            "         TEMPO 2218/2302 27015G25KT -SHRA FEW018CB\n",
            "         TEMPO 2314/2318 -SHRA FEW018CB=\n",
            "TAF EIDW 221100Z 2212/2312 25012KT 9999 FEW015 SCT025\n",
            "         TEMPO 2212/2302 27015G25KT -SHRA FEW018CB=\n",
            "TAF EIDW 220500Z 2206/2306 23007KT 9999 FEW020\n",
            "         BECMG 2206/2208 24012KT\n",
            "         TEMPO 2209/2218 26015G27KT -SHRA FEW018CB\n",
            "         PROB30 TEMPO 2218/2303 25015G25KT FEW018CB=\n",
            "TAF EIDW 212300Z 2200/2224 21015KT 9999 -SHRA FEW020 SCT030\n",
            "         PROB40 TEMPO 2200/2202 23015G25KT 4000 SHRA FEW018CB\n",
            "         BECMG 2201/2203 24012KT\n",
            "         PROB40 TEMPO 2209/2218 26015G26KT -SHRA FEW018CB\n",
            "         PROB30 TEMPO 2220/2224 25015G25KT=\n",
            "TAF AMD EIDW 211907Z 2119/2218 21011KT 9999 FEW020 BKN040\n",
            "         TEMPO 2122/2202 22015G26KT -SHRA BKN012\n",
            "         PROB30 TEMPO 2201/2204 4000 SHRA BKN008 FEW018CB\n",
            "         BECMG 2203/2205 24011KT\n",
            "         PROB40 TEMPO 2209/2218 25015G26KT -SHRA FEW018CB\n",
            "         PROB30 TEMPO 2213/2216 25018G32KT=\n",
            "TAF EIDW 211700Z 2118/2218 24010KT 9999 FEW018 BKN040\n",
            "         BECMG 2120/2122 21011KT\n",
            "         TEMPO 2122/2202 22015G26KT -SHRA BKN012\n",
            "         PROB30 TEMPO 2201/2204 4000 SHRA BKN008 FEW018CB\n",
            "         BECMG 2203/2205 24011KT\n",
            "         PROB40 TEMPO 2209/2218 25015G26KT -SHRA FEW018CB\n",
            "         PROB30 TEMPO 2213/2216 25018G32KT=\n",
            "TAF EIDW 211100Z 2112/2212 25015KT 9999 FEW010 BKN020\n",
            "         TEMPO 2112/2117 26018G29KT\n",
            "         PROB40 TEMPO 2112/2115 26022G37KT -DZ FEW007 BKN011\n",
            "         BECMG 2120/2122 21010KT\n",
            "         TEMPO 2122/2203 23015G25KT -SHRA BKN012\n",
            "         PROB30 TEMPO 2201/2204 4000 SHRA BKN008\n",
            "         BECMG 2205/2207 25011KT\n",
            "         PROB30 TEMPO 2210/2212 26015G25KT -SHRA FEW018CB=\n",
            "TAF EIDW 210500Z 2106/2206 16010KT 9999 -RA FEW005 SCT010 BKN016\n",
            "          BECMG 2106/2108 21017G27KT\n",
            "         TEMPO 2106/2110 4000 -RA BKN012\n",
            "         BECMG 2109/2111 25020G30KT\n",
            "         TEMPO 2111/2114 26022G35KT\n",
            "         BECMG 2116/2118 22008KT\n",
            "         BECMG 2120/2122 20012KT\n",
            "         BECMG 2122/2124 22015G25KT\n",
            "         PROB30 TEMPO 2201/2204 4000 SHRA BKN012\n",
            "         BECMG 2203/2205 22008KT=\n",
            "TAF EIDW 202300Z 2100/2124 14005KT 9999 FEW010\n",
            "         BECMG 2100/2102 13010KT\n",
            "         PROB40 TEMPO 2101/2104 2000 BR BKN003\n",
            "         PROB30 TEMPO 2101/2104 0800 FG SCT001\n",
            "         BECMG 2104/2106 17012KT\n",
            "         TEMPO 2104/2110 4000 -RA BKN012\n",
            "         BECMG 2106/2108 21018G28KT\n",
            "         BECMG 2109/2111 25020G35KT\n",
            "         PROB40 TEMPO 2111/2114 26025G40KT\n",
            "         BECMG 2116/2118 22007KT\n",
            "         BECMG 2120/2122 20012KT\n",
            "         BECMG 2122/2124 21015G25KT=\n",
            "TAF EIDW 201700Z 2018/2118 23007KT 9999 SCT020\n",
            "         BECMG 2019/2021 VRB03KT\n",
            "         BECMG 2100/2102 14008KT\n",
            "         TEMPO 2100/2105 3000 BR\n",
            "         PROB40 TEMPO 2100/2103 1500 BR BKN003\n",
            "         BECMG 2102/2104 16013KT\n",
            "         TEMPO 2103/2110 4000 -RA BKN012\n",
            "         BECMG 2104/2106 20015G25KT\n",
            "         BECMG 2108/2110 25020G35KT\n",
            "         TEMPO 2110/2114 26025G42KT\n",
            "         BECMG 2116/2118 22007KT=\n",
            "TAF EIDW 201100Z 2012/2112 23015G25KT 9999 FEW012 BKN020\n",
            "         BECMG 2012/2014 27015G25KT\n",
            "         TEMPO 2012/2015 -RA BKN012\n",
            "         BECMG 2016/2018 24007KT\n",
            "         BECMG 2018/2020 18005KT\n",
            "         BECMG 2022/2024 14008KT\n",
            "         PROB40 TEMPO 2100/2103 3000 BR BKN003\n",
            "         BECMG 2102/2104 16013KT\n",
            "         TEMPO 2103/2110 4000 -RA BKN012\n",
            "         BECMG 2104/2106 20015G25KT\n",
            "         BECMG 2108/2110 25018G30KT=\n",
            "TAF EIDW 200500Z 2006/2106 23012KT 9999 FEW012 BKN020\n",
            "         PROB40 TEMPO 2006/2013 23014G25KT\n",
            "         TEMPO 2006/2014 -RA BKN012\n",
            "         PROB30 TEMPO 2009/2013 4000 -RADZ BKN008\n",
            "         BECMG 2012/2014 27013KT\n",
            "         TEMPO 2013/2015 26017G28KT\n",
            "         BECMG 2016/2018 23007KT\n",
            "         BECMG 2018/2020 18005KT\n",
            "         BECMG 2022/2024 14008KT\n",
            "         PROB40 TEMPO 2100/2103 3000 BR BKN003\n",
            "         BECMG 2102/2104 16013KT\n",
            "         TEMPO 2103/2106 4000 -RA BKN012\n",
            "         BECMG 2104/2106 20014G25KT=\n",
            "TAF EIDW 192300Z 2000/2024 20008KT 9999 FEW012 BKN030\n",
            "         BECMG 2000/2002 23013KT\n",
            "         TEMPO 2000/2004 BKN012\n",
            "         TEMPO 2002/2013 23015G26KT\n",
            "         TEMPO 2008/2014 -RA BKN012\n",
            "         PROB30 TEMPO 2010/2013 4000 -RA BKN008\n",
            "         BECMG 2012/2014 26017G28KT\n",
            "         BECMG 2014/2016 27013KT\n",
            "         BECMG 2016/2018 23007KT\n",
            "         BECMG 2018/2020 18005KT\n",
            "         BECMG 2022/2024 14009KT=\n",
            "TAF AMD EIDW 192049Z 1920/2018 19009KT 9999 FEW012 SCT030\n",
            "         BECMG 1921/1923 23013KT\n",
            "         TEMPO 1922/2003 BKN012\n",
            "         PROB30 TEMPO 1923/2003 22015G25KT 4500 -DZ BKN008\n",
            "         TEMPO 2003/2014 23015G25KT\n",
            "         TEMPO 2009/2013 BKN012\n",
            "         PROB30 TEMPO 2010/2013 4000 -RA BKN008\n",
            "         BECMG 2012/2014 26013KT\n",
            "         PROB30 TEMPO 2014/2016 27015G25KT\n",
            "         BECMG 2016/2018 24007KT=\n",
            "TAF EIDW 191700Z 1918/2018 23006KT 9999 FEW012 SCT030\n",
            "         PROB40 TEMPO 1918/1920 20005KT\n",
            "         BECMG 1921/1923 23013KT\n",
            "         TEMPO 1922/2003 BKN012\n",
            "         PROB30 TEMPO 1923/2003 22015G25KT 4500 -DZ BKN008\n",
            "         TEMPO 2003/2014 23015G25KT\n",
            "         TEMPO 2009/2013 BKN012\n",
            "         PROB30 TEMPO 2010/2013 4000 -RA BKN008\n",
            "         BECMG 2012/2014 26013KT\n",
            "         PROB30 TEMPO 2014/2016 27015G25KT\n",
            "         BECMG 2016/2018 24007KT=\n",
            "TAF EIDW 191100Z 1912/2012 26012KT 9999 FEW010\n",
            "         BECMG 1917/1919 22008KT\n",
            "         BECMG 1920/1922 23013KT\n",
            "         TEMPO 1922/2003 BKN012\n",
            "         PROB30 TEMPO 1923/2003 22015G25KT 4000 -RADZ BKN008\n",
            "         TEMPO 2003/2012 23015G25KT\n",
            "         PROB40 TEMPO 2008/2012 -RA BKN012=\n",
            "TAF EIDW 190500Z 1906/2006 26012KT 9999 FEW018 BKN025\n",
            "         BECMG 1916/1918 23008KT\n",
            "         BECMG 1920/1922 23013KT\n",
            "         PROB40 TEMPO 1922/2001 23014G25KT\n",
            "         TEMPO 2000/2003 BKN012\n",
            "         PROB30 TEMPO 2000/2003 4000 -RADZ BKN008\n",
            "         TEMPO 2001/2006 24015G26KT=\n",
            "TAF EIDW 182300Z 1900/1924 22010KT 9999 FEW018 BKN030\n",
            "         BECMG 1900/1902 24015G26KT\n",
            "         BECMG 1902/1904 27016G27KT\n",
            "         TEMPO 1902/1905 -RA BKN012\n",
            "         PROB30 TEMPO 1902/1904 4000 -RADZ BKN007\n",
            "         BECMG 1904/1906 26014KT\n",
            "         BECMG 1916/1918 23008KT\n",
            "         BECMG 1920/1922 23013KT\n",
            "         PROB40 TEMPO 1922/1924 23014G25KT=\n",
            "TAF EIDW 181700Z 1818/1918 26012KT 9999 FEW018 BKN030\n",
            "         BECMG 1820/1822 23008KT\n",
            "         BECMG 1900/1902 24013KT\n",
            "         BECMG 1902/1904 27014KT\n",
            "         TEMPO 1902/1905 27016G27KT -RA BKN012\n",
            "         PROB30 TEMPO 1902/1904 4000 -RADZ BKN007\n",
            "         BECMG 1915/1917 24008KT=\n",
            "TAF EIDW 181100Z 1812/1912 27010KT 9999 FEW010 BKN020\n",
            "         PROB30 TEMPO 1812/1814 -DZ BKN010\n",
            "         BECMG 1819/1821 23008KT\n",
            "         BECMG 1823/1901 24013KT\n",
            "         BECMG 1902/1904 27013KT\n",
            "         TEMPO 1902/1905 27015G25KT -RA BKN012\n",
            "         PROB40 TEMPO 1902/1904 4000 -RADZ BKN007=\n",
            "TAF AMD EIDW 180807Z 1808/1906 28009KT 9999 FEW010 BKN050\n",
            "         TEMPO 1808/1814 -DZ BKN008\n",
            "         BECMG 1818/1820 23008KT\n",
            "         BECMG 1822/1824 24013KT\n",
            "         BECMG 1900/1902 27012KT\n",
            "         TEMPO 1902/1905 -RA BKN012=\n",
            "TAF EIDW 180500Z 1806/1906 25008KT 9999 FEW010 BKN050\n",
            "         TEMPO 1806/1814 -DZ BKN010\n",
            "         BECMG 1812/1814 28010KT\n",
            "         BECMG 1818/1820 23008KT\n",
            "         BECMG 1822/1824 24013KT\n",
            "         BECMG 1900/1902 27012KT\n",
            "         TEMPO 1902/1905 -RA BKN012=\n",
            "TAF EIDW 172300Z 1800/1824 23005KT 9999 FEW005 SCT007 BKN018\n",
            "         TEMPO 1800/1814 -DZ BKN010\n",
            "         PROB30 TEMPO 1800/1803 BKN007\n",
            "         BECMG 1812/1814 28010KT\n",
            "         BECMG 1818/1820 23008KT\n",
            "         BECMG 1822/1824 24013KT=\n",
            "TAF EIDW 171700Z 1718/1818 22008KT 9999 FEW008 SCT014 BKN050\n",
            "         PROB40 TEMPO 1718/1722 -DZ BKN012\n",
            "         PROB30 TEMPO 1718/1721 4000 -RADZ BKN007\n",
            "         BECMG 1719/1721 25008KT\n",
            "         PROB30 TEMPO 1722/1814 -DZ BKN010=\n",
            "TAF EIDW 171100Z 1712/1812 15008KT 8000 -RA FEW005 SCT015 BKN025\n",
            "          BECMG 1712/1714 22012KT\n",
            "         TEMPO 1712/1713 4000 -RADZ\n",
            "         PROB40 TEMPO 1712/1722 BKN010\n",
            "         PROB30 TEMPO 1712/1715 21015G25KT\n",
            "         PROB30 TEMPO 1716/1721 4000 -RADZ BKN007\n",
            "         BECMG 1719/1721 25008KT\n",
            "         PROB30 TEMPO 1722/1805 -RA BKN010=\n",
            "TAF AMD EIDW 170920Z 1709/1806 13005KT 9999 FEW005\n",
            "         PROB40 TEMPO 1709/1712 2000 BR SCT001\n",
            "         BECMG 1710/1712 17008KT -RA\n",
            "         BECMG 1712/1714 22012KT\n",
            "         TEMPO 1712/1722 BKN010\n",
            "         PROB30 TEMPO 1712/1715 22015G25KT\n",
            "         PROB30 TEMPO 1718/1721 4000 -RADZ BKN007\n",
            "         BECMG 1720/1722 25008KT\n",
            "         PROB30 TEMPO 1722/1806 -RA BKN010=\n",
            "TAF AMD EIDW 170813Z 1708/1806 15008KT 9999 FEW010 SCT030\n",
            "         TEMPO 1708/1712 BKN010\n",
            "         PROB40 TEMPO 1708/1712 0700 FG BKN001\n",
            "         TEMPO 1712/1801 -RA BKN010\n",
            "         BECMG 1713/1715 21011KT\n",
            "         PROB30 TEMPO 1718/1801 3000 -RADZ BKN004\n",
            "         BECMG 1722/1724 27008KT\n",
            "         PROB40 TEMPO 1801/1806 -RA BKN010=\n",
            "TAF EIDW 170500Z 1706/1806 VRB03KT 9999 SCT010\n",
            "         TEMPO 1706/1712 BKN010\n",
            "         BECMG 1708/1710 15008KT\n",
            "         PROB30 TEMPO 1709/1712 0700 FG BKN002\n",
            "         TEMPO 1712/1801 -RA BKN010\n",
            "         BECMG 1713/1715 21011KT\n",
            "         PROB30 TEMPO 1718/1801 3000 -RADZ BKN004\n",
            "         BECMG 1722/1724 27008KT\n",
            "         PROB40 TEMPO 1801/1806 -RA BKN010=\n",
            "TAF AMD EIDW 162309Z 1700/1724 VRB03KT 9999 FEW010 BKN018\n",
            "         TEMPO 1700/1712 4000 -RA BKN010\n",
            "         PROB30 TEMPO 1702/1706 1500 -RADZ BR BKN007\n",
            "         BECMG 1708/1710 15008KT\n",
            "         PROB30 TEMPO 1709/1712 0800 FG BKN001\n",
            "         BECMG 1713/1715 21011KT\n",
            "         TEMPO 1713/1724 3000 -RA SCT003 BKN005\n",
            "         BECMG 1722/1724 27008KT=\n",
            "TAF EIDW 162300Z 1700/1724 VRB03KT 9999 FEW010 BKN018\n",
            "         TEMPO 1700/1712 4000 -DZ BR BKN010\n",
            "         BECMG 1708/1710 15008KT\n",
            "         PROB30 TEMPO 1709/1712 0800 FG BKN001\n",
            "         BECMG 1713/1715 21011KT\n",
            "         TEMPO 1713/1724 3000 -RA SCT003 BKN005\n",
            "         BECMG 1722/1724 27008KT=\n",
            "TAF EIDW 161700Z 1618/1718 VRB03KT 9999 SCT020 BKN030\n",
            "         PROB40 TEMPO 1622/1712 3000 -DZ BR SCT004 BKN007\n",
            "         PROB30 TEMPO 1701/1712 0700 FG BKN002\n",
            "         BECMG 1710/1712 15008KT\n",
            "         BECMG 1713/1715 21011KT\n",
            "         TEMPO 1713/1718 3000 -RA SCT003 BKN005=\n",
            "TAF EIDW 161100Z 1612/1712 25010KT 9999 SCT010 SCT025\n",
            "         PROB40 TEMPO 1612/1614 4000 -DZ SCT008 BKN011\n",
            "         BECMG 1617/1619 VRB03KT\n",
            "         PROB40 TEMPO 1622/1710 3000 -RADZ BR SCT004 BKN007\n",
            "         PROB30 TEMPO 1701/1708 0800 FG BKN003\n",
            "         BECMG 1710/1712 14008KT\n",
            "         TEMPO 1711/1712 3000 -RA SCT003 BKN005=\n",
            "TAF EIDW 160500Z 1606/1706 23010KT 9999 SCT010 SCT025\n",
            "         TEMPO 1606/1614 -SHRA BKN010\n",
            "         PROB30 TEMPO 1606/1611 4000 -SHRA BKN007\n",
            "         BECMG 1608/1610 26012KT\n",
            "         BECMG 1617/1619 VRB03KT\n",
            "         PROB40 TEMPO 1701/1706 3000 -RADZ BKN005=\n",
            "TAF EIDW 152300Z 1600/1624 VRB03KT 9999 FEW012 SCT025\n",
            "         TEMPO 1603/1615 -SHRA BKN012\n",
            "         BECMG 1604/1606 23012KT\n",
            "         BECMG 1608/1610 26012KT\n",
            "         PROB30 TEMPO 1608/1611 4000 -RADZ BKN007\n",
            "         BECMG 1617/1619 VRB03KT=\n",
            "TAF AMD EIDW 151932Z 1519/1618 26008KT 9999 FEW015 SCT025\n",
            "         TEMPO 1603/1616 -SHRA BKN012\n",
            "         BECMG 1603/1605 23013KT\n",
            "         BECMG 1608/1610 26012KT\n",
            "         PROB30 TEMPO 1608/1611 4000 -RADZ BKN007\n",
            "         BECMG 1616/1618 26005KT=\n",
            "TAF AMD EIDW 151830Z 1518/1618 23008KT 9999 FEW015 SCT025\n",
            "         TEMPO 1603/1616 -SHRA BKN012\n",
            "         BECMG 1603/1605 23013KT\n",
            "         BECMG 1608/1610 26012KT\n",
            "         PROB30 TEMPO 1608/1611 4000 -RADZ BKN007\n",
            "         BECMG 1616/1618 26005KT=\n",
            "TAF EIDW 151700Z 1518/1618 23008KT 9999 FEW015 SCT025\n",
            "         TEMPO 1603/1616 -SHRA BKN012\n",
            "         BECMG 1603/1605 23012KT\n",
            "         BECMG 1608/1610 26012KT\n",
            "         PROB30 TEMPO 1608/1611 4000 -RADZ BKN007\n",
            "         BECMG 1616/1618 26005KT=\n",
            "TAF EIDW 151100Z 1512/1612 24010KT 9999 FEW005 BKN020\n",
            "         TEMPO 1512/1514 -RA BKN010\n",
            "         PROB40 TEMPO 1512/1514 4000 -RADZ BKN006\n",
            "         BECMG 1516/1518 27006KT\n",
            "         BECMG 1521/1523 23007KT\n",
            "         TEMPO 1602/1612 -SHRA BKN012\n",
            "         BECMG 1603/1605 23012KT\n",
            "         BECMG 1606/1608 26012KT\n",
            "         PROB30 TEMPO 1608/1612 4000 -RADZ BKN007=\n",
            "TAF EIDW 150500Z 1506/1606 14005KT 9999 FEW005 BKN020\n",
            "         TEMPO 1506/1514 -RA BKN010\n",
            "         PROB40 TEMPO 1506/1513 4000 -RADZ BKN006\n",
            "         BECMG 1507/1509 21008KT\n",
            "         BECMG 1509/1511 24010KT\n",
            "         BECMG 1515/1517 27006KT\n",
            "         BECMG 1521/1523 23007KT\n",
            "         TEMPO 1602/1606 -SHRA BKN012=\n",
            "TAF EIDW 142300Z 1500/1524 20008KT 9999 SCT010 BKN020\n",
            "         TEMPO 1500/1513 -RA BKN010\n",
            "         PROB40 TEMPO 1504/1513 4000 -RADZ BKN007\n",
            "         BECMG 1507/1509 24010KT\n",
            "         BECMG 1515/1517 27006KT\n",
            "         BECMG 1521/1523 23007KT=\n",
            "TAF AMD EIDW 142210Z 1422/1518 16006KT 9999 -RA FEW010 BKN020\n",
            "         BECMG 1422/1424 20008KT\n",
            "         PROB40 TEMPO 1422/1501 2000 RADZ BKN005\n",
            "         PROB40 TEMPO 1504/1514 4000 -RADZ BKN008\n",
            "         TEMPO 1507/1509 24010KT=\n",
            "TAF AMD EIDW 142205Z 1422/1518 16006KT 9999 -RA FEW010 BKN020\n",
            "         BECMG 1422/1424 20008KT\n",
            "         PROB40 TEMPO 1422/1501 2000 RADZ BKN005\n",
            "         BECMG 1423/1501 23010KT\n",
            "         PROB40 TEMPO 1504/1514 4000 -RADZ BKN008=\n",
            "TAF EIDW 141700Z 1418/1518 20008KT 9999 -RA FEW010 BKN020\n",
            "         TEMPO 1418/1422 16007KT\n",
            "         PROB40 TEMPO 1418/1421 4000 -RADZ BKN008\n",
            "         PROB40 TEMPO 1421/1501 2000 RADZ BKN005\n",
            "         BECMG 1423/1501 23010KT\n",
            "         PROB40 TEMPO 1504/1514 4000 -RADZ BKN008=\n",
            "TAF AMD EIDW 141203Z 1412/1512 22008KT 9999 SCT010 BKN020\n",
            "         TEMPO 1412/1413 BKN013\n",
            "         PROB40 TEMPO 1412/1416 24015KT\n",
            "         PROB40 TEMPO 1417/1421 4000 -RADZ BKN008\n",
            "         BECMG 1418/1420 16007KT\n",
            "         PROB40 TEMPO 1421/1501 2000 RADZ BKN005\n",
            "         BECMG 1500/1502 23010KT\n",
            "         PROB40 TEMPO 1504/1512 4000 -RADZ BKN008=\n",
            "TAF EIDW 141100Z 1412/1512 22008KT 9999 SCT010 BKN020\n",
            "         PROB40 TEMPO 1412/1416 24015KT\n",
            "         PROB40 TEMPO 1417/1421 4000 -RADZ BKN008\n",
            "         BECMG 1418/1420 16007KT\n",
            "         PROB40 TEMPO 1421/1501 2000 RADZ BKN005\n",
            "         BECMG 1500/1502 23010KT\n",
            "         PROB40 TEMPO 1504/1512 4000 -RADZ BKN008=\n",
            "TAF EIDW 140500Z 1406/1506 21007KT 9999 FEW010 BKN040\n",
            "         PROB40 TEMPO 1406/1410 -DZ BKN010\n",
            "         BECMG 1408/1410 23013KT\n",
            "         BECMG 1417/1419 21007KT\n",
            "         BECMG 1419/1421 16007KT\n",
            "         PROB30 TEMPO 1420/1501 4000 -RADZ BKN008\n",
            "         BECMG 1500/1502 23010KT=\n",
            "TAF AMD EIDW 140133Z 1401/1424 VRB03KT 0400 FG SCT002\n",
            "         BECMG 1401/1403 21007KT 6000 NSW FEW010 BKN015\n",
            "         TEMPO 1403/1410 BKN010\n",
            "         PROB30 TEMPO 1403/1408 4000 -DZ\n",
            "         BECMG 1408/1410 23013KT\n",
            "         BECMG 1417/1419 21007KT\n",
            "         BECMG 1419/1421 15007KT\n",
            "         TEMPO 1419/1424 4000 -RA BKN007\n",
            "         PROB30 TEMPO 1421/1424 2000 -RADZ BKN004=\n",
            "TAF AMD EIDW 140133Z 1401/1424 VRB03KT 0400 FG SCT002\n",
            "         BECMG 1401/1403 21007KT 6000 NSW FEW010 BKN015\n",
            "         TEMPO 1403/1410 BKN010\n",
            "         PROB30 TEMPO 1403/1408 4000 -DZ\n",
            "         BECMG 1408/1410 23013KT\n",
            "         BECMG 1417/1419 21007KT\n",
            "         BECMG 1419/1421 15007KT\n",
            "         TEMPO 1419/1424 4000 -RA BKN007\n",
            "         PROB30 TEMPO 1421/1424 2000 -RADZ BKN004=\n",
            "TAF AMD EIDW 132129Z 1321/1418 13006KT 3000 -RADZ BR BKN003\n",
            "         TEMPO 1321/1324 5000 SCT003 BKN005\n",
            "         PROB30 TEMPO 1321/1324 0800 RADZ FG BKN001\n",
            "         BECMG 1400/1402 16005KT 6000 -DZ SCT005 BKN010\n",
            "         BECMG 1402/1404 20007KT 9999 NSW SCT010 BKN025\n",
            "         TEMPO 1404/1410 BKN010\n",
            "         PROB30 TEMPO 1404/1406 4000 -DZ\n",
            "         BECMG 1409/1411 23012KT\n",
            "         BECMG 1415/1417 19007KT=\n",
            "TAF EIDW 131700Z 1318/1418 12006KT 9999 BKN009\n",
            "         TEMPO 1318/1324 3000 -RADZ BR BKN004\n",
            "         PROB30 TEMPO 1318/1322 0800 RADZ FG BKN001\n",
            "         BECMG 1323/1401 20007KT SCT010 BKN025\n",
            "         TEMPO 1400/1412 BKN010\n",
            "         PROB30 TEMPO 1400/1406 4000 -DZ\n",
            "         BECMG 1409/1411 23012KT\n",
            "         BECMG 1415/1417 19007KT=\n",
            "TAF EIDW 131100Z 1312/1412 14005KT 9999 FEW018 BKN030\n",
            "         PROB30 TEMPO 1312/1314 4000 -DZ BKN008\n",
            "         BECMG 1313/1315 10007KT 4000 -DZ SCT003 BKN006\n",
            "         TEMPO 1315/1322 2000 -RADZ BR BKN003\n",
            "         PROB30 TEMPO 1317/1322 0500 RADZ FG BKN001\n",
            "         BECMG 1323/1401 22009KT 9999 NSW SCT010 BKN025\n",
            "         TEMPO 1400/1407 BKN010\n",
            "         PROB30 TEMPO 1400/1406 4000 -DZ=\n",
            "TAF EIDW 130500Z 1306/1406 20006KT 9999 FEW018 BKN035\n",
            "         BECMG 1310/1312 14005KT\n",
            "         PROB40 TEMPO 1312/1314 4000 -DZ BKN008\n",
            "         BECMG 1314/1316 13010KT 4000 -DZ SCT003 BKN006\n",
            "         TEMPO 1315/1322 2000 -RADZ BR BKN003\n",
            "         PROB30 TEMPO 1317/1322 0500 RADZ FG BKN001\n",
            "         BECMG 1322/1324 23009KT 9999 NSW SCT010 BKN025\n",
            "         TEMPO 1400/1406 BKN010\n",
            "         PROB30 TEMPO 1400/1406 4000 -DZ=\n",
            "TAF EIDW 122300Z 1300/1324 24008KT 9999 FEW018 SCT030\n",
            "         BECMG 1302/1304 21007KT\n",
            "         BECMG 1309/1311 15005KT\n",
            "         BECMG 1312/1314 6000 -DZ SCT005 BKN010\n",
            "         BECMG 1314/1316 13010KT 4000 SCT003 BKN006\n",
            "         TEMPO 1314/1321 2000 -RADZ BR BKN003\n",
            "         PROB40 TEMPO 1317/1321 0500 RADZ FG BKN001\n",
            "         BECMG 1320/1322 23009KT 9999 NSW SCT010 BKN025=\n",
            "TAF EIDW 121700Z 1218/1318 23012KT 9999 FEW015 SCT025\n",
            "         PROB30 TEMPO 1218/1219 24015G26KT\n",
            "         BECMG 1302/1304 21007KT\n",
            "         BECMG 1311/1313 13008KT\n",
            "         PROB30 TEMPO 1312/1314 4000 -RA BKN010\n",
            "         BECMG 1313/1315 4000 -RADZ BKN010\n",
            "         PROB40 TEMPO 1314/1318 2000 -DZ BR BKN005\n",
            "         PROB30 TEMPO 1315/1318 0800 FG BKN001=\n",
            "TAF EIDW 121100Z 1212/1312 23012KT 9999 FEW015\n",
            "         PROB40 TEMPO 1212/1219 24015G26KT\n",
            "         BECMG 1300/1302 22006KT\n",
            "         BECMG 1307/1309 14006KT -RA\n",
            "         PROB30 TEMPO 1311/1312 3000 -RADZ BKN009=\n",
            "TAF EIDW 120500Z 1206/1306 24011KT 9999 FEW018 SCT030\n",
            "         TEMPO 1212/1221 25016G28KT\n",
            "         PROB30 TEMPO 1212/1221 -SHRA FEW018CB\n",
            "         BECMG 1302/1304 21006KT=\n",
            "TAF EIDW 112300Z 1200/1224 24006KT 9999 FEW018 SCT030\n",
            "         BECMG 1200/1202 24011KT\n",
            "         TEMPO 1212/1219 25016G28KT\n",
            "         PROB30 TEMPO 1212/1219 -SHRA BKN012=\n",
            "TAF EIDW 111700Z 1118/1218 25011KT 9999 FEW018 SCT030\n",
            "         PROB30 TEMPO 1118/1121 -SHRA FEW018CB\n",
            "         PROB30 TEMPO 1200/1206 25015G25KT\n",
            "         BECMG 1211/1213 24016KT\n",
            "         TEMPO 1213/1218 25018G28KT=\n",
            "TAF EIDW 111100Z 1112/1212 28012KT 9999 FEW018 SCT030\n",
            "         PROB40 TEMPO 1112/1116 27015G25KT -SHRA FEW018CB\n",
            "         BECMG 1117/1119 25010KT\n",
            "         PROB30 TEMPO 1200/1203 25015G25KT -SHRA FEW018CB\n",
            "         PROB30 TEMPO 1210/1212 24015G25KT=\n",
            "TAF EIDW 110500Z 1106/1206 26006KT 9999 FEW018 SCT030\n",
            "         TEMPO 1106/1108 2000 BR SCT003 BKN005\n",
            "         PROB30 TEMPO 1106/1107 0600 FG BKN003\n",
            "         BECMG 1110/1112 26011KT\n",
            "         PROB30 TEMPO 1112/1115 27015G25KT -SHRA FEW018CB\n",
            "         BECMG 1201/1203 23012KT=\n",
            "TAF AMD EIDW 110106Z 1101/1124 26006KT 9999 FEW018 SCT030\n",
            "         TEMPO 1101/1107 0600 FG BKN002\n",
            "         PROB40 TEMPO 1101/1107 3000 BR BKN005\n",
            "         PROB30 TEMPO 1101/1107 0200 FG BKN001\n",
            "         BECMG 1112/1114 27013KT\n",
            "         PROB30 TEMPO 1112/1115 26015G25KT -SHRA FEW018CB\n",
            "         BECMG 1118/1120 24011KT=\n",
            "TAF AMD EIDW 110106Z 1101/1124 26006KT 9999 FEW018 SCT030\n",
            "         TEMPO 1101/1107 0600 FG BKN002\n",
            "         PROB40 TEMPO 1101/1107 3000 BR BKN005\n",
            "         PROB30 TEMPO 1101/1107 0200 FG BKN001\n",
            "         BECMG 1112/1114 27013KT\n",
            "         PROB30 TEMPO 1112/1115 26015G25KT -SHRA FEW018CB\n",
            "         BECMG 1118/1120 24011KT=\n",
            "TAF AMD EIDW 102232Z 1022/1118 VRB03KT 9999 FEW012 SCT030\n",
            "         TEMPO 1022/1108 3000 BR FEW001 BKN005\n",
            "         PROB40 TEMPO 1022/1106 0800 FG BKN002\n",
            "         BECMG 1100/1102 27008KT\n",
            "         BECMG 1107/1109 26013KT\n",
            "         PROB30 TEMPO 1112/1117 26014G25KT=\n",
            "TAF EIDW 101700Z 1018/1118 06007KT 9999 FEW012 SCT030\n",
            "         BECMG 1018/1020 03007KT\n",
            "         TEMPO 1018/1104 -SHRA BKN012 FEW018CB\n",
            "         PROB30 TEMPO 1018/1022 4000 SHRA\n",
            "         BECMG 1020/1022 33005KT\n",
            "         PROB40 TEMPO 1022/1108 3000 BR BKN004\n",
            "         BECMG 1100/1102 27008KT\n",
            "         BECMG 1107/1109 26013KT\n",
            "         PROB30 TEMPO 1112/1117 26014G25KT=\n",
            "TAF EIDW 101100Z 1012/1112 12010KT 9999 FEW012 SCT018\n",
            "         TEMPO 1012/1104 -SHRA BKN012 FEW018CB\n",
            "         BECMG 1016/1018 06008KT\n",
            "         PROB30 TEMPO 1016/1022 4000 SHRA\n",
            "         BECMG 1018/1020 02007KT\n",
            "         BECMG 1021/1023 33005KT\n",
            "         PROB40 TEMPO 1022/1107 3000 BR BKN004\n",
            "         BECMG 1101/1103 28007KT\n",
            "         BECMG 1104/1106 26012KT\n",
            "         PROB40 TEMPO 1110/1112 26015G25KT=\n",
            "TAF AMD EIDW 100934Z 1009/1106 VRB03KT 9999 -SHRA BKN009 FEW018CB\n",
            "          BECMG 1009/1011 14010KT NSW FEW012 SCT018\n",
            "         TEMPO 1011/1103 -SHRA BKN012 FEW018CB\n",
            "         PROB30 TEMPO 1017/1023 4000 SHRA\n",
            "         BECMG 1018/1020 08005KT\n",
            "         BECMG 1020/1022 35008KT\n",
            "         PROB30 TEMPO 1023/1106 3000 BR BKN004\n",
            "         BECMG 1101/1103 28010KT=\n",
            "TAF EIDW 100500Z 1006/1106 VRB03KT 9999 FEW010\n",
            "         PROB30 TEMPO 1006/1008 3000 -RADZ BR BKN005\n",
            "         BECMG 1008/1010 14010KT\n",
            "         TEMPO 1009/1103 -SHRA BKN012 FEW018CB\n",
            "         PROB30 TEMPO 1017/1023 4000 SHRA\n",
            "         BECMG 1018/1020 08005KT\n",
            "         BECMG 1020/1022 35008KT\n",
            "         PROB30 TEMPO 1023/1106 3000 BR BKN004\n",
            "         BECMG 1101/1103 28010KT=\n",
            "TAF EIDW 092300Z 1000/1024 13007KT 9999 SCT015 BKN040\n",
            "         PROB40 TEMPO 1000/1008 VRB03KT 3000 -RADZ BR BKN005\n",
            "         PROB30 TEMPO 1001/1005 0500 FG BKN001\n",
            "         TEMPO 1009/1024 -SHRA BKN012 FEW018CB\n",
            "         BECMG 1019/1021 35008KT\n",
            "         PROB30 TEMPO 1020/1024 4000 SHRA=\n",
            "TAF AMD EIDW 092113Z 0921/1018 VRB03KT 9999 SCT007 BKN011\n",
            "         BECMG 0921/0923 FEW015 SCT020\n",
            "         PROB40 TEMPO 0922/1008 3000 -RADZ BR BKN005\n",
            "         PROB30 TEMPO 1001/1005 0500 FG BKN001\n",
            "         BECMG 1007/1009 12010KT\n",
            "         PROB30 TEMPO 1009/1018 4000 -SHRA BKN012 FEW018CB\n",
            "         BECMG 1017/1018 08005KT=\n",
            "TAF AMD EIDW 091937Z 0919/1018 VRB03KT 9999 SCT007 BKN011\n",
            "         TEMPO 0919/0922 3000 -RADZ BR BKN006\n",
            "         BECMG 0922/0924 FEW015 SCT020\n",
            "         PROB40 TEMPO 0922/1008 3000 -RADZ BR BKN005\n",
            "         PROB30 TEMPO 1001/1005 0500 FG BKN001\n",
            "         BECMG 1007/1009 12010KT\n",
            "         PROB30 TEMPO 1009/1018 4000 -SHRA BKN012 FEW018CB\n",
            "         BECMG 1017/1018 08005KT=\n",
            "TAF EIDW 091700Z 0918/1018 VRB03KT 8000 FEW006 BKN009\n",
            "         TEMPO 0918/0922 3000 -RADZ BR BKN005\n",
            "         BECMG 0922/0924 FEW015 BKN020\n",
            "         PROB40 TEMPO 0922/1008 3000 -RADZ BR BKN005\n",
            "         PROB30 TEMPO 1001/1005 0500 FG BKN001\n",
            "         BECMG 1007/1009 12010KT\n",
            "         PROB30 TEMPO 1009/1018 4000 -SHRA BKN012 FEW018CB\n",
            "         BECMG 1017/1018 08005KT=\n",
            "TAF EIDW 091100Z 0912/1012 05008KT 7000 FEW006 BKN009\n",
            "         PROB40 TEMPO 0912/0916 3000 -RADZ BR BKN004\n",
            "         BECMG 0917/0919 VRB03KT BKN015\n",
            "         TEMPO 0917/1008 3000 -RADZ BR BKN005\n",
            "         PROB30 TEMPO 1001/1006 0500 FG BKN001\n",
            "         BECMG 1009/1011 12010KT\n",
            "         PROB30 TEMPO 1009/1012 -SHRA BKN012 FEW018CB=\n",
            "TAF AMD EIDW 091034Z 0910/1006 07010KT 8000 -RA FEW006 BKN008\n",
            "         PROB40 TEMPO 0910/0914 2500 -RADZ BR BKN003\n",
            "         BECMG 0912/0914 35005KT BKN015\n",
            "         TEMPO 0914/0917 27010KT\n",
            "         BECMG 0916/0918 3000 -RADZ BR BKN003\n",
            "         BECMG 0922/0924 15005KT\n",
            "         PROB40 TEMPO 1001/1006 0500 FG BKN000=\n",
            "TAF EIDW 090500Z 0906/1006 08016KT 8000 -RA SCT005 BKN007\n",
            "         TEMPO 0906/0910 1500 -RADZ BR BKN003\n",
            "         PROB40 TEMPO 0910/0914 1500 -RADZ BR BKN003\n",
            "         BECMG 0912/0914 35005KT BKN015\n",
            "         TEMPO 0914/0917 27010KT\n",
            "         BECMG 0916/0918 3000 -RADZ BR BKN003\n",
            "         BECMG 0922/0924 15005KT\n",
            "         PROB40 TEMPO 1001/1006 0500 FG BKN000=\n",
            "TAF EIDW 082300Z 0900/0924 09015KT 5000 -RA SCT005 BKN010\n",
            "         TEMPO 0900/0910 1500 -RADZ BR BKN003\n",
            "         BECMG 0906/0908 04010KT\n",
            "         PROB40 TEMPO 0910/0914 1500 -RADZ BR BKN003\n",
            "         BECMG 0912/0914 VRB03KT BKN015\n",
            "         TEMPO 0914/0917 27010KT\n",
            "         BECMG 0916/0918 2000 -RADZ BR BKN002=\n",
            "TAF EIDW 081700Z 0818/0918 07012KT 3000 -RA BR BKN005\n",
            "         TEMPO 0818/0821 1500 BKN003\n",
            "         PROB40 TEMPO 0818/0821 0800 FG BKN001\n",
            "         BECMG 0821/0823 08015G25KT 6000 NSW BKN010\n",
            "         TEMPO 0821/0917 3000 -RADZ BKN005\n",
            "         BECMG 0905/0907 05013KT\n",
            "         BECMG 0908/0910 02010KT\n",
            "         PROB30 TEMPO 0910/0914 1500 DZ BR BKN003\n",
            "         BECMG 0910/0912 27010KT\n",
            "         BECMG 0916/0918 24008KT BKN020=\n",
            "TAF AMD EIDW 081418Z 0814/0912 09015KT 3000 -RA BR BKN005\n",
            "         TEMPO 0814/0821 1500 BKN003\n",
            "         BECMG 0815/0817 05010KT\n",
            "         PROB40 TEMPO 0817/0821 0800 FG BKN001\n",
            "         BECMG 0821/0823 08015G25KT 6000 NSW BKN010\n",
            "         TEMPO 0821/0912 3000 -RADZ BKN005\n",
            "         BECMG 0904/0906 05013KT\n",
            "         TEMPO 0904/0908 05015G25KT\n",
            "         BECMG 0908/0910 02010KT\n",
            "         PROB30 TEMPO 0908/0912 1500 DZ BR BKN003\n",
            "         BECMG 0910/0912 27010KT=\n",
            "TAF AMD EIDW 081215Z 0812/0912 09015KT 9999 -RA BKN010\n",
            "         TEMPO 0812/0912 1500 -RADZ BR BKN003\n",
            "         BECMG 0815/0817 05010KT\n",
            "         PROB40 TEMPO 0817/0821 0800 FG BKN001\n",
            "         BECMG 0821/0823 08015G25KT\n",
            "         TEMPO 0821/0912 2000 -RADZ BR BKN005\n",
            "         BECMG 0904/0906 05013KT\n",
            "         TEMPO 0904/0908 05015G25KT\n",
            "         BECMG 0908/0910 02010KT\n",
            "         PROB30 TEMPO 0908/0912 1500 DZ BR BKN003\n",
            "         BECMG 0910/0912 27010KT=\n",
            "TAF AMD EIDW 081141Z 0812/0912 09015KT 9999 -RA BKN010\n",
            "         TEMPO 0812/0912 2000 -RADZ BKN005\n",
            "         PROB40 TEMPO 0812/0821 1500 DZ BR BKN003\n",
            "         BECMG 0815/0817 05010KT\n",
            "         BECMG 0821/0823 08015G25KT\n",
            "         BECMG 0904/0906 05013KT\n",
            "         TEMPO 0904/0908 05015G25KT\n",
            "         BECMG 0908/0910 02010KT\n",
            "         PROB30 TEMPO 0908/0912 1500 DZ BR BKN003\n",
            "         BECMG 0910/0912 27010KT=\n",
            "TAF EIDW 081100Z 0812/0912 09015KT 9999 -RA BKN010\n",
            "         TEMPO 0812/0912 2000 -RADZ BKN005\n",
            "         BECMG 0815/0817 05010KT\n",
            "         PROB30 TEMPO 0816/0821 1500 DZ BR BKN003\n",
            "         BECMG 0821/0823 08015G25KT\n",
            "         BECMG 0904/0906 05013KT\n",
            "         TEMPO 0904/0908 05015G25KT\n",
            "         BECMG 0908/0910 02010KT\n",
            "         PROB30 TEMPO 0908/0912 1500 DZ BR BKN003\n",
            "         BECMG 0910/0912 27010KT=\n",
            "TAF AMD EIDW 081021Z 0810/0906 09020KT 9999 BKN020\n",
            "         TEMPO 0810/0812 10020G30KT 4000 -RA BKN007\n",
            "         BECMG 0812/0814 08013KT\n",
            "         TEMPO 0812/0906 2000 -RADZ BKN006\n",
            "         BECMG 0815/0817 05010KT\n",
            "         BECMG 0821/0823 09015G25KT=\n",
            "TAF EIDW 080500Z 0806/0906 09015G25KT 9999 -RA BKN020\n",
            "         TEMPO 0806/0812 10020G30KT 3000 RA BKN010\n",
            "         PROB30 0806/0809 1500 RASN BKN004\n",
            "         BECMG 0812/0814 08013KT\n",
            "         TEMPO 0812/0906 2000 -RADZ BKN006\n",
            "         BECMG 0815/0817 05010KT\n",
            "         BECMG 0821/0823 09015G25KT=\n",
            "TAF EIDW 072300Z 0800/0824 09010KT 9999 FEW015 BKN030\n",
            "         BECMG 0800/0802 10015G25KT\n",
            "         BECMG 0804/0806 -RA BKN010\n",
            "         TEMPO 0805/0812 10020G30KT 3000 RA BKN006\n",
            "         PROB30 0806/0809 1500 RASN BKN004\n",
            "         BECMG 0812/0814 08013KT\n",
            "         TEMPO 0812/0824 2000 -RADZ BKN006\n",
            "         BECMG 0815/0817 05010KT\n",
            "         BECMG 0821/0823 09015G25KT=\n",
            "TAF AMD EIDW 072119Z 0721/0818 09008KT 9999 FEW015\n",
            "         BECMG 0800/0802 09013KT\n",
            "         BECMG 0804/0806 10015G25KT -RA BKN010\n",
            "         TEMPO 0806/0812 10020G30KT 3000 RA BKN006\n",
            "         TEMPO 0812/0818 2000 -RADZ BKN006\n",
            "         BECMG 0813/0815 04008KT=\n",
            "TAF EIDW 071700Z 0718/0818 03006KT 9999 FEW015\n",
            "         BECMG 0722/0724 09008KT\n",
            "         BECMG 0800/0802 09013KT\n",
            "         BECMG 0804/0806 10015G25KT -RA BKN010\n",
            "         TEMPO 0806/0812 10020G30KT 3000 RA BKN006\n",
            "         TEMPO 0812/0818 2000 -RADZ BKN006\n",
            "         BECMG 0813/0815 04008KT=\n",
            "TAF EIDW 071100Z 0712/0812 36005KT 9999 FEW015\n",
            "         BECMG 0712/0714 03006KT\n",
            "         BECMG 0716/0718 VRB03KT\n",
            "         BECMG 0722/0724 06007KT\n",
            "         BECMG 0800/0802 09013KT\n",
            "         BECMG 0803/0805 10015G25KT -RA\n",
            "         TEMPO 0809/0812 10020G30KT 3000 RA BKN007=\n",
            "TAF EIDW 070500Z 0706/0806 29005KT CAVOK\n",
            "         BECMG 0711/0713 01006KT\n",
            "         BECMG 0716/0718 VRB03KT\n",
            "         BECMG 0800/0802 09012KT\n",
            "         BECMG 0803/0805 10015G25KT -RA=\n",
            "TAF EIDW 062300Z 0700/0724 31005KT CAVOK\n",
            "         BECMG 0711/0713 01006KT\n",
            "         BECMG 0716/0718 VRB03KT=\n",
            "TAF EIDW 061700Z 0618/0718 32005KT 9999 FEW012 SCT045\n",
            "         BECMG 0710/0712 01006KT=\n",
            "TAF EIDW 061100Z 0612/0712 30007KT 9999 FEW012 BKN030\n",
            "         TEMPO 0612/0613 -RA BKN012\n",
            "         BECMG 0703/0705 27005KT\n",
            "         BECMG 0709/0711 01005KT=\n",
            "TAF EIDW 060500Z 0606/0706 24015G25KT 7000 -RA BKN012\n",
            "         BECMG 0608/0610 35010KT BKN020\n",
            "         TEMPO 0608/0611 33015G25KT 4000 RA BKN007\n",
            "         BECMG 0610/0612 30008KT\n",
            "         BECMG 0700/0702 27005KT=\n",
            "TAF EIDW 052300Z 0600/0624 24015G25KT 9999 FEW012 BKN020\n",
            "         TEMPO 0600/0605 -DZ BKN012\n",
            "         BECMG 0605/0607 -RA BKN012\n",
            "         BECMG 0608/0610 35010KT BKN018\n",
            "         PROB40 TEMPO 0609/0611 33015G25KT 4000 RA BKN008\n",
            "         BECMG 0610/0612 30008KT=\n",
            "TAF EIDW 051700Z 0518/0618 24015G25KT 9999 FEW015 BKN028\n",
            "         TEMPO 0518/0609 25017G30KT\n",
            "         PROB30 TEMPO 0518/0522 23020G35KT\n",
            "         PROB30 TEMPO 0518/0605 -DZ BKN012\n",
            "         BECMG 0605/0607 -RA BKN012\n",
            "         BECMG 0608/0610 35010KT BKN018\n",
            "         PROB40 TEMPO 0608/0610 33015G25KT 4000 RA BKN008\n",
            "         BECMG 0610/0612 30008KT=\n",
            "TAF EIDW 051100Z 0512/0612 24015G25KT 9999 FEW015 BKN025\n",
            "         PROB40 TEMPO 0512/0609 24017G30KT\n",
            "         PROB30 TEMPO 0512/0522 23020G35KT\n",
            "         PROB30 TEMPO 0512/0605 -DZ BKN012\n",
            "         BECMG 0605/0607 -RA BKN012\n",
            "         BECMG 0608/0610 35010KT BKN018\n",
            "         PROB40 TEMPO 0608/0610 33015G25KT 4000 RA BKN008=\n",
            "TAF EIDW 050500Z 0506/0606 25015G26KT 9999 FEW015 BKN025\n",
            "         PROB30 TEMPO 0506/0606 4500 -DZ BKN012\n",
            "         TEMPO 0510/0520 25020G35KT=\n",
            "TAF EIDW 042300Z 0500/0524 25015G26KT 9999 SCT020 BKN025\n",
            "         PROB40 TEMPO 0511/0517 25020G35KT -DZ BKN012=\n",
            "TAF EIDW 041700Z 0418/0518 25018G31KT 9999 SCT020 BKN025\n",
            "         PROB40 TEMPO 0511/0518 25022G37KT -DZ BKN012=\n",
            "TAF EIDW 041100Z 0412/0512 25015G25KT 9999 FEW012 BKN018\n",
            "         TEMPO 0412/0512 25018G30KT -DZ BKN011\n",
            "         PROB40 TEMPO 0412/0417 26022G38KT BKN009=\n",
            "TAF EIDW 040500Z 0406/0506 25010KT 9999 SCT010 BKN015\n",
            "         TEMPO 0406/0410 BKN010\n",
            "         PROB40 TEMPO 0406/0408 27015G25KT 4000 -RADZ BKN005\n",
            "         BECMG 0408/0410 26018G30KT\n",
            "         TEMPO 0410/0417 26022G38KT\n",
            "         PROB40 TEMPO 0410/0424 BKN010=\n",
            "TAF EIDW 032300Z 0400/0424 25009KT 9999 SCT009 BKN015\n",
            "         TEMPO 0400/0409 BKN009\n",
            "         PROB30 TEMPO 0405/0408 27015G25KT 4000 -RADZ BKN004\n",
            "         BECMG 0408/0410 26018G30KT\n",
            "         TEMPO 0410/0418 26022G38KT=\n",
            "TAF EIDW 031700Z 0318/0418 26012KT 9999 SCT010 BKN020\n",
            "         PROB40 TEMPO 0403/0410 4000 -RADZ BKN007\n",
            "         BECMG 0408/0410 26020G35KT=\n",
            "TAF AMD EIDW 031138Z 0312/0412 26012KT 9999 SCT010 BKN018\n",
            "         TEMPO 0312/0314 -DZ BKN008\n",
            "         PROB40 TEMPO 0402/0408 4000 -RADZ BKN009\n",
            "         BECMG 0408/0410 26020G35KT=\n",
            "TAF EIDW 031100Z 0312/0412 26012KT 9999 SCT010 BKN018\n",
            "         PROB40 TEMPO 0402/0408 4000 -RADZ BKN009\n",
            "         BECMG 0408/0410 26020G35KT=\n",
            "TAF EIDW 030500Z 0306/0406 26012KT 9999 SCT010 BKN018\n",
            "         TEMPO 0306/0308 26015G25KT BKN010\n",
            "         PROB40 TEMPO 0402/0406 26015G25KT 4000 -RADZ BKN009=\n",
            "TAF EIDW 022300Z 0300/0324 24010KT 9999 SCT006 BKN018\n",
            "         TEMPO 0300/0306 26015G25KT\n",
            "         TEMPO 0300/0303 3000 -RADZ BKN006\n",
            "         PROB40 TEMPO 0303/0307 BKN012\n",
            "         PROB30 TEMPO 0319/0324 26015G25KT=\n",
            "TAF EIDW 021700Z 0218/0318 25013KT 9999 SCT009 BKN018\n",
            "         TEMPO 0218/0306 26017G28KT\n",
            "         PROB40 TEMPO 0218/0224 4000 -RADZ BKN009\n",
            "         PROB30 TEMPO 0300/0303 27020G33KT\n",
            "         PROB30 TEMPO 0301/0307 BKN012\n",
            "         BECMG 0307/0309 26008KT\n",
            "         BECMG 0312/0314 26013KT=\n",
            "TAF EIDW 021100Z 0212/0312 25013KT 9999 SCT010 BKN018\n",
            "         TEMPO 0212/0306 26017G28KT\n",
            "         TEMPO 0212/0301 BKN010\n",
            "         PROB40 TEMPO 0217/0224 4000 -RADZ BKN007\n",
            "         PROB30 TEMPO 0300/0303 27020G33KT\n",
            "         PROB30 TEMPO 0301/0309 BKN012\n",
            "         BECMG 0307/0309 26008KT\n",
            "         TEMPO 0309/0312 4000 -RADZ BKN007=\n",
            "TAF EIDW 020500Z 0206/0306 24012KT 9999 SCT010 BKN018\n",
            "         TEMPO 0206/0224 25017G28KT\n",
            "         TEMPO 0206/0301 BKN010\n",
            "         PROB40 TEMPO 0218/0301 4000 -RADZ BKN007\n",
            "         BECMG 0300/0302 27016KT\n",
            "         TEMPO 0300/0304 27020G32KT\n",
            "         PROB30 TEMPO 0301/0306 BKN012\n",
            "         BECMG 0304/0306 27010KT=\n",
            "TAF AMD EIDW 020130Z 0201/0224 24013KT 9999 SCT010 BKN018\n",
            "         TEMPO 0201/0224 25017G28KT\n",
            "         TEMPO 0201/0203 -DZ BKN008\n",
            "         TEMPO 0203/0224 BKN010\n",
            "         PROB40 TEMPO 0218/0224 4000 -RADZ BKN007=\n",
            "TAF AMD EIDW 020130Z 0201/0224 24013KT 9999 SCT010 BKN018\n",
            "         TEMPO 0201/0224 25017G28KT\n",
            "         TEMPO 0201/0203 -DZ BKN008\n",
            "         TEMPO 0203/0224 BKN010\n",
            "         PROB40 TEMPO 0218/0224 4000 -RADZ BKN007=\n",
            "TAF EIDW 011700Z 0118/0218 23012KT 9999 SCT032\n",
            "         TEMPO 0118/0218 24015G28KT -RADZ BKN012\n",
            "         PROB40 TEMPO 0121/0124 3000 -RADZ BKN005=\n",
            "TAF EIDW 011100Z 0112/0212 22007KT 9999 SCT032\n",
            "         BECMG 0113/0115 22013KT\n",
            "         TEMPO 0119/0212 -DZ BKN012\n",
            "         TEMPO 0119/0122 23016G27KT\n",
            "         PROB40 TEMPO 0121/0124 3000 -RADZ BKN005\n",
            "         BECMG 0122/0124 25013KT\n",
            "         TEMPO 0122/0212 25018G30KT BKN012=\n",
            "TAF EIDW 010500Z 0106/0206 25008KT 9999 FEW015 BKN030\n",
            "         BECMG 0113/0115 24013KT\n",
            "         TEMPO 0119/0206 26016G27KT -DZ BKN010\n",
            "         PROB40 TEMPO 0121/0124 3000 -RADZ BKN005=\n"
          ]
        }
      ]
    },
    {
      "cell_type": "markdown",
      "source": [
        "THIS CODE BELOW WORKS FOR INDIVIDUAL DATA SCRAPING FROM THE LIST OF LINKS THAT I HAVE STORED ON LAPTOP"
      ],
      "metadata": {
        "id": "j6RBcCBPgdmv"
      }
    },
    {
      "cell_type": "code",
      "source": [
        "import requests\n",
        "from bs4 import BeautifulSoup\n",
        "\n",
        "# URL for 2023 METAR data\n",
        "url = \"https://www.ogimet.com/display_metars2.php?lang=en&lugar=EIDW&tipo=ALL&ord=DIR&nil=SI&fmt=html&ano=2024&mes=12&day=01&hora=00&anof=2024&mesf=12&dayf=31&horaf=23&minf=59&send=send\"\n",
        "headers = {\n",
        "    \"User-Agent\": \"Mozilla/5.0 (Windows NT 10.0; Win64; x64) AppleWebKit/537.36 (KHTML, like Gecko) Chrome/120.0.0.0 Safari/537.36\"\n",
        "}\n",
        "\n",
        "# Make the request with headers\n",
        "response = requests.get(url, headers=headers)\n",
        "\n",
        "# Parse the page content\n",
        "soup = BeautifulSoup(response.text, 'html.parser')\n",
        "\n",
        "# Extract METAR strings from <pre> tags\n",
        "metar_strings = [td.get_text().strip() for td in soup.find_all('pre')]\n",
        "\n",
        "# Verify scraped METARs\n",
        "print(f\"Total METARs found: {len(metar_strings)}\")\n",
        "print(\"First few METARs:\", metar_strings[:5])\n",
        "\n",
        "\n"
      ],
      "metadata": {
        "colab": {
          "base_uri": "https://localhost:8080/"
        },
        "id": "e-x4SS2pjS_Y",
        "outputId": "319fd961-f87c-497f-9e72-94e60de8e7bd"
      },
      "execution_count": null,
      "outputs": [
        {
          "output_type": "stream",
          "name": "stdout",
          "text": [
            "Total METARs found: 1640\n",
            "First few METARs: ['METAR EIDW 010000Z 18012KT 9999 FEW006 SCT012 BKN018 14/11 Q1008 NOSIG=', 'METAR EIDW 010030Z 17009KT 9999 FEW006 SCT012 BKN018 14/11 Q1007 NOSIG=', 'METAR EIDW 010100Z 17008KT 140V200 9999 FEW006 SCT012 BKN018 13/11 Q1007 NOSIG=', 'METAR EIDW 010130Z 19008KT 150V240 9999 -DZ FEW006 SCT012 BKN018 13/11 Q1007 NOSIG=', 'METAR EIDW 010200Z 20008KT 9999 FEW006 SCT012 BKN018 13/11 Q1007 NOSIG=']\n"
          ]
        }
      ]
    },
    {
      "cell_type": "code",
      "source": [
        "import numpy as np\n",
        "\n",
        "def calculate_humidity(temp, dew_point):\n",
        "    if temp == \"N/A\" or dew_point == \"N/A\":\n",
        "        return \"N/A\"\n",
        "    return round(100 * (np.exp((17.625 * dew_point) / (243.04 + dew_point)) / np.exp((17.625 * temp) / (243.04 + temp))), 2)\n"
      ],
      "metadata": {
        "id": "GU8YWLozwfIw"
      },
      "execution_count": null,
      "outputs": []
    },
    {
      "cell_type": "code",
      "source": [
        "import pandas as pd\n",
        "from metar import Metar  # Ensure you have `metar` installed via pip\n",
        "\n",
        "data = []\n",
        "\n",
        "for metar_string in metar_strings:\n",
        "    try:\n",
        "        metar = Metar.Metar(metar_string)  # Parse METAR data\n",
        "        data.append({\n",
        "            \"Station\": metar.station_id,\n",
        "            \"Observation Time\": metar.time.strftime('%Y-%m-%d %H:%M:%S') if metar.time else \"N/A\",\n",
        "            \"Wind Speed (KT)\": metar.wind_speed.value(\"KT\") if metar.wind_speed else \"N/A\",\n",
        "            \"Visibility (m)\": metar.vis.value(\"m\") if metar.vis else \"N/A\",\n",
        "            \"Temperature (C)\": metar.temp.value(\"C\") if metar.temp else \"N/A\",\n",
        "            \"Dew Point (C)\": metar.dewpt.value(\"C\") if metar.dewpt else \"N/A\",\n",
        "            \"Pressure (hPa)\": metar.press.value(\"hPa\") if metar.press else \"N/A\",\n",
        "            \"Humidity (%)\": calculate_humidity(metar.temp.value(\"C\"), metar.dewpt.value(\"C\")),        })\n",
        "    except Exception as e:\n",
        "        print(\"Error parsing METAR:\", e)\n",
        "\n",
        "# Convert structured METAR data to DataFrame\n",
        "df = pd.DataFrame(data)\n",
        "df.to_csv(\"December_Metar.csv\", index=False)\n",
        "# Display first few rows to verify\n",
        "print(df.head())\n",
        "\n"
      ],
      "metadata": {
        "colab": {
          "base_uri": "https://localhost:8080/"
        },
        "id": "j83GuH_5kKLA",
        "outputId": "3aeb4d27-ff7f-4b39-f5ba-b8e05bf68247"
      },
      "execution_count": null,
      "outputs": [
        {
          "output_type": "stream",
          "name": "stdout",
          "text": [
            "Error parsing METAR: Unparsed groups in body 'TAF 0106/0206 PROB30 0108/0116 -SHRA BKN012 0109/0111 23012KT 0121/0123 28012KT 0122/0206 -SHRA BKN012 0200/0206 31015G25KT' while processing 'TAF EIDW 010500Z 0106/0206 20005KT 9999 FEW005 SCT018\n",
            "         PROB30 TEMPO 0108/0116 -SHRA BKN012\n",
            "         BECMG 0109/0111 23012KT\n",
            "         BECMG 0121/0123 28012KT\n",
            "         TEMPO 0122/0206 -SHRA BKN012\n",
            "         TEMPO 0200/0206 31015G25KT='\n",
            "Error parsing METAR: Unparsed groups in body 'TAF 0112/0212 PROB30 0112/0115 -SHRA BKN012 0115/0118 -SHRA BKN012 FEW020CB 0116/0118 26012KT 0120/0201 27015G26KT -SHRA BKN012 0200/0202 30014KT 0201/0205 30015G26KT PROB30 0201/0204 -SHRA BKN012 PROB30 0209/0212 31014G25KT' while processing 'TAF EIDW 011100Z 0112/0212 23012KT 9999 FEW012 BKN025\n",
            "         PROB30 TEMPO 0112/0115 -SHRA BKN012\n",
            "         TEMPO 0115/0118 -SHRA BKN012 FEW020CB\n",
            "         BECMG 0116/0118 26012KT\n",
            "         TEMPO 0120/0201 27015G26KT -SHRA BKN012\n",
            "         BECMG 0200/0202 30014KT\n",
            "         TEMPO 0201/0205 30015G26KT\n",
            "         PROB30 TEMPO 0201/0204 -SHRA BKN012\n",
            "         PROB30 TEMPO 0209/0212 31014G25KT='\n",
            "Error parsing METAR: Unparsed groups in body 'TAF 0118/0218 0120/0201 27015G26KT -SHRA BKN012 0200/0202 30014KT 0201/0205 30015G26KT PROB30 0201/0204 -SHRA BKN012 PROB30 0209/0212 31014G25KT 0213/0215 30009KT' while processing 'TAF EIDW 011700Z 0118/0218 26012KT 9999 FEW012 BKN025\n",
            "         TEMPO 0120/0201 27015G26KT -SHRA BKN012\n",
            "         BECMG 0200/0202 30014KT\n",
            "         TEMPO 0201/0205 30015G26KT\n",
            "         PROB30 TEMPO 0201/0204 -SHRA BKN012\n",
            "         PROB30 TEMPO 0209/0212 31014G25KT\n",
            "         BECMG 0213/0215 30009KT='\n",
            "Error parsing METAR: Unparsed groups in body 'TAF AMD 0118/0218 0118/0201 -SHRA BKN012 0120/0201 27015G26KT 0200/0202 30014KT 0201/0205 30015G26KT PROB30 0201/0204 -SHRA BKN012 PROB30 0209/0212 31014G25KT 0213/0215 30009KT' while processing 'TAF AMD EIDW 011805Z 0118/0218 26012KT 9999 FEW012 BKN025\n",
            "         TEMPO 0118/0201 -SHRA BKN012\n",
            "         TEMPO 0120/0201 27015G26KT\n",
            "         BECMG 0200/0202 30014KT\n",
            "         TEMPO 0201/0205 30015G26KT\n",
            "         PROB30 TEMPO 0201/0204 -SHRA BKN012\n",
            "         PROB30 TEMPO 0209/0212 31014G25KT\n",
            "         BECMG 0213/0215 30009KT='\n",
            "Error parsing METAR: Unparsed groups in body 'TAF AMD 0200/0224 0200/0204 -RA BKN008 0200/0202 30012KT 0200/0206 30015G28KT PROB30 0208/0211 29015G25KT 0216/0218 29007KT 0221/0223 25005KT' while processing 'TAF AMD EIDW 020004Z 0200/0224 27012KT 9999 SCT008 BKN018\n",
            "         TEMPO 0200/0204 -RA BKN008\n",
            "         BECMG 0200/0202 30012KT\n",
            "         TEMPO 0200/0206 30015G28KT\n",
            "         PROB30 TEMPO 0208/0211 29015G25KT\n",
            "         BECMG 0216/0218 29007KT\n",
            "         BECMG 0221/0223 25005KT='\n",
            "Error parsing METAR: Unparsed groups in body 'TAF AMD 0200/0224 0200/0204 -RA BKN008 0200/0202 30012KT 0200/0206 30015G28KT PROB30 0208/0211 29015G25KT 0216/0218 29007KT 0221/0223 25005KT' while processing 'TAF AMD EIDW 020004Z 0200/0224 27012KT 9999 SCT008 BKN018\n",
            "         TEMPO 0200/0204 -RA BKN008\n",
            "         BECMG 0200/0202 30012KT\n",
            "         TEMPO 0200/0206 30015G28KT\n",
            "         PROB30 TEMPO 0208/0211 29015G25KT\n",
            "         BECMG 0216/0218 29007KT\n",
            "         BECMG 0221/0223 25005KT='\n",
            "Error parsing METAR: Unparsed groups in body 'TAF 0206/0306 PROB30 0208/0211 29015G25KT 0216/0218 29007KT 0221/0223 25005KT 0303/0305 VRB03KT' while processing 'TAF EIDW 020500Z 0206/0306 29012KT 9999 FEW015 BKN020\n",
            "         PROB30 TEMPO 0208/0211 29015G25KT\n",
            "         BECMG 0216/0218 29007KT\n",
            "         BECMG 0221/0223 25005KT\n",
            "         BECMG 0303/0305 VRB03KT='\n",
            "Error parsing METAR: Unparsed groups in body 'TAF 0212/0312 PROB40 0212/0214 30015G25KT 0216/0218 29007KT 0221/0223 VRB03KT 0310/0312 16007KT' while processing 'TAF EIDW 021100Z 0212/0312 29012KT 9999 FEW020\n",
            "         PROB40 TEMPO 0212/0214 30015G25KT\n",
            "         BECMG 0216/0218 29007KT\n",
            "         BECMG 0221/0223 VRB03KT\n",
            "         BECMG 0310/0312 16007KT='\n",
            "Error parsing METAR: Unparsed groups in body 'TAF 0218/0318 0222/0224 26006KT 0306/0308 15006KT PROB30 0315/0318 -RA BKN014' while processing 'TAF EIDW 021700Z 0218/0318 29008KT 9999 FEW015\n",
            "         BECMG 0222/0224 26006KT\n",
            "         BECMG 0306/0308 15006KT\n",
            "         PROB30 TEMPO 0315/0318 -RA BKN014='\n",
            "Error parsing METAR: Unparsed groups in body 'TAF 0300/0324 0304/0306 VRB03KT 0307/0309 13006KT 0315/0317 21006KT PROB30 0316/0318 -RA BKN014 0317/0319 24011KT 0318/0320 4000 -RA BKN012 0319/0321 27009KT PROB40 0320/0324 3000 BR BKN006 PROB30 0322/0324 0500 FG BKN001' while processing 'TAF EIDW 022300Z 0300/0324 25005KT 9999 FEW014\n",
            "         BECMG 0304/0306 VRB03KT\n",
            "         BECMG 0307/0309 13006KT\n",
            "         BECMG 0315/0317 21006KT\n",
            "         PROB30 TEMPO 0316/0318 -RA BKN014\n",
            "         BECMG 0317/0319 24011KT\n",
            "         TEMPO 0318/0320 4000 -RA BKN012\n",
            "         BECMG 0319/0321 27009KT\n",
            "         PROB40 TEMPO 0320/0324 3000 BR BKN006\n",
            "         PROB30 TEMPO 0322/0324 0500 FG BKN001='\n",
            "Error parsing METAR: Unparsed groups in body 'TAF 0306/0406 0307/0309 13006KT 0315/0317 21008KT 0317/0319 24011KT 0318/0321 4000 -RA BKN012 0320/0322 27009KT PROB40 0321/0324 3000 BR BKN006 PROB30 0322/0402 0500 FG BKN001 0400/0406 3000 BR BKN003 PROB40 0402/0406 0300 FG BKN001' while processing 'TAF EIDW 030500Z 0306/0406 VRB03KT 9999 FEW018 SCT040\n",
            "         BECMG 0307/0309 13006KT\n",
            "         BECMG 0315/0317 21008KT\n",
            "         BECMG 0317/0319 24011KT\n",
            "         TEMPO 0318/0321 4000 -RA BKN012\n",
            "         BECMG 0320/0322 27009KT\n",
            "         PROB40 TEMPO 0321/0324 3000 BR BKN006\n",
            "         PROB30 TEMPO 0322/0402 0500 FG BKN001\n",
            "         TEMPO 0400/0406 3000 BR BKN003\n",
            "         PROB40 TEMPO 0402/0406 0300 FG BKN001='\n",
            "Error parsing METAR: Unparsed groups in body 'TAF 0312/0412 0318/0320 25010KT 0318/0321 -RA BKN012 0400/0406 3000 BR BKN003 PROB40 0402/0404 0500 FG BKN001 0407/0409 13008KT' while processing 'TAF EIDW 031100Z 0312/0412 VRB03KT 9999 FEW025\n",
            "         BECMG 0318/0320 25010KT\n",
            "         TEMPO 0318/0321 -RA BKN012\n",
            "         TEMPO 0400/0406 3000 BR BKN003\n",
            "         PROB40 0402/0404 0500 FG BKN001\n",
            "         BECMG 0407/0409 13008KT='\n",
            "Error parsing METAR: Unparsed groups in body 'TAF 0318/0418 0318/0320 25010KT 0318/0321 -RA BKN012 0400/0406 3000 BR BKN003 PROB40 0402/0404 0500 FG BKN001 0407/0409 15010KT PROB40 0414/0418 17015G25KT -RA BKN014' while processing 'TAF EIDW 031700Z 0318/0418 19006KT 9999 FEW018 BKN035\n",
            "         BECMG 0318/0320 25010KT\n",
            "         TEMPO 0318/0321 -RA BKN012\n",
            "         TEMPO 0400/0406 3000 BR BKN003\n",
            "         PROB40 0402/0404 0500 FG BKN001\n",
            "         BECMG 0407/0409 15010KT\n",
            "         PROB40 TEMPO 0414/0418 17015G25KT -RA BKN014='\n",
            "Error parsing METAR: Unparsed groups in body 'TAF AMD 0319/0418 0319/0321 4000 -RA BKN012 0323/0408 3000 BR BKN003 PROB40 0400/0405 0500 FG BKN001 0407/0409 15010KT PROB40 0414/0418 17015G25KT -RA BKN014' while processing 'TAF AMD EIDW 031934Z 0319/0418 24010KT 9999 SCT020 BKN025\n",
            "         TEMPO 0319/0321 4000 -RA BKN012\n",
            "         TEMPO 0323/0408 3000 BR BKN003\n",
            "         PROB40 0400/0405 0500 FG BKN001\n",
            "         BECMG 0407/0409 15010KT\n",
            "         PROB40 TEMPO 0414/0418 17015G25KT -RA BKN014='\n",
            "Error parsing METAR: Unparsed groups in body 'TAF AMD 0320/0418 0320/0322 9999 NSW FEW005 BKN016 0322/0408 3000 BR BKN003 PROB40 0400/0405 0500 FG BKN001 0407/0409 15010KT PROB40 0414/0418 17015G25KT -RA BKN014' while processing 'TAF AMD EIDW 032014Z 0320/0418 24010KT 2000 -RA BR BKN005\n",
            "         BECMG 0320/0322 9999 NSW FEW005 BKN016\n",
            "         TEMPO 0322/0408 3000 BR BKN003\n",
            "         PROB40 0400/0405 0500 FG BKN001\n",
            "         BECMG 0407/0409 15010KT\n",
            "         PROB40 TEMPO 0414/0418 17015G25KT -RA BKN014='\n",
            "Error parsing METAR: Unparsed groups in body 'TAF AMD 0404/0424 0405/0407 VRB03KT 0405/0408 2500 BR BKN004 PROB30 0405/0407 0500 FG BKN001 0407/0409 14010KT 0412/0414 17012KT PROB40 0413/0416 4000 RA BKN012 0415/0417 21018G30KT 0417/0420 21020G35KT 0418/0423 -RA BKN012 0420/0422 23015G25KT PROB40 0420/0423 4000 -RADZ BKN008' while processing 'TAF AMD EIDW 040456Z 0404/0424 24005KT 9999 FEW006 BKN020\n",
            "         BECMG 0405/0407 VRB03KT\n",
            "         TEMPO 0405/0408 2500 BR BKN004\n",
            "         PROB30 TEMPO 0405/0407 0500 FG BKN001\n",
            "         BECMG 0407/0409 14010KT\n",
            "         BECMG 0412/0414 17012KT\n",
            "         PROB40 TEMPO 0413/0416 4000 RA BKN012\n",
            "         BECMG 0415/0417 21018G30KT\n",
            "         TEMPO 0417/0420 21020G35KT\n",
            "         TEMPO 0418/0423 -RA BKN012\n",
            "         BECMG 0420/0422 23015G25KT\n",
            "         PROB40 TEMPO 0420/0423 4000 -RADZ BKN008='\n",
            "Error parsing METAR: Unparsed groups in body 'TAF AMD 0404/0424 0405/0407 VRB03KT 0405/0408 2500 BR BKN004 PROB30 0405/0407 0500 FG BKN001 0407/0409 14010KT 0412/0414 17012KT PROB40 0413/0416 4000 RA BKN012 0415/0417 21018G30KT 0417/0420 21020G35KT 0418/0423 -RA BKN012 0420/0422 23015G25KT PROB40 0420/0423 4000 -RADZ BKN008' while processing 'TAF AMD EIDW 040456Z 0404/0424 24005KT 9999 FEW006 BKN020\n",
            "         BECMG 0405/0407 VRB03KT\n",
            "         TEMPO 0405/0408 2500 BR BKN004\n",
            "         PROB30 TEMPO 0405/0407 0500 FG BKN001\n",
            "         BECMG 0407/0409 14010KT\n",
            "         BECMG 0412/0414 17012KT\n",
            "         PROB40 TEMPO 0413/0416 4000 RA BKN012\n",
            "         BECMG 0415/0417 21018G30KT\n",
            "         TEMPO 0417/0420 21020G35KT\n",
            "         TEMPO 0418/0423 -RA BKN012\n",
            "         BECMG 0420/0422 23015G25KT\n",
            "         PROB40 TEMPO 0420/0423 4000 -RADZ BKN008='\n",
            "Error parsing METAR: Unparsed groups in body 'TAF 0406/0506 0406/0407 0300 FG BKN001 0407/0409 14010KT 0412/0414 17012KT PROB40 0413/0416 4000 RA BKN012 0415/0417 21018G30KT 0417/0420 21020G35KT 0418/0423 -RA BKN012 0420/0422 23015G25KT PROB40 0420/0423 4000 -RADZ BKN008 0500/0502 26017G29KT 0504/0506 24013KT' while processing 'TAF EIDW 040500Z 0406/0506 VRB03KT 9999 FEW008 BKN020\n",
            "         TEMPO 0406/0407 0300 FG BKN001\n",
            "         BECMG 0407/0409 14010KT\n",
            "         BECMG 0412/0414 17012KT\n",
            "         PROB40 TEMPO 0413/0416 4000 RA BKN012\n",
            "         BECMG 0415/0417 21018G30KT\n",
            "         TEMPO 0417/0420 21020G35KT\n",
            "         TEMPO 0418/0423 -RA BKN012\n",
            "         BECMG 0420/0422 23015G25KT\n",
            "         PROB40 TEMPO 0420/0423 4000 -RADZ BKN008\n",
            "         BECMG 0500/0502 26017G29KT\n",
            "         BECMG 0504/0506 24013KT='\n",
            "Error parsing METAR: Unparsed groups in body 'TAF 0412/0512 PROB40 0412/0414 4000 -RA BKN012 0415/0417 21018G30KT PROB40 0416/0420 21020G35KT 0418/0423 -RADZ BKN012 PROB40 0419/0422 4000 RADZ BKN008 0420/0422 23015G25KT 0500/0502 26015G25KT 0503/0505 24013KT 0508/0510 22008KT' while processing 'TAF EIDW 041100Z 0412/0512 16010KT 9999 FEW010 SCT012\n",
            "         PROB40 TEMPO 0412/0414 4000 -RA BKN012\n",
            "         BECMG 0415/0417 21018G30KT\n",
            "         PROB40 TEMPO 0416/0420 21020G35KT\n",
            "         TEMPO 0418/0423 -RADZ BKN012\n",
            "         PROB40 TEMPO 0419/0422 4000 RADZ BKN008\n",
            "         BECMG 0420/0422 23015G25KT\n",
            "         BECMG 0500/0502 26015G25KT\n",
            "         BECMG 0503/0505 24013KT\n",
            "         BECMG 0508/0510 22008KT='\n",
            "Error parsing METAR: Unparsed groups in body 'TAF 0418/0518 0418/0423 -RADZ BKN012 PROB30 0418/0419 21020G35KT PROB40 0419/0422 4000 RADZ BKN008 0420/0422 23015G25KT 0500/0502 26015G25KT 0503/0505 25013KT 0509/0511 22013KT 0511/0514 22015G25KT PROB30 0513/0515 24017G30KT 4000 SHRA BKN012 0514/0516 26015G25KT PROB30 0515/0518 26018G30KT -SHRA' while processing 'TAF EIDW 041700Z 0418/0518 21018G30KT 9999 FEW010 BKN030\n",
            "         TEMPO 0418/0423 -RADZ BKN012\n",
            "         PROB30 TEMPO 0418/0419 21020G35KT\n",
            "         PROB40 TEMPO 0419/0422 4000 RADZ BKN008\n",
            "         BECMG 0420/0422 23015G25KT\n",
            "         BECMG 0500/0502 26015G25KT\n",
            "         BECMG 0503/0505 25013KT\n",
            "         BECMG 0509/0511 22013KT\n",
            "         TEMPO 0511/0514 22015G25KT\n",
            "         PROB30 TEMPO 0513/0515 24017G30KT 4000 SHRA BKN012\n",
            "         BECMG 0514/0516 26015G25KT\n",
            "         PROB30 TEMPO 0515/0518 26018G30KT -SHRA='\n",
            "Error parsing METAR: Unparsed groups in body 'TAF 0500/0524 PROB40 0500/0505 25015G25KT 0509/0511 22013KT PROB40 0512/0515 22015G26KT 4000 RA BKN012 FEW018CB 0515/0517 26018G30KT 0515/0521 27020G35KT -SHRA 0521/0523 26013KT' while processing 'TAF EIDW 042300Z 0500/0524 25013KT 9999 SCT010 BKN018\n",
            "         PROB40 TEMPO 0500/0505 25015G25KT\n",
            "         BECMG 0509/0511 22013KT\n",
            "         PROB40 TEMPO 0512/0515 22015G26KT 4000 RA BKN012 FEW018CB\n",
            "          BECMG 0515/0517 26018G30KT\n",
            "         TEMPO 0515/0521 27020G35KT -SHRA\n",
            "         BECMG 0521/0523 26013KT='\n",
            "Error parsing METAR: Unparsed groups in body 'TAF 0506/0606 0509/0511 21014KT PROB40 0512/0515 22017G28KT 4000 RA BKN012 FEW018CB 0515/0517 26017G27KT 0515/0520 27020G32KT -SHRA 0520/0522 26013KT' while processing 'TAF EIDW 050500Z 0506/0606 24012KT 9999 FEW012 BKN025\n",
            "         BECMG 0509/0511 21014KT\n",
            "         PROB40 TEMPO 0512/0515 22017G28KT 4000 RA BKN012 FEW018CB\n",
            "          BECMG 0515/0517 26017G27KT\n",
            "         TEMPO 0515/0520 27020G32KT -SHRA\n",
            "         BECMG 0520/0522 26013KT='\n",
            "Error parsing METAR: Unparsed groups in body 'TAF 0512/0612 0512/0514 22017G28KT 0513/0516 4000 RA BKN012 FEW018CB 0514/0516 26018G30KT 0514/0516 27022G40KT PROB40 0516/0520 -SHRA FEW018CB 0520/0522 26013KT 0606/0608 20007KT' while processing 'TAF EIDW 051100Z 0512/0612 19010KT 9999 FEW010 BKN025\n",
            "         BECMG 0512/0514 22017G28KT\n",
            "         TEMPO 0513/0516 4000 RA BKN012 FEW018CB\n",
            "         BECMG 0514/0516 26018G30KT\n",
            "         TEMPO 0514/0516 27022G40KT\n",
            "         PROB40 TEMPO 0516/0520 -SHRA FEW018CB\n",
            "         BECMG 0520/0522 26013KT\n",
            "         BECMG 0606/0608 20007KT='\n",
            "Error parsing METAR: Unparsed groups in body 'TAF AMD 0513/0612 0513/0515 26015G30KT 0513/0516 26025G40KT 2000 RA BKN012 FEW018CB PROB40 0516/0520 -SHRA FEW018CB 0520/0522 26013KT 0606/0608 20007KT' while processing 'TAF AMD EIDW 051337Z 0513/0612 23015G30KT 5000 -RA SCT012 BKN025\n",
            "          BECMG 0513/0515 26015G30KT\n",
            "         TEMPO 0513/0516 26025G40KT 2000 RA BKN012 FEW018CB\n",
            "         PROB40 TEMPO 0516/0520 -SHRA FEW018CB\n",
            "         BECMG 0520/0522 26013KT\n",
            "         BECMG 0606/0608 20007KT='\n",
            "Error parsing METAR: Unparsed groups in body 'TAF 0518/0618 0518/0519 26015G30KT FEW018CB 0606/0608 23007KT 0610/0612 18008KT -RA PROB40 0612/0617 4000 RA BKN014 0612/0614 16013KT 0614/0618 16018G30KT' while processing 'TAF EIDW 051700Z 0518/0618 26013KT 9999 FEW015\n",
            "         TEMPO 0518/0519 26015G30KT FEW018CB\n",
            "         BECMG 0606/0608 23007KT\n",
            "         BECMG 0610/0612 18008KT -RA\n",
            "         PROB40 TEMPO 0612/0617 4000 RA BKN014\n",
            "         BECMG 0612/0614 16013KT\n",
            "         TEMPO 0614/0618 16018G30KT='\n",
            "Error parsing METAR: Unparsed groups in body 'TAF 0600/0624 0603/0605 25008KT 0607/0609 22007KT 0609/0611 17008KT -RA PROB40 0612/0618 4000 RA BKN012 0613/0615 16016G26KT 0615/0618 16022G36KT 0618/0620 22017G28KT 0618/0624 22020G33KT 0622/0624 4000 BKN008' while processing 'TAF EIDW 052300Z 0600/0624 26013KT 9999 FEW015\n",
            "         BECMG 0603/0605 25008KT\n",
            "         BECMG 0607/0609 22007KT\n",
            "         BECMG 0609/0611 17008KT -RA\n",
            "         PROB40 TEMPO 0612/0618 4000 RA BKN012\n",
            "         BECMG 0613/0615 16016G26KT\n",
            "         TEMPO 0615/0618 16022G36KT\n",
            "         BECMG 0618/0620 22017G28KT\n",
            "         TEMPO 0618/0624 22020G33KT\n",
            "         TEMPO 0622/0624 4000 BKN008='\n",
            "Error parsing METAR: Unparsed groups in body 'TAF 0606/0706 0609/0611 17008KT -RA 0613/0615 16016G27KT PROB40 0613/0618 4000 RA BKN012 0615/0618 16023G37KT 0618/0620 21016G27KT 0618/0624 22020G35KT 0700/0702 29035G60KT 0700/0706 4000 BKN008' while processing 'TAF EIDW 060500Z 0606/0706 24007KT 9999 FEW015 SCT030\n",
            "         BECMG 0609/0611 17008KT -RA\n",
            "         BECMG 0613/0615 16016G27KT\n",
            "         PROB40 TEMPO 0613/0618 4000 RA BKN012\n",
            "         TEMPO 0615/0618 16023G37KT\n",
            "         BECMG 0618/0620 21016G27KT\n",
            "         TEMPO 0618/0624 22020G35KT\n",
            "         BECMG 0700/0702 29035G60KT\n",
            "         TEMPO 0700/0706 4000 BKN008='\n",
            "Error parsing METAR: Unparsed groups in body 'TAF 0612/0712 0613/0615 16015G25KT PROB40 0613/0618 4000 RA BKN012 0615/0618 16022G35KT 0618/0620 21018G30KT 0618/0624 23020G35KT -RA BKN014 0700/0702 29032G55KT 0700/0707 29038G65KT 4000 RA BKN008 0707/0709 31028G50KT' while processing 'TAF EIDW 061100Z 0612/0712 16008KT 9999 FEW012 BKN035\n",
            "         BECMG 0613/0615 16015G25KT\n",
            "         PROB40 TEMPO 0613/0618 4000 RA BKN012\n",
            "         TEMPO 0615/0618 16022G35KT\n",
            "         BECMG 0618/0620 21018G30KT\n",
            "         TEMPO 0618/0624 23020G35KT -RA BKN014\n",
            "         BECMG 0700/0702 29032G55KT\n",
            "         TEMPO 0700/0707 29038G65KT 4000 RA BKN008\n",
            "         BECMG 0707/0709 31028G50KT='\n",
            "Error parsing METAR: Unparsed groups in body 'TAF 0618/0718 0618/0620 21018G30KT 0618/0624 23020G35KT -RA BKN014 0700/0702 29032G55KT 0700/0707 29038G60KT 4000 RA BKN008 0707/0709 31028G50KT 0710/0712 32025G45KT 0716/0718 31020G35KT' while processing 'TAF EIDW 061700Z 0618/0718 15012KT 9999 FEW010 BKN020\n",
            "         BECMG 0618/0620 21018G30KT\n",
            "         TEMPO 0618/0624 23020G35KT -RA BKN014\n",
            "         BECMG 0700/0702 29032G55KT\n",
            "         TEMPO 0700/0707 29038G60KT 4000 RA BKN008\n",
            "         BECMG 0707/0709 31028G50KT\n",
            "         BECMG 0710/0712 32025G45KT\n",
            "         BECMG 0716/0718 31020G35KT='\n",
            "Error parsing METAR: Unparsed groups in body 'TAF 0700/0724 0700/0702 30035G55KT 0700/0707 30040G60KT 4000 RA BKN008 0707/0709 30028G50KT PROB30 0709/0712 -SHRA FEW018CB 0710/0712 32025G45KT 0717/0719 31020G35KT' while processing 'TAF EIDW 062300Z 0700/0724 23018G30KT 9999 FEW010 BKN016\n",
            "         BECMG 0700/0702 30035G55KT\n",
            "         TEMPO 0700/0707 30040G60KT 4000 RA BKN008\n",
            "         BECMG 0707/0709 30028G50KT\n",
            "         PROB30 TEMPO 0709/0712 -SHRA FEW018CB\n",
            "         BECMG 0710/0712 32025G45KT\n",
            "         BECMG 0717/0719 31020G35KT='\n",
            "Error parsing METAR: Unparsed groups in body 'TAF 0706/0806 PROB40 0706/0707 30040G55KT 4000 RA BKN008 0708/0710 32028G45KT PROB40 0709/0713 32035G50KT -SHRA FEW018CB 0717/0719 31020G35KT 0800/0802 31015G25KT 0802/0804 28010KT' while processing 'TAF EIDW 070500Z 0706/0806 29034G50KT 7000 FEW010 BKN016\n",
            "         PROB40 TEMPO 0706/0707 30040G55KT 4000 RA BKN008\n",
            "         BECMG 0708/0710 32028G45KT\n",
            "         PROB40 TEMPO 0709/0713 32035G50KT -SHRA FEW018CB\n",
            "         BECMG 0717/0719 31020G35KT\n",
            "         BECMG 0800/0802 31015G25KT\n",
            "         BECMG 0802/0804 28010KT='\n",
            "Error parsing METAR: Unparsed groups in body 'TAF 0712/0812 PROB40 0712/0714 32035G50KT -SHRA FEW018CB 0717/0719 32020G35KT 0800/0802 33015G25KT' while processing 'TAF EIDW 071100Z 0712/0812 32028G45KT 9999 FEW015 BKN025\n",
            "         PROB40 TEMPO 0712/0714 32035G50KT -SHRA FEW018CB\n",
            "         BECMG 0717/0719 32020G35KT\n",
            "         BECMG 0800/0802 33015G25KT='\n",
            "Error parsing METAR: Unparsed groups in body 'TAF 0718/0818 0718/0720 32020G35KT 0800/0802 33015G25KT 0804/0806 33013KT' while processing 'TAF EIDW 071700Z 0718/0818 32025G40KT 9999 SCT020\n",
            "         BECMG 0718/0720 32020G35KT\n",
            "         BECMG 0800/0802 33015G25KT\n",
            "         BECMG 0804/0806 33013KT='\n",
            "Error parsing METAR: Unparsed groups in body 'TAF 0800/0824 0800/0803 33020G30KT 0803/0805 32010KT PROB30 0807/0810 33015G25KT 0810/0812 35013KT PROB30 0812/0816 34015G25KT' while processing 'TAF EIDW 072300Z 0800/0824 32018KT 9999 FEW018 SCT020\n",
            "         TEMPO 0800/0803 33020G30KT\n",
            "         BECMG 0803/0805 32010KT\n",
            "         PROB30 TEMPO 0807/0810 33015G25KT\n",
            "         BECMG 0810/0812 35013KT\n",
            "         PROB30 TEMPO 0812/0816 34015G25KT='\n",
            "Error parsing METAR: Unparsed groups in body 'TAF 0806/0906 PROB40 0806/0810 33015G25KT 0810/0812 35013KT PROB30 0812/0816 34015G25KT' while processing 'TAF EIDW 080500Z 0806/0906 32013KT 9999 FEW018 SCT020\n",
            "         PROB40 TEMPO 0806/0810 33015G25KT\n",
            "         BECMG 0810/0812 35013KT\n",
            "         PROB30 TEMPO 0812/0816 34015G25KT='\n",
            "Error parsing METAR: Unparsed groups in body 'TAF 0812/0912 PROB30 0812/0816 35016G26KT 0900/0902 35008KT 0910/0912 03009KT' while processing 'TAF EIDW 081100Z 0812/0912 34013KT 9999 FEW018\n",
            "         PROB30 TEMPO 0812/0816 35016G26KT\n",
            "         BECMG 0900/0902 35008KT\n",
            "         BECMG 0910/0912 03009KT='\n",
            "Error parsing METAR: Unparsed groups in body 'TAF 0818/0918 0900/0902 35008KT 0910/0912 03009KT' while processing 'TAF EIDW 081700Z 0818/0918 35013KT 9999 SCT025\n",
            "         BECMG 0900/0902 35008KT\n",
            "         BECMG 0910/0912 03009KT='\n",
            "Error parsing METAR: Unparsed groups in body 'TAF 0900/0924 0913/0915 04009KT' while processing 'TAF EIDW 082300Z 0900/0924 36010KT 9999 FEW015 BKN025\n",
            "         BECMG 0913/0915 04009KT='\n",
            "Error parsing METAR: Unparsed groups in body 'TAF 0906/1006 0913/0915 04009KT' while processing 'TAF EIDW 090500Z 0906/1006 36014KT 9999 FEW015 BKN020\n",
            "         BECMG 0913/0915 04009KT='\n",
            "Error parsing METAR: Unparsed groups in body 'TAF 0912/1012 PROB30 0912/0914 -RA BKN012 0914/0916 04010KT 1010/1012 07010KT' while processing 'TAF EIDW 091100Z 0912/1012 01011KT 9000 SCT012 BKN018\n",
            "         PROB30 TEMPO 0912/0914 -RA BKN012\n",
            "         BECMG 0914/0916 04010KT\n",
            "         BECMG 1010/1012 07010KT='\n",
            "Error parsing METAR: Unparsed groups in body 'TAF 0918/1018 0919/0921 35008KT 1009/1011 06010KT' while processing 'TAF EIDW 091700Z 0918/1018 02010KT 9999 FEW015 BKN028\n",
            "         BECMG 0919/0921 35008KT\n",
            "         BECMG 1009/1011 06010KT='\n",
            "Error parsing METAR: Unparsed groups in body 'TAF 1000/1024 1009/1011 06010KT' while processing 'TAF EIDW 092300Z 1000/1024 36010KT 9999 FEW015 BKN035\n",
            "         BECMG 1009/1011 06010KT='\n",
            "Error parsing METAR: Unparsed groups in body 'TAF 1006/1106 1009/1011 06010KT' while processing 'TAF EIDW 100500Z 1006/1106 34010KT 9999 FEW015 BKN025\n",
            "         BECMG 1009/1011 06010KT='\n",
            "Error parsing METAR: Unparsed groups in body 'TAF 1012/1112 1109/1111 09008KT' while processing 'TAF EIDW 101100Z 1012/1112 04007KT 9999 FEW020 BKN025\n",
            "         BECMG 1109/1111 09008KT='\n",
            "Error parsing METAR: Unparsed groups in body 'TAF 1018/1118 1105/1107 08009KT' while processing 'TAF EIDW 101700Z 1018/1118 05006KT 9999 BKN025\n",
            "         BECMG 1105/1107 08009KT='\n",
            "Error parsing METAR: Unparsed groups in body 'TAF AMD 1019/1118 1020/1022 05006KT 1105/1107 08009KT' while processing 'TAF AMD EIDW 101949Z 1019/1118 07011KT 9999 BKN025\n",
            "         BECMG 1020/1022 05006KT\n",
            "         BECMG 1105/1107 08009KT='\n",
            "Error parsing METAR: Unparsed groups in body 'TAF 1100/1124 1108/1110 09008KT' while processing 'TAF EIDW 102300Z 1100/1124 06007KT 9999 BKN025\n",
            "         BECMG 1108/1110 09008KT='\n",
            "Error parsing METAR: Unparsed groups in body 'TAF 1106/1206 1108/1110 09008KT' while processing 'TAF EIDW 110500Z 1106/1206 06007KT 9999 BKN024\n",
            "         BECMG 1108/1110 09008KT='\n",
            "Error parsing METAR: Unparsed groups in body 'TAF 1112/1212 1207/1209 13005KT' while processing 'TAF EIDW 111100Z 1112/1212 09007KT 9999 BKN024\n",
            "         BECMG 1207/1209 13005KT='\n",
            "Error parsing METAR: Unparsed groups in body 'TAF 1118/1218 1207/1209 VRB03KT 1214/1217 13005KT' while processing 'TAF EIDW 111700Z 1118/1218 09005KT 9999 BKN020\n",
            "         BECMG 1207/1209 VRB03KT\n",
            "         TEMPO 1214/1217 13005KT='\n",
            "Error parsing METAR: Unparsed groups in body 'TAF 1200/1224 1206/1208 12006KT 1221/1223 VRB03KT BKN010 PROB30 1222/1224 4000 -RADZ BKN006' while processing 'TAF EIDW 112300Z 1200/1224 09006KT 9999 BKN020\n",
            "         BECMG 1206/1208 12006KT\n",
            "         BECMG 1221/1223 VRB03KT BKN010\n",
            "         PROB30 TEMPO 1222/1224 4000 -RADZ BKN006='\n",
            "Error parsing METAR: Unparsed groups in body 'TAF 1206/1306 1220/1222 VRB03KT 1223/1301 BKN010 PROB30 1301/1306 4000 -RADZ BKN007' while processing 'TAF EIDW 120500Z 1206/1306 10006KT 9999 BKN020\n",
            "         BECMG 1220/1222 VRB03KT\n",
            "         BECMG 1223/1301 BKN010\n",
            "         PROB30 TEMPO 1301/1306 4000 -RADZ BKN007='\n",
            "Error parsing METAR: Unparsed groups in body 'TAF AMD 1206/1306 PROB30 1221/1223 BKN012 1223/1301 BKN012 PROB30 1301/1306 4000 -RADZ BKN006' while processing 'TAF AMD EIDW 120612Z 1206/1306 VRB03KT 9999 BKN020\n",
            "         PROB30 TEMPO 1221/1223 BKN012\n",
            "         BECMG 1223/1301 BKN012\n",
            "         PROB30 TEMPO 1301/1306 4000 -RADZ BKN006='\n",
            "Error parsing METAR: Unparsed groups in body 'TAF 1212/1312 1300/1308 BKN012 PROB30 1301/1308 4000 -RADZ BKN008' while processing 'TAF EIDW 121100Z 1212/1312 VRB03KT 9999 BKN025\n",
            "         TEMPO 1300/1308 BKN012\n",
            "         PROB30 TEMPO 1301/1308 4000 -RADZ BKN008='\n",
            "Error parsing METAR: Unparsed groups in body 'TAF 1218/1318 1300/1308 34005KT BKN012 PROB30 1301/1308 4000 -RADZ BKN008 1313/1315 27007KT' while processing 'TAF EIDW 121700Z 1218/1318 VRB03KT 9999 FEW024 BKN027\n",
            "         TEMPO 1300/1308 34005KT BKN012\n",
            "         PROB30 TEMPO 1301/1308 4000 -RADZ BKN008\n",
            "         BECMG 1313/1315 27007KT='\n",
            "Error parsing METAR: Unparsed groups in body 'TAF 1218/1318 1218/1224 35005KT 1300/1308 34005KT BKN012 PROB30 1301/1308 4000 -RADZ BKN008 1313/1315 27007KT' while processing 'TAF COR EIDW 121721Z 1218/1318 VRB03KT 9999 FEW024 BKN027\n",
            "         TEMPO 1218/1224 35005KT\n",
            "         TEMPO 1300/1308 34005KT BKN012\n",
            "         PROB30 TEMPO 1301/1308 4000 -RADZ BKN008\n",
            "         BECMG 1313/1315 27007KT='\n",
            "Error parsing METAR: Unparsed groups in body 'TAF 1300/1324 PROB40 1300/1308 30005KT -RADZ BKN012 1313/1315 27007KT PROB30 1323/1324 -RA BKN012' while processing 'TAF EIDW 122300Z 1300/1324 VRB03KT 9999 BKN025\n",
            "         PROB40 TEMPO 1300/1308 30005KT -RADZ BKN012\n",
            "         BECMG 1313/1315 27007KT\n",
            "         PROB30 TEMPO 1323/1324 -RA BKN012='\n",
            "Error parsing METAR: Unparsed groups in body 'TAF 1306/1406 PROB30 1306/1308 29005KT -RADZ BKN012 1313/1315 27007KT PROB30 1323/1401 -RA BKN012' while processing 'TAF EIDW 130500Z 1306/1406 VRB03KT 9999 BKN025\n",
            "         PROB30 TEMPO 1306/1308 29005KT -RADZ BKN012\n",
            "         BECMG 1313/1315 27007KT\n",
            "         PROB30 TEMPO 1323/1401 -RA BKN012='\n",
            "Error parsing METAR: Unparsed groups in body 'TAF 1312/1412 PROB30 1323/1401 -RA BKN012' while processing 'TAF EIDW 131100Z 1312/1412 27007KT 9999 BKN033\n",
            "         PROB30 TEMPO 1323/1401 -RA BKN012='\n",
            "Error parsing METAR: Unparsed groups in body 'TAF 1318/1418 PROB30 1322/1401 -RA BKN012' while processing 'TAF EIDW 131700Z 1318/1418 27009KT 9999 FEW018 BKN042\n",
            "         PROB30 TEMPO 1322/1401 -RA BKN012='\n",
            "Error parsing METAR: Unparsed groups in body 'TAF AMD 1321/1418 PROB40 1321/1401 5000 -RADZ BKN006' while processing 'TAF AMD EIDW 132135Z 1321/1418 28010KT 9999 FEW018 BKN020\n",
            "         PROB40 TEMPO 1321/1401 5000 -RADZ BKN006='\n",
            "Error parsing METAR: Unparsed groups in body 'TAF AMD 1400/1424 1400/1402 4000 -DZ BKN003 1409/1411 25008KT 1419/1421 24013KT 1419/1424 4000 -RA BKN008 PROB40 1420/1424 25017G27KT 2000 BR BKN004' while processing 'TAF AMD EIDW 140004Z 1400/1424 28010KT 9999 FEW015 BKN040\n",
            "         TEMPO 1400/1402 4000 -DZ BKN003\n",
            "         BECMG 1409/1411 25008KT\n",
            "         BECMG 1419/1421 24013KT\n",
            "         TEMPO 1419/1424 4000 -RA BKN008\n",
            "         PROB40 TEMPO 1420/1424 25017G27KT 2000 BR BKN004='\n",
            "Error parsing METAR: Unparsed groups in body 'TAF AMD 1400/1424 1400/1402 4000 -DZ BKN003 1409/1411 25008KT 1419/1421 24013KT 1419/1424 4000 -RA BKN008 PROB40 1420/1424 25017G27KT 2000 BR BKN004' while processing 'TAF AMD EIDW 140004Z 1400/1424 28010KT 9999 FEW015 BKN040\n",
            "         TEMPO 1400/1402 4000 -DZ BKN003\n",
            "         BECMG 1409/1411 25008KT\n",
            "         BECMG 1419/1421 24013KT\n",
            "         TEMPO 1419/1424 4000 -RA BKN008\n",
            "         PROB40 TEMPO 1420/1424 25017G27KT 2000 BR BKN004='\n",
            "Error parsing METAR: Unparsed groups in body 'TAF 1406/1506 1410/1412 25010KT PROB30 1415/1419 -RA BKN012 1419/1506 4000 -RA BKN008 PROB40 1419/1506 25015G27KT 2000 BR BKN004 PROB30 1422/1506 0800 FG BKN002' while processing 'TAF EIDW 140500Z 1406/1506 28010KT 9999 FEW045\n",
            "         BECMG 1410/1412 25010KT\n",
            "         PROB30 TEMPO 1415/1419 -RA BKN012\n",
            "         TEMPO 1419/1506 4000 -RA BKN008\n",
            "         PROB40 TEMPO 1419/1506 25015G27KT 2000 BR BKN004\n",
            "         PROB30 TEMPO 1422/1506 0800 FG BKN002='\n",
            "Error parsing METAR: Unparsed groups in body 'TAF 1412/1512 1412/1417 26009KT PROB30 1415/1417 4000 -RA BKN012 1417/1419 4000 -RA BKN008 1419/1501 26015G25KT 1419/1507 2500 -RADZ BKN004 PROB30 1423/1507 1200 BR BKN002 PROB30 1501/1509 25014G25KT 1507/1509 9999 NSW BKN012 1509/1512 26015G26KT BKN008 PROB30 1509/1512 4000 -DZ BR' while processing 'TAF EIDW 141100Z 1412/1512 25014KT 9999 FEW012 BKN030\n",
            "         TEMPO 1412/1417 26009KT\n",
            "         PROB30 TEMPO 1415/1417 4000 -RA BKN012\n",
            "         BECMG 1417/1419 4000 -RA BKN008\n",
            "         TEMPO 1419/1501 26015G25KT\n",
            "         TEMPO 1419/1507 2500 -RADZ BKN004\n",
            "         PROB30 TEMPO 1423/1507 1200 BR BKN002\n",
            "         PROB30 TEMPO 1501/1509 25014G25KT\n",
            "         BECMG 1507/1509 9999 NSW BKN012\n",
            "         TEMPO 1509/1512 26015G26KT BKN008\n",
            "         PROB30 TEMPO 1509/1512 4000 -DZ BR='\n",
            "Error parsing METAR: Unparsed groups in body 'TAF 1418/1518 1418/1501 26015G25KT 1418/1420 4000 -RA BKN007 1419/1507 2500 -RADZ BKN004 PROB30 1421/1507 1200 BR BKN002 PROB40 1501/1509 25014G25KT 1507/1509 9999 NSW FEW008 BKN018 1509/1511 26016G27KT 1509/1514 BKN008 PROB30 1509/1512 4000 -DZ 1513/1518 26019G32KT' while processing 'TAF EIDW 141700Z 1418/1518 25013KT 9999 FEW007 BKN012\n",
            "         TEMPO 1418/1501 26015G25KT\n",
            "         BECMG 1418/1420 4000 -RA BKN007\n",
            "         TEMPO 1419/1507 2500 -RADZ BKN004\n",
            "         PROB30 TEMPO 1421/1507 1200 BR BKN002\n",
            "         PROB40 TEMPO 1501/1509 25014G25KT\n",
            "         BECMG 1507/1509 9999 NSW FEW008 BKN018\n",
            "         BECMG 1509/1511 26016G27KT\n",
            "         TEMPO 1509/1514 BKN008\n",
            "         PROB30 TEMPO 1509/1512 4000 -DZ\n",
            "         TEMPO 1513/1518 26019G32KT='\n",
            "Error parsing METAR: Unparsed groups in body 'TAF 1500/1524 1500/1508 3000 -RADZ BKN004 PROB30 1500/1507 25015G25KT 1500 BR BKN002 1508/1510 9999 NSW FEW008 BKN018 1508/1524 25016G27KT PROB40 1508/1514 5000 -DZ BKN008 PROB40 1515/1522 25019G32KT' while processing 'TAF EIDW 142300Z 1500/1524 25012KT 5000 -DZ SCT004 BKN006\n",
            "         TEMPO 1500/1508 3000 -RADZ BKN004\n",
            "         PROB30 TEMPO 1500/1507 25015G25KT 1500 BR BKN002\n",
            "         BECMG 1508/1510 9999 NSW FEW008 BKN018\n",
            "         TEMPO 1508/1524 25016G27KT\n",
            "         PROB40 TEMPO 1508/1514 5000 -DZ BKN008\n",
            "         PROB40 TEMPO 1515/1522 25019G32KT='\n",
            "Error parsing METAR: Unparsed groups in body 'TAF 1506/1606 PROB40 1506/1508 25015G25KT 3000 -RADZ BKN003 1508/1510 FEW008 BKN018 1508/1606 24016G27KT PROB40 1508/1515 5000 -DZ FEW003 BKN008 PROB40 1513/1522 24019G32KT' while processing 'TAF EIDW 150500Z 1506/1606 25012KT 9999 BKN006\n",
            "         PROB40 TEMPO 1506/1508 25015G25KT 3000 -RADZ BKN003\n",
            "         BECMG 1508/1510 FEW008 BKN018\n",
            "         TEMPO 1508/1606 24016G27KT\n",
            "         PROB40 TEMPO 1508/1515 5000 -DZ FEW003 BKN008\n",
            "         PROB40 TEMPO 1513/1522 24019G32KT='\n",
            "Error parsing METAR: Unparsed groups in body 'TAF AMD 1509/1606 1509/1606 24016G27KT 1509/1515 4000 -DZ PROB30 1511/1514 3000 BR BKN004 1514/1516 SCT008 BKN015 PROB30 1516/1518 BKN008 PROB40 1514/1522 24019G32KT' while processing 'TAF AMD EIDW 150933Z 1509/1606 25014KT 9999 FEW004 BKN008\n",
            "         TEMPO 1509/1606 24016G27KT\n",
            "         TEMPO 1509/1515 4000 -DZ\n",
            "         PROB30 TEMPO 1511/1514 3000 BR BKN004\n",
            "         BECMG 1514/1516 SCT008 BKN015\n",
            "         PROB30 TEMPO 1516/1518 BKN008\n",
            "         PROB40 TEMPO 1514/1522 24019G32KT='\n",
            "Error parsing METAR: Unparsed groups in body 'TAF 1512/1612 1512/1612 25017G27KT 1512/1515 4000 -DZ BKN008 PROB30 1512/1514 3000 BR BKN004 PROB40 1514/1522 25019G32KT PROB40 1515/1519 BKN010' while processing 'TAF EIDW 151100Z 1512/1612 25015KT 9999 SCT008 BKN015\n",
            "         TEMPO 1512/1612 25017G27KT\n",
            "         TEMPO 1512/1515 4000 -DZ BKN008\n",
            "         PROB30 TEMPO 1512/1514 3000 BR BKN004\n",
            "         PROB40 TEMPO 1514/1522 25019G32KT\n",
            "         PROB40 TEMPO 1515/1519 BKN010='\n",
            "Error parsing METAR: Unparsed groups in body 'TAF 1518/1618 1518/1606 25018G28KT PROB40 1518/1522 25020G33KT 1606/1608 23011KT 1606/1618 24015G25KT PROB30 1606/1610 -DZ BKN012' while processing 'TAF EIDW 151700Z 1518/1618 25016KT 9999 FEW012 BKN016\n",
            "         TEMPO 1518/1606 25018G28KT\n",
            "         PROB40 TEMPO 1518/1522 25020G33KT\n",
            "         BECMG 1606/1608 23011KT\n",
            "         TEMPO 1606/1618 24015G25KT\n",
            "         PROB30 TEMPO 1606/1610 -DZ BKN012='\n",
            "Error parsing METAR: Unparsed groups in body 'TAF 1600/1624 1600/1617 26020G30KT PROB30 1600/1610 -DZ BKN012 1617/1619 23010KT' while processing 'TAF EIDW 152300Z 1600/1624 24017KT 9999 SCT015 BKN025\n",
            "         TEMPO 1600/1617 26020G30KT\n",
            "         PROB30 TEMPO 1600/1610 -DZ BKN012\n",
            "         BECMG 1617/1619 23010KT='\n",
            "Error parsing METAR: Unparsed groups in body 'TAF 1606/1706 1606/1616 26015G25KT PROB30 1606/1610 -DZ BKN012 1700/1702 16008KT 1702/1706 -DZ BKN009' while processing 'TAF EIDW 160500Z 1606/1706 24012KT 9999 FEW015 SCT030\n",
            "         TEMPO 1606/1616 26015G25KT\n",
            "         PROB30 TEMPO 1606/1610 -DZ BKN012\n",
            "         BECMG 1700/1702 16008KT\n",
            "         TEMPO 1702/1706 -DZ BKN009='\n",
            "Error parsing METAR: Unparsed groups in body 'TAF 1612/1712 PROB30 1612/1616 24015G25KT 1701/1703 16008KT PROB30 1702/1712 -DZ BKN009 1710/1712 17013KT' while processing 'TAF EIDW 161100Z 1612/1712 24012KT 9999 FEW015 SCT040\n",
            "         PROB30 TEMPO 1612/1616 24015G25KT\n",
            "         BECMG 1701/1703 16008KT\n",
            "         PROB30 TEMPO 1702/1712 -DZ BKN009\n",
            "         BECMG 1710/1712 17013KT='\n",
            "Error parsing METAR: Unparsed groups in body 'TAF 1618/1718 1623/1701 20007KT 1701/1703 15008KT 1710/1712 16013KT 1711/1718 -RA BKN012 1713/1715 17015G25KT 1715/1718 17018G30KT' while processing 'TAF EIDW 161700Z 1618/1718 23009KT 9999 FEW013 BKN040\n",
            "         BECMG 1623/1701 20007KT\n",
            "         BECMG 1701/1703 15008KT\n",
            "         BECMG 1710/1712 16013KT\n",
            "         TEMPO 1711/1718 -RA BKN012\n",
            "         BECMG 1713/1715 17015G25KT\n",
            "         TEMPO 1715/1718 17018G30KT='\n",
            "Error parsing METAR: Unparsed groups in body 'TAF 1700/1724 1701/1703 15008KT 1711/1713 16013KT PROB40 1711/1720 -RA BKN012 1713/1715 17015G25KT 1715/1720 17018G32KT 1720/1722 20015G25KT 1720/1724 21018G32KT -RA BKN010 PROB30 1720/1724 4000 -RADZ BKN007' while processing 'TAF EIDW 162300Z 1700/1724 19006KT 9999 FEW018 SCT040\n",
            "         BECMG 1701/1703 15008KT\n",
            "         BECMG 1711/1713 16013KT\n",
            "         PROB40 TEMPO 1711/1720 -RA BKN012\n",
            "         BECMG 1713/1715 17015G25KT\n",
            "         TEMPO 1715/1720 17018G32KT\n",
            "         BECMG 1720/1722 20015G25KT\n",
            "         TEMPO 1720/1724 21018G32KT -RA BKN010\n",
            "         PROB30 TEMPO 1720/1724 4000 -RADZ BKN007='\n",
            "Error parsing METAR: Unparsed groups in body 'TAF 1706/1806 1711/1713 16013KT PROB40 1711/1720 -RA BKN010 1713/1715 17015G25KT 1713/1719 17018G32KT PROB30 1717/1720 4000 -RADZ BKN007 1719/1721 20017G28KT 1720/1806 21020G33KT -RA BKN010' while processing 'TAF EIDW 170500Z 1706/1806 14008KT 9999 FEW015 SCT030\n",
            "         BECMG 1711/1713 16013KT\n",
            "         PROB40 TEMPO 1711/1720 -RA BKN010\n",
            "         BECMG 1713/1715 17015G25KT\n",
            "         TEMPO 1713/1719 17018G32KT\n",
            "         PROB30 TEMPO 1717/1720 4000 -RADZ BKN007\n",
            "         BECMG 1719/1721 20017G28KT\n",
            "         TEMPO 1720/1806 21020G33KT -RA BKN010='\n",
            "Error parsing METAR: Unparsed groups in body 'TAF AMD 1707/1806 1711/1713 17013KT PROB40 1711/1720 -RA BKN010 1713/1715 17015G25KT 1713/1719 17018G32KT PROB30 1717/1720 4000 -RADZ BKN007 1719/1721 20017G28KT 1720/1806 21020G33KT -RA BKN010' while processing 'TAF AMD EIDW 170709Z 1707/1806 17008KT 9999 FEW015 SCT030\n",
            "         BECMG 1711/1713 17013KT\n",
            "         PROB40 TEMPO 1711/1720 -RA BKN010\n",
            "         BECMG 1713/1715 17015G25KT\n",
            "         TEMPO 1713/1719 17018G32KT\n",
            "         PROB30 TEMPO 1717/1720 4000 -RADZ BKN007\n",
            "         BECMG 1719/1721 20017G28KT\n",
            "         TEMPO 1720/1806 21020G33KT -RA BKN010='\n",
            "Error parsing METAR: Unparsed groups in body 'TAF 1712/1812 1712/1714 17015G25KT 1713/1720 17018G32KT -RA BKN010 PROB30 1717/1720 4000 -RADZ BKN007 1720/1722 20017G28KT 1720/1804 21020G33KT -RA BKN010 1804/1806 25020G33KT 1806/1810 27023G38KT' while processing 'TAF EIDW 171100Z 1712/1812 18014KT 9999 SCT010 BKN020\n",
            "         BECMG 1712/1714 17015G25KT\n",
            "         TEMPO 1713/1720 17018G32KT -RA BKN010\n",
            "         PROB30 TEMPO 1717/1720 4000 -RADZ BKN007\n",
            "         BECMG 1720/1722 20017G28KT\n",
            "         TEMPO 1720/1804 21020G33KT -RA BKN010\n",
            "         BECMG 1804/1806 25020G33KT\n",
            "         TEMPO 1806/1810 27023G38KT='\n",
            "Error parsing METAR: Unparsed groups in body 'TAF 1718/1818 1718/1720 17020G30KT -RA BKN010 PROB30 1718/1721 4000 -RADZ BKN007 1720/1722 20017G28KT 1720/1804 21020G33KT -RA BKN010 1804/1806 25020G33KT PROB40 1804/1807 -RA BKN010 1806/1809 26023G38KT 1810/1812 26015G25KT 1812/1814 26012KT' while processing 'TAF EIDW 171700Z 1718/1818 17015G25KT 9999 SCT010 BKN020\n",
            "         TEMPO 1718/1720 17020G30KT -RA BKN010\n",
            "         PROB30 TEMPO 1718/1721 4000 -RADZ BKN007\n",
            "         BECMG 1720/1722 20017G28KT\n",
            "         TEMPO 1720/1804 21020G33KT -RA BKN010\n",
            "         BECMG 1804/1806 25020G33KT\n",
            "         PROB40 TEMPO 1804/1807 -RA BKN010\n",
            "         TEMPO 1806/1809 26023G38KT\n",
            "         BECMG 1810/1812 26015G25KT\n",
            "         BECMG 1812/1814 26012KT='\n",
            "Error parsing METAR: Unparsed groups in body 'TAF 1800/1824 1800/1807 -RA BKN010 1800/1805 21018G32KT 1805/1807 28023G40KT 1807/1809 26020G35KT 1810/1812 26015G25KT 1812/1814 26012KT PROB30 1822/1824 -SHRA FEW018CB' while processing 'TAF EIDW 172300Z 1800/1824 20015G26KT 9999 SCT010 BKN020\n",
            "         TEMPO 1800/1807 -RA BKN010\n",
            "         TEMPO 1800/1805 21018G32KT\n",
            "         BECMG 1805/1807 28023G40KT\n",
            "         BECMG 1807/1809 26020G35KT\n",
            "         BECMG 1810/1812 26015G25KT\n",
            "         BECMG 1812/1814 26012KT\n",
            "         PROB30 TEMPO 1822/1824 -SHRA FEW018CB='\n",
            "Error parsing METAR: Unparsed groups in body 'TAF 1806/1906 1806/1807 28023G40KT 1806/1807 -RA BKN010 1807/1809 26020G35KT 1810/1812 26015G25KT 1812/1814 26010KT 1903/1906 26015G26KT -SHRA FEW018CB' while processing 'TAF EIDW 180500Z 1806/1906 24015G25KT 9999 FEW010 BKN020\n",
            "         BECMG 1806/1807 28023G40KT\n",
            "         TEMPO 1806/1807 -RA BKN010\n",
            "         BECMG 1807/1809 26020G35KT\n",
            "         BECMG 1810/1812 26015G25KT\n",
            "         BECMG 1812/1814 26010KT\n",
            "         TEMPO 1903/1906 26015G26KT -SHRA FEW018CB='\n",
            "Error parsing METAR: Unparsed groups in body 'TAF AMD 1806/1906 1806/1807 28023G40KT 1806/1807 4000 RA BKN009 1807/1809 26020G35KT 9999 1810/1812 26015G25KT 1812/1814 26010KT 1903/1906 26015G26KT -SHRA FEW018CB' while processing 'TAF AMD EIDW 180558Z 1806/1906 25015G25KT 6000 -RA SCT009 BKN020\n",
            "          BECMG 1806/1807 28023G40KT\n",
            "         TEMPO 1806/1807 4000 RA BKN009\n",
            "         BECMG 1807/1809 26020G35KT 9999\n",
            "         BECMG 1810/1812 26015G25KT\n",
            "         BECMG 1812/1814 26010KT\n",
            "         TEMPO 1903/1906 26015G26KT -SHRA FEW018CB='\n",
            "Error parsing METAR: Unparsed groups in body 'TAF 1812/1912 1812/1814 26015G26KT 1815/1817 30012KT PROB40 1815/1820 4000 -RA BKN012 1817/1819 32015G25KT 1822/1824 27010KT 1903/1912 29015G25KT -SHRA FEW018CB' while processing 'TAF EIDW 181100Z 1812/1912 25013KT 9999 FEW010 BKN020\n",
            "         TEMPO 1812/1814 26015G26KT\n",
            "         BECMG 1815/1817 30012KT\n",
            "         PROB40 TEMPO 1815/1820 4000 -RA BKN012\n",
            "         TEMPO 1817/1819 32015G25KT\n",
            "         BECMG 1822/1824 27010KT\n",
            "         TEMPO 1903/1912 29015G25KT -SHRA FEW018CB='\n",
            "Error parsing METAR: Unparsed groups in body 'TAF 1818/1918 1818/1820 30012KT PROB40 1818/1820 32015G25KT 4000 -RA BKN012 1822/1824 27012KT 1903/1916 28017G28KT -SHRA FEW018CB' while processing 'TAF EIDW 181700Z 1818/1918 27008KT 9999 FEW010 BKN050\n",
            "         BECMG 1818/1820 30012KT\n",
            "         PROB40 TEMPO 1818/1820 32015G25KT 4000 -RA BKN012\n",
            "         BECMG 1822/1824 27012KT\n",
            "         TEMPO 1903/1916 28017G28KT -SHRA FEW018CB='\n",
            "Error parsing METAR: Unparsed groups in body 'TAF 1900/1924 1903/1914 29017G28KT -SHRA FEW018CB 1921/1923 25012KT' while processing 'TAF EIDW 182300Z 1900/1924 28012KT 9999 FEW010 BKN050\n",
            "         TEMPO 1903/1914 29017G28KT -SHRA FEW018CB\n",
            "         BECMG 1921/1923 25012KT='\n",
            "Error parsing METAR: Unparsed groups in body 'TAF 1906/2006 1906/1915 29018G30KT -SHRA FEW018CB 1922/1924 25009KT 2002/2004 22015G25KT' while processing 'TAF EIDW 190500Z 1906/2006 27014KT 9999 FEW010 SCT030\n",
            "         TEMPO 1906/1915 29018G30KT -SHRA FEW018CB\n",
            "         BECMG 1922/1924 25009KT\n",
            "         BECMG 2002/2004 22015G25KT='\n",
            "Error parsing METAR: Unparsed groups in body 'TAF 1912/2012 1912/1915 29018G30KT PROB30 1912/1915 -SHRA FEW018CB 1922/1924 25009KT 2002/2004 22013KT 2009/2011 25018G30KT PROB40 2009/2012 -RA BKN014' while processing 'TAF EIDW 191100Z 1912/2012 28014KT 9999 FEW012\n",
            "         TEMPO 1912/1915 29018G30KT\n",
            "         PROB30 TEMPO 1912/1915 -SHRA FEW018CB\n",
            "         BECMG 1922/1924 25009KT\n",
            "         BECMG 2002/2004 22013KT\n",
            "         BECMG 2009/2011 25018G30KT\n",
            "         PROB40 TEMPO 2009/2012 -RA BKN014='\n",
            "Error parsing METAR: Unparsed groups in body 'TAF 1918/2018 2002/2004 22013KT 2008/2010 22015G26KT PROB40 2009/2012 -RA BKN014 2010/2012 27018G30KT 2015/2017 27012KT' while processing 'TAF EIDW 191700Z 1918/2018 26012KT 9999 SCT025\n",
            "         BECMG 2002/2004 22013KT\n",
            "         TEMPO 2008/2010 22015G26KT\n",
            "         PROB40 TEMPO 2009/2012 -RA BKN014\n",
            "         BECMG 2010/2012 27018G30KT\n",
            "         BECMG 2015/2017 27012KT='\n",
            "Error parsing METAR: Unparsed groups in body 'TAF 2000/2024 2002/2004 22013KT 2008/2010 22015G26KT PROB40 2009/2012 -RA BKN014 2010/2012 27018G30KT 2015/2017 27012KT 2021/2023 24010KT' while processing 'TAF EIDW 192300Z 2000/2024 24007KT 9999 FEW012 SCT040\n",
            "         BECMG 2002/2004 22013KT\n",
            "         TEMPO 2008/2010 22015G26KT\n",
            "         PROB40 TEMPO 2009/2012 -RA BKN014\n",
            "         BECMG 2010/2012 27018G30KT\n",
            "         BECMG 2015/2017 27012KT\n",
            "         BECMG 2021/2023 24010KT='\n",
            "Error parsing METAR: Unparsed groups in body 'TAF 2006/2106 2008/2010 22015G26KT PROB40 2009/2012 -RA BKN014 2010/2012 27018G30KT 2015/2017 27012KT 2021/2023 24010KT 2103/2105 24020G35KT 2103/2106 -RA BKN010' while processing 'TAF EIDW 200500Z 2006/2106 22013KT 9999 FEW012 SCT025\n",
            "         TEMPO 2008/2010 22015G26KT\n",
            "         PROB40 TEMPO 2009/2012 -RA BKN014\n",
            "         BECMG 2010/2012 27018G30KT\n",
            "         BECMG 2015/2017 27012KT\n",
            "         BECMG 2021/2023 24010KT\n",
            "         BECMG 2103/2105 24020G35KT\n",
            "         TEMPO 2103/2106 -RA BKN010='\n",
            "Error parsing METAR: Unparsed groups in body 'TAF 2012/2112 2013/2015 27012KT 2013/2016 28015G25KT 2020/2022 24010KT 2100/2104 23015G25KT PROB40 2103/2107 -RA BKN008 2104/2106 24020G35KT 2108/2112 26025G40KT' while processing 'TAF EIDW 201100Z 2012/2112 23012KT 9999 SCT016 BKN030\n",
            "         BECMG 2013/2015 27012KT\n",
            "         TEMPO 2013/2016 28015G25KT\n",
            "         BECMG 2020/2022 24010KT\n",
            "         TEMPO 2100/2104 23015G25KT\n",
            "         PROB40 TEMPO 2103/2107 -RA BKN008\n",
            "         BECMG 2104/2106 24020G35KT\n",
            "         TEMPO 2108/2112 26025G40KT='\n",
            "Error parsing METAR: Unparsed groups in body 'TAF 2018/2118 2021/2023 24010KT 2100/2104 23015G25KT PROB40 2103/2108 -RA BKN010 2104/2106 24020G35KT 2108/2110 27020G35KT 2111/2116 26025G40KT' while processing 'TAF EIDW 201700Z 2018/2118 27010KT 9999 FEW020 SCT030\n",
            "         BECMG 2021/2023 24010KT\n",
            "         TEMPO 2100/2104 23015G25KT\n",
            "         PROB40 TEMPO 2103/2108 -RA BKN010\n",
            "         BECMG 2104/2106 24020G35KT\n",
            "         BECMG 2108/2110 27020G35KT\n",
            "         TEMPO 2111/2116 26025G40KT='\n",
            "Error parsing METAR: Unparsed groups in body 'TAF 2100/2124 2102/2104 23015G25KT PROB40 2103/2108 -RA BKN012 2104/2106 24020G35KT 2108/2110 27020G35KT 2111/2117 26025G42KT 2115/2124 FEW020CB' while processing 'TAF EIDW 202300Z 2100/2124 24010KT 9999 FEW020 SCT030\n",
            "         BECMG 2102/2104 23015G25KT\n",
            "         PROB40 TEMPO 2103/2108 -RA BKN012\n",
            "         BECMG 2104/2106 24020G35KT\n",
            "         BECMG 2108/2110 27020G35KT\n",
            "         TEMPO 2111/2117 26025G42KT\n",
            "         TEMPO 2115/2124 FEW020CB='\n",
            "Error parsing METAR: Unparsed groups in body 'TAF 2106/2206 2106/2108 -RA BKN010 2108/2110 27020G35KT 2111/2117 26025G42KT 2115/2206 FEW020CB' while processing 'TAF EIDW 210500Z 2106/2206 24020G35KT 9999 FEW020 SCT030\n",
            "         TEMPO 2106/2108 -RA BKN010\n",
            "         BECMG 2108/2110 27020G35KT\n",
            "         TEMPO 2111/2117 26025G42KT\n",
            "         TEMPO 2115/2206 FEW020CB='\n",
            "Error parsing METAR: Unparsed groups in body 'TAF 2112/2212 2112/2117 27025G40KT 2122/2212 27025G40KT SHRA FEW018CB PROB40 2123/2209 3000 SHRAGS BKN012 SCT018CB' while processing 'TAF EIDW 211100Z 2112/2212 26020G35KT 9999 FEW020\n",
            "         TEMPO 2112/2117 27025G40KT\n",
            "         TEMPO 2122/2212 27025G40KT SHRA FEW018CB\n",
            "         PROB40 TEMPO 2123/2209 3000 SHRAGS BKN012 SCT018CB='\n",
            "Error parsing METAR: Unparsed groups in body 'TAF 2118/2218 2122/2211 27025G40KT SHRA FEW018CB PROB40 2123/2209 3000 SHRAGS BKN012 SCT018CB 2210/2212 30020G33KT 2211/2216 30025G40KT 2216/2218 29015G28KT' while processing 'TAF EIDW 211700Z 2118/2218 26018G30KT 9999 FEW015 SCT025 BKN030\n",
            "          TEMPO 2122/2211 27025G40KT SHRA FEW018CB\n",
            "         PROB40 TEMPO 2123/2209 3000 SHRAGS BKN012 SCT018CB\n",
            "         BECMG 2210/2212 30020G33KT\n",
            "         TEMPO 2211/2216 30025G40KT\n",
            "         BECMG 2216/2218 29015G28KT='\n",
            "Error parsing METAR: Unparsed groups in body 'TAF 2200/2224 2200/2211 27025G40KT SHRA FEW018CB PROB40 2200/2209 3000 SHRAGS BKN012 SCT018CB 2210/2212 30020G33KT 2211/2216 30025G40KT 2216/2218 29015G28KT 2219/2221 27012KT' while processing 'TAF EIDW 212300Z 2200/2224 26018G30KT 9999 FEW015 SCT025\n",
            "         TEMPO 2200/2211 27025G40KT SHRA FEW018CB\n",
            "         PROB40 TEMPO 2200/2209 3000 SHRAGS BKN012 SCT018CB\n",
            "         BECMG 2210/2212 30020G33KT\n",
            "         TEMPO 2211/2216 30025G40KT\n",
            "         BECMG 2216/2218 29015G28KT\n",
            "         BECMG 2219/2221 27012KT='\n",
            "Error parsing METAR: Unparsed groups in body 'TAF 2206/2306 2206/2211 27022G38KT SHRA FEW018CB PROB30 2206/2209 3000 SHRAGS BKN012 SCT018CB 2210/2212 30020G32KT 2211/2216 30022G38KT 2216/2218 29015G27KT 2219/2221 27012KT' while processing 'TAF EIDW 220500Z 2206/2306 26018G30KT 9999 FEW015 SCT025\n",
            "         TEMPO 2206/2211 27022G38KT SHRA FEW018CB\n",
            "         PROB30 TEMPO 2206/2209 3000 SHRAGS BKN012 SCT018CB\n",
            "         BECMG 2210/2212 30020G32KT\n",
            "         TEMPO 2211/2216 30022G38KT\n",
            "         BECMG 2216/2218 29015G27KT\n",
            "         BECMG 2219/2221 27012KT='\n",
            "Error parsing METAR: Unparsed groups in body 'TAF 2212/2312 2212/2215 30022G38KT -SHRA FEW018CB 2216/2218 30015G27KT 2219/2221 27013KT 2306/2308 23008KT 2310/2312 20006KT 6000 -DZ SCT006 BKN010' while processing 'TAF EIDW 221100Z 2212/2312 27018G30KT 9999 FEW018 SCT025\n",
            "         TEMPO 2212/2215 30022G38KT -SHRA FEW018CB\n",
            "         BECMG 2216/2218 30015G27KT\n",
            "         BECMG 2219/2221 27013KT\n",
            "         BECMG 2306/2308 23008KT\n",
            "         BECMG 2310/2312 20006KT 6000 -DZ SCT006 BKN010='\n",
            "Error parsing METAR: Unparsed groups in body 'TAF 2218/2318 2218/2220 29016G27KT 2306/2308 23008KT 2310/2312 20006KT 6000 -DZ SCT006 BKN010 2311/2314 4000 -RADZ BKN006 2314/2316 25012KT 4000 -DZ SCT003 BKN006 2314/2318 2000 -RADZ BR BKN003' while processing 'TAF EIDW 221700Z 2218/2318 27013KT 9999 FEW018\n",
            "         TEMPO 2218/2220 29016G27KT\n",
            "         BECMG 2306/2308 23008KT\n",
            "         BECMG 2310/2312 20006KT 6000 -DZ SCT006 BKN010\n",
            "         TEMPO 2311/2314 4000 -RADZ BKN006\n",
            "         BECMG 2314/2316 25012KT 4000 -DZ SCT003 BKN006\n",
            "         TEMPO 2314/2318 2000 -RADZ BR BKN003='\n",
            "Error parsing METAR: Unparsed groups in body 'TAF 2300/2324 2306/2308 23008KT 2310/2312 20008KT 6000 -DZ SCT006 BKN010 2312/2314 25013KT 4000 -DZ SCT002 BKN006 PROB40 2313/2315 24015G25KT PROB40 2314/2320 2000 -RADZ BR BKN002 PROB30 2320/2324 2000 -RADZ BR BKN002' while processing 'TAF EIDW 222300Z 2300/2324 27014KT 9999 FEW018\n",
            "         BECMG 2306/2308 23008KT\n",
            "         BECMG 2310/2312 20008KT 6000 -DZ SCT006 BKN010\n",
            "         BECMG 2312/2314 25013KT 4000 -DZ SCT002 BKN006\n",
            "         PROB40 TEMPO 2313/2315 24015G25KT\n",
            "         PROB40 TEMPO 2314/2320 2000 -RADZ BR BKN002\n",
            "         PROB30 TEMPO 2320/2324 2000 -RADZ BR BKN002='\n",
            "Error parsing METAR: Unparsed groups in body 'TAF 2306/2406 2306/2308 23008KT 2310/2312 20008KT 6000 -RA SCT006 BKN010 2312/2314 25013KT -DZ SCT002 BKN006 2313/2406 4000 PROB40 2313/2315 24015G25KT PROB40 2314/2320 2000 -RADZ BR BKN002 PROB30 2320/2404 2000 -RADZ BR BKN002' while processing 'TAF EIDW 230500Z 2306/2406 26010KT 9999 FEW018\n",
            "         BECMG 2306/2308 23008KT\n",
            "         BECMG 2310/2312 20008KT 6000 -RA SCT006 BKN010\n",
            "         BECMG 2312/2314 25013KT -DZ SCT002 BKN006\n",
            "         TEMPO 2313/2406 4000\n",
            "         PROB40 TEMPO 2313/2315 24015G25KT\n",
            "         PROB40 TEMPO 2314/2320 2000 -RADZ BR BKN002\n",
            "         PROB30 TEMPO 2320/2404 2000 -RADZ BR BKN002='\n",
            "Error parsing METAR: Unparsed groups in body 'TAF 2312/2412 2312/2314 25013KT 6000 -RA SCT002 BKN006 2313/2405 2000 -RA BKN002 PROB40 2313/2315 24015G25KT PROB30 2315/2320 0800 FG BKN001 2400/2408 25015G25KT 2405/2407 BKN015 PROB30 2407/2412 BKN010' while processing 'TAF EIDW 231100Z 2312/2412 22008KT 9999 SCT006 BKN010\n",
            "         BECMG 2312/2314 25013KT 6000 -RA SCT002 BKN006\n",
            "         TEMPO 2313/2405 2000 -RA BKN002\n",
            "         PROB40 TEMPO 2313/2315 24015G25KT\n",
            "         PROB30 TEMPO 2315/2320 0800 FG BKN001\n",
            "         TEMPO 2400/2408 25015G25KT\n",
            "         BECMG 2405/2407 BKN015\n",
            "         PROB30 TEMPO 2407/2412 BKN010='\n",
            "Error parsing METAR: Unparsed groups in body 'TAF 2318/2418 2318/2405 2000 -RA BKN002 PROB30 2318/2320 0800 FG BKN001 PROB40 2400/2408 25015G25KT 2405/2407 9999 BKN015 PROB30 2407/2415 -DZ BKN012' while processing 'TAF EIDW 231700Z 2318/2418 25012KT 8000 -RA FEW002 BKN005\n",
            "         TEMPO 2318/2405 2000 -RA BKN002\n",
            "         PROB30 TEMPO 2318/2320 0800 FG BKN001\n",
            "         PROB40 TEMPO 2400/2408 25015G25KT\n",
            "         BECMG 2405/2407 9999 BKN015\n",
            "         PROB30 TEMPO 2407/2415 -DZ BKN012='\n",
            "Error parsing METAR: Unparsed groups in body 'TAF AMD 2321/2418 PROB30 2321/2403 4500 -DZ BKN004 PROB40 2321/2414 26015G25KT 2405/2407 9999 BKN015 PROB30 2407/2415 -DZ BKN012' while processing 'TAF AMD EIDW 232120Z 2321/2418 25014KT 9999 FEW003 BKN005\n",
            "         PROB30 TEMPO 2321/2403 4500 -DZ BKN004\n",
            "         PROB40 TEMPO 2321/2414 26015G25KT\n",
            "         BECMG 2405/2407 9999 BKN015\n",
            "         PROB30 TEMPO 2407/2415 -DZ BKN012='\n",
            "Error parsing METAR: Unparsed groups in body 'TAF 2400/2424 PROB30 2400/2403 4500 -DZ BKN004 PROB40 2400/2414 26015G25KT 2405/2407 BKN015 PROB30 2407/2415 -DZ BKN012 2417/2419 22012KT' while processing 'TAF EIDW 232300Z 2400/2424 25014KT 9999 FEW003 BKN006\n",
            "         PROB30 TEMPO 2400/2403 4500 -DZ BKN004\n",
            "         PROB40 TEMPO 2400/2414 26015G25KT\n",
            "         BECMG 2405/2407 BKN015\n",
            "         PROB30 TEMPO 2407/2415 -DZ BKN012\n",
            "         BECMG 2417/2419 22012KT='\n",
            "Error parsing METAR: Unparsed groups in body 'TAF 2406/2506 2406/2408 SCT010 BKN015 PROB30 2408/2415 26015G25KT -DZ BKN012 2417/2419 22012KT' while processing 'TAF EIDW 240500Z 2406/2506 25013KT 9999 FEW003 BKN008\n",
            "         BECMG 2406/2408 SCT010 BKN015\n",
            "         PROB30 TEMPO 2408/2415 26015G25KT -DZ BKN012\n",
            "         BECMG 2417/2419 22012KT='\n",
            "Error parsing METAR: Unparsed groups in body 'TAF AMD 2409/2506 2409/2411 SCT010 BKN015 PROB30 2411/2415 26015G25KT -DZ BKN012 2417/2419 22012KT' while processing 'TAF AMD EIDW 240912Z 2409/2506 25013KT 9999 BKN005\n",
            "         BECMG 2409/2411 SCT010 BKN015\n",
            "         PROB30 TEMPO 2411/2415 26015G25KT -DZ BKN012\n",
            "         BECMG 2417/2419 22012KT='\n",
            "Error parsing METAR: Unparsed groups in body 'TAF 2412/2512 2412/2414 9999 NSW SCT010 BKN015 PROB30 2414/2416 -DZ BKN012 2419/2421 21012KT' while processing 'TAF EIDW 241100Z 2412/2512 24008KT 5000 -DZ FEW005 BKN008\n",
            "         BECMG 2412/2414 9999 NSW SCT010 BKN015\n",
            "         PROB30 TEMPO 2414/2416 -DZ BKN012\n",
            "         BECMG 2419/2421 21012KT='\n",
            "Error parsing METAR: Unparsed groups in body 'TAF AMD 2416/2512 2416/2420 SCT010 BKN015 2420/2422 21012KT BKN015' while processing 'TAF AMD EIDW 241611Z 2416/2512 24008KT 9999 FEW005 BKN008\n",
            "         TEMPO 2416/2420 SCT010 BKN015\n",
            "         BECMG 2420/2422 21012KT BKN015='\n",
            "Error parsing METAR: Unparsed groups in body 'TAF 2418/2518 2418/2422 BKN015 2420/2422 21012KT PROB30 2422/2512 -DZ BKN008 2512/2514 BKN020 PROB30 2512/2515 22015G25KT' while processing 'TAF EIDW 241700Z 2418/2518 24008KT 9999 BKN010\n",
            "         TEMPO 2418/2422 BKN015\n",
            "         BECMG 2420/2422 21012KT\n",
            "         PROB30 TEMPO 2422/2512 -DZ BKN008\n",
            "         BECMG 2512/2514 BKN020\n",
            "         PROB30 TEMPO 2512/2515 22015G25KT='\n",
            "Error parsing METAR: Unparsed groups in body 'TAF AMD 2422/2518 2422/2506 22006KT 2422/2512 BKN012 PROB30 2422/2512 -DZ BKN008 PROB30 2511/2514 22014G25KT' while processing 'TAF AMD EIDW 242237Z 2422/2518 22011KT 9999 FEW012 BKN018\n",
            "         TEMPO 2422/2506 22006KT\n",
            "         TEMPO 2422/2512 BKN012\n",
            "         PROB30 TEMPO 2422/2512 -DZ BKN008\n",
            "         PROB30 TEMPO 2511/2514 22014G25KT='\n",
            "Error parsing METAR: Unparsed groups in body 'TAF 2500/2524 2500/2512 BKN012 PROB30 2500/2512 -DZ BKN008 PROB30 2511/2514 22014G25KT PROB40 2521/2524 BKN012' while processing 'TAF EIDW 242300Z 2500/2524 22011KT 9999 FEW012 BKN020\n",
            "         TEMPO 2500/2512 BKN012\n",
            "         PROB30 TEMPO 2500/2512 -DZ BKN008\n",
            "         PROB30 TEMPO 2511/2514 22014G25KT\n",
            "         PROB40 TEMPO 2521/2524 BKN012='\n",
            "Error parsing METAR: Unparsed groups in body 'TAF 2506/2606 2506/2510 22006KT PROB40 2506/2512 BKN012 PROB30 2511/2514 22014G25KT PROB40 2520/2606 BKN012 2523/2601 19008KT 2604/2606 16008KT' while processing 'TAF EIDW 250500Z 2506/2606 22011KT 9999 FEW012 BKN018\n",
            "         TEMPO 2506/2510 22006KT\n",
            "         PROB40 TEMPO 2506/2512 BKN012\n",
            "         PROB30 TEMPO 2511/2514 22014G25KT\n",
            "         PROB40 TEMPO 2520/2606 BKN012\n",
            "         BECMG 2523/2601 19008KT\n",
            "         BECMG 2604/2606 16008KT='\n",
            "Error parsing METAR: Unparsed groups in body 'TAF 2512/2612 2512/2515 BKN012 PROB40 2518/2612 BKN012 2607/2609 19005KT' while processing 'TAF EIDW 251100Z 2512/2612 22010KT 9999 SCT013 BKN016\n",
            "         TEMPO 2512/2515 BKN012\n",
            "         PROB40 TEMPO 2518/2612 BKN012\n",
            "         BECMG 2607/2609 19005KT='\n",
            "Error parsing METAR: Unparsed groups in body 'TAF 2518/2618 PROB40 2518/2614 BKN014 2616/2618 VRB03KT 2614/2618 -DZ BKN012' while processing 'TAF EIDW 251700Z 2518/2618 21008KT 9999 FEW018 BKN025\n",
            "         PROB40 TEMPO 2518/2614 BKN014\n",
            "         BECMG 2616/2618 VRB03KT\n",
            "         TEMPO 2614/2618 -DZ BKN012='\n",
            "Error parsing METAR: Unparsed groups in body 'TAF AMD 2518/2618 PROB40 2518/2614 BKN014 2600/2602 22008KT 2616/2618 VRB03KT 2614/2618 -DZ BKN012' while processing 'TAF AMD EIDW 251910Z 2518/2618 18006KT 9999 FEW018 BKN025\n",
            "         PROB40 TEMPO 2518/2614 BKN014\n",
            "         BECMG 2600/2602 22008KT\n",
            "         BECMG 2616/2618 VRB03KT\n",
            "         TEMPO 2614/2618 -DZ BKN012='\n",
            "Error parsing METAR: Unparsed groups in body 'TAF AMD 2600/2624 2600/2603 25008KT BKN008 PROB40 2603/2614 BKN010 2614/2624 -DZ BKN012 2616/2618 VRB03KT 2620/2622 23007KT' while processing 'TAF AMD EIDW 260003Z 2600/2624 22007KT 9999 FEW010 BKN025\n",
            "         TEMPO 2600/2603 25008KT BKN008\n",
            "         PROB40 TEMPO 2603/2614 BKN010\n",
            "         TEMPO 2614/2624 -DZ BKN012\n",
            "         BECMG 2616/2618 VRB03KT\n",
            "         BECMG 2620/2622 23007KT='\n",
            "Error parsing METAR: Unparsed groups in body 'TAF AMD 2600/2624 2600/2603 25008KT BKN008 PROB40 2603/2614 BKN010 2614/2624 -DZ BKN012 2616/2618 VRB03KT 2620/2622 23007KT' while processing 'TAF AMD EIDW 260003Z 2600/2624 22007KT 9999 FEW010 BKN025\n",
            "         TEMPO 2600/2603 25008KT BKN008\n",
            "         PROB40 TEMPO 2603/2614 BKN010\n",
            "         TEMPO 2614/2624 -DZ BKN012\n",
            "         BECMG 2616/2618 VRB03KT\n",
            "         BECMG 2620/2622 23007KT='\n",
            "Error parsing METAR: Unparsed groups in body 'TAF 2606/2706 2606/2610 VRB03KT BKN009 PROB30 2610/2617 -DZ BKN010 2616/2618 VRB03KT 2617/2706 -DZ BKN010 2621/2623 22007KT PROB30 2622/2706 3000 BR BKN006' while processing 'TAF EIDW 260500Z 2606/2706 22007KT 9999 FEW010 BKN017\n",
            "         TEMPO 2606/2610 VRB03KT BKN009\n",
            "         PROB30 TEMPO 2610/2617 -DZ BKN010\n",
            "         BECMG 2616/2618 VRB03KT\n",
            "         TEMPO 2617/2706 -DZ BKN010\n",
            "         BECMG 2621/2623 22007KT\n",
            "         PROB30 TEMPO 2622/2706 3000 BR BKN006='\n",
            "Error parsing METAR: Unparsed groups in body 'TAF AMD 2608/2706 2608/2614 3000 BR BKN003 PROB30 2609/2612 0800 FG BKN002 2614/2620 9999 BKN012' while processing 'TAF AMD EIDW 260824Z 2608/2706 20006KT 7000 BKN007\n",
            "         TEMPO 2608/2614 3000 BR BKN003\n",
            "         PROB30 TEMPO 2609/2612 0800 FG BKN002\n",
            "         TEMPO 2614/2620 9999 BKN012='\n",
            "Error parsing METAR: Unparsed groups in body 'TAF 2612/2712 PROB40 2612/2614 0800 FG BKN002 2614/2621 9999 NSW BKN012 2710/2712 9999 NSW BKN012' while processing 'TAF EIDW 261100Z 2612/2712 20006KT 3000 -DZ BR BKN004\n",
            "         PROB40 TEMPO 2612/2614 0800 FG BKN002\n",
            "         TEMPO 2614/2621 9999 NSW BKN012\n",
            "         BECMG 2710/2712 9999 NSW BKN012='\n",
            "Error parsing METAR: Unparsed groups in body 'TAF 2618/2718 2618/2703 0800 FG BKN002 2710/2712 24008KT 9999 NSW SCT012 BKN020' while processing 'TAF EIDW 261700Z 2618/2718 VRB03KT 3000 -DZ BR BKN004\n",
            "         TEMPO 2618/2703 0800 FG BKN002\n",
            "         BECMG 2710/2712 24008KT 9999 NSW SCT012 BKN020='\n",
            "Error parsing METAR: Unparsed groups in body 'TAF AMD 2619/2718 2619/2710 3000 -DZ BR BKN004 PROB30 2622/2709 0800 FG BKN002 2710/2712 24008KT 9999 SCT012 BKN020' while processing 'TAF AMD EIDW 261859Z 2619/2718 VRB03KT 8000 BKN008\n",
            "         TEMPO 2619/2710 3000 -DZ BR BKN004\n",
            "         PROB30 TEMPO 2622/2709 0800 FG BKN002\n",
            "         BECMG 2710/2712 24008KT 9999 SCT012 BKN020='\n",
            "Error parsing METAR: Unparsed groups in body 'TAF 2700/2724 2700/2709 3000 -DZ BR FEW002 BKN004 PROB40 2700/2709 0800 FG BKN002 PROB30 2703/2708 FEW006 BKN015 2709/2711 23008KT 9999 FEW012 BKN018 PROB30 2709/2724 -DZ BKN012' while processing 'TAF EIDW 262300Z 2700/2724 VRB03KT 7000 BKN006\n",
            "         TEMPO 2700/2709 3000 -DZ BR FEW002 BKN004\n",
            "         PROB40 TEMPO 2700/2709 0800 FG BKN002\n",
            "         PROB30 TEMPO 2703/2708 FEW006 BKN015\n",
            "         BECMG 2709/2711 23008KT 9999 FEW012 BKN018\n",
            "         PROB30 TEMPO 2709/2724 -DZ BKN012='\n",
            "Error parsing METAR: Unparsed groups in body 'TAF 2706/2806 2706/2709 3000 -DZ BR FEW002 BKN004 PROB30 2706/2709 FEW006 BKN015 2709/2711 FEW012 BKN018 PROB30 2709/2724 -DZ BKN012 PROB30 2804/2806 3000 -DZ BR BKN006' while processing 'TAF EIDW 270500Z 2706/2806 23005KT 9999 BKN006\n",
            "         TEMPO 2706/2709 3000 -DZ BR FEW002 BKN004\n",
            "         PROB30 TEMPO 2706/2709 FEW006 BKN015\n",
            "         BECMG 2709/2711 FEW012 BKN018\n",
            "         PROB30 TEMPO 2709/2724 -DZ BKN012\n",
            "         PROB30 TEMPO 2804/2806 3000 -DZ BR BKN006='\n",
            "Error parsing METAR: Unparsed groups in body 'TAF AMD 2709/2806 2709/2710 0800 -DZ FG BKN002 2710/2712 2500 -DZ BR SCT002 BKN003 2712/2718 9999 SCT005 BKN010 PROB30 2712/2718 2500 -DZ BR BKN003 PROB40 2718/2806 2500 -DZ BR BKN003' while processing 'TAF AMD EIDW 270916Z 2709/2806 21005KT 5000 -DZ SCT003 BKN005\n",
            "         TEMPO 2709/2710 0800 -DZ FG BKN002\n",
            "         TEMPO 2710/2712 2500 -DZ BR SCT002 BKN003\n",
            "         TEMPO 2712/2718 9999 SCT005 BKN010\n",
            "         PROB30 TEMPO 2712/2718 2500 -DZ BR BKN003\n",
            "         PROB40 TEMPO 2718/2806 2500 -DZ BR BKN003='\n",
            "Error parsing METAR: Unparsed groups in body 'TAF AMD 2710/2806 2711/2713 5000 -DZ SCT003 BKN005 2713/2718 9999 SCT005 BKN010 PROB40 2713/2806 2500 -DZ BR BKN003' while processing 'TAF AMD EIDW 271012Z 2710/2806 21005KT 0800 FG BKN002\n",
            "         BECMG 2711/2713 5000 -DZ SCT003 BKN005\n",
            "         TEMPO 2713/2718 9999 SCT005 BKN010\n",
            "         PROB40 TEMPO 2713/2806 2500 -DZ BR BKN003='\n",
            "Error parsing METAR: Unparsed groups in body 'TAF 2712/2812 2712/2718 6000 -DZ SCT003 BKN006 PROB30 2712/2718 3000 BR BKN003 PROB40 2718/2807 3000 -DZ BR BKN003 PROB30 2718/2806 0800 FG BKN002 2805/2807 24008KT 9999 SCT005 BKN010 2807/2812 SCT010 BKN015' while processing 'TAF EIDW 271100Z 2712/2812 21005KT 9999 SCT006 BKN012\n",
            "         TEMPO 2712/2718 6000 -DZ SCT003 BKN006\n",
            "         PROB30 TEMPO 2712/2718 3000 BR BKN003\n",
            "         PROB40 TEMPO 2718/2807 3000 -DZ BR BKN003\n",
            "         PROB30 TEMPO 2718/2806 0800 FG BKN002\n",
            "         BECMG 2805/2807 24008KT 9999 SCT005 BKN010\n",
            "         TEMPO 2807/2812 SCT010 BKN015='\n",
            "Error parsing METAR: Unparsed groups in body 'TAF AMD 2712/2812 2712/2718 6000 -DZ SCT003 BKN006 PROB30 2712/2718 3000 BR BKN003 PROB40 2718/2807 3000 -DZ BR BKN003 PROB30 2718/2806 0800 FG BKN002 2807/2812 SCT010 BKN015' while processing 'TAF AMD EIDW 271214Z 2712/2812 24006KT 9999 SCT006 BKN012\n",
            "         TEMPO 2712/2718 6000 -DZ SCT003 BKN006\n",
            "         PROB30 TEMPO 2712/2718 3000 BR BKN003\n",
            "         PROB40 TEMPO 2718/2807 3000 -DZ BR BKN003\n",
            "         PROB30 TEMPO 2718/2806 0800 FG BKN002\n",
            "         TEMPO 2807/2812 SCT010 BKN015='\n",
            "Error parsing METAR: Unparsed groups in body 'TAF AMD 2715/2812 2715/2718 4000 -DZ SCT003 BKN006 PROB30 2715/2718 2500 -DZ BR BKN003 2717/2719 23006KT PROB40 2718/2807 3000 -DZ BR BKN003 PROB30 2718/2806 0800 FG BKN002 2807/2812 SCT010 BKN015' while processing 'TAF AMD EIDW 271543Z 2715/2812 VRB03KT 9999 SCT006 BKN012\n",
            "         TEMPO 2715/2718 4000 -DZ SCT003 BKN006\n",
            "         PROB30 TEMPO 2715/2718 2500 -DZ BR BKN003\n",
            "         BECMG 2717/2719 23006KT\n",
            "         PROB40 TEMPO 2718/2807 3000 -DZ BR BKN003\n",
            "         PROB30 TEMPO 2718/2806 0800 FG BKN002\n",
            "         TEMPO 2807/2812 SCT010 BKN015='\n",
            "Error parsing METAR: Unparsed groups in body 'TAF 2718/2818 2718/2720 22006KT 2718/2807 4000 -DZ BR BKN006 PROB30 2720/2806 0800 FG BKN002 2807/2809 25009KT 9999 SCT010 BKN015 2809/2818 BKN010' while processing 'TAF EIDW 271700Z 2718/2818 VRB03KT 7000 SCT006 BKN010\n",
            "         BECMG 2718/2720 22006KT\n",
            "         TEMPO 2718/2807 4000 -DZ BR BKN006\n",
            "         PROB30 TEMPO 2720/2806 0800 FG BKN002\n",
            "         BECMG 2807/2809 25009KT 9999 SCT010 BKN015\n",
            "         TEMPO 2809/2818 BKN010='\n",
            "Error parsing METAR: Unparsed groups in body 'TAF 2800/2824 2800/2808 4000 -DZ BR BKN006 PROB30 2800/2807 0800 FG BKN002 2808/2810 24009KT 9999 SCT010 BKN016 2808/2821 BKN010 PROB40 2817/2821 4000 -DZ BR BKN006' while processing 'TAF EIDW 272300Z 2800/2824 21005KT 7000 SCT008 BKN012\n",
            "         TEMPO 2800/2808 4000 -DZ BR BKN006\n",
            "         PROB30 TEMPO 2800/2807 0800 FG BKN002\n",
            "         BECMG 2808/2810 24009KT 9999 SCT010 BKN016\n",
            "         TEMPO 2808/2821 BKN010\n",
            "         PROB40 TEMPO 2817/2821 4000 -DZ BR BKN006='\n",
            "Error parsing METAR: Unparsed groups in body 'TAF 2806/2906 2806/2821 -DZ BKN011 PROB40 2806/2808 4000 BR BKN006 PROB30 2806/2808 0800 FG BKN002 2809/2811 25009KT PROB40 2816/2820 4000 BR BKN006' while processing 'TAF EIDW 280500Z 2806/2906 21005KT 9999 SCT010 BKN016\n",
            "         TEMPO 2806/2821 -DZ BKN011\n",
            "         PROB40 TEMPO 2806/2808 4000 BR BKN006\n",
            "         PROB30 TEMPO 2806/2808 0800 FG BKN002\n",
            "         BECMG 2809/2811 25009KT\n",
            "         PROB40 TEMPO 2816/2820 4000 BR BKN006='\n",
            "Error parsing METAR: Unparsed groups in body 'TAF 2812/2912 PROB30 2812/2816 BKN012 2816/2818 27012KT BKN010 PROB40 2817/2820 3000 -DZ BR BKN005 2819/2821 FEW010 SCT030 2821/2823 24008KT 2905/2907 24013KT 2907/2912 24015G25KT' while processing 'TAF EIDW 281100Z 2812/2912 24007KT 9999 SCT014\n",
            "         PROB30 TEMPO 2812/2816 BKN012\n",
            "         BECMG 2816/2818 27012KT BKN010\n",
            "         PROB40 TEMPO 2817/2820 3000 -DZ BR BKN005\n",
            "         BECMG 2819/2821 FEW010 SCT030\n",
            "         BECMG 2821/2823 24008KT\n",
            "         BECMG 2905/2907 24013KT\n",
            "         TEMPO 2907/2912 24015G25KT='\n",
            "Error parsing METAR: Unparsed groups in body 'TAF 2818/2918 PROB40 2818/2820 3000 -DZ BR BKN005 2819/2821 FEW010 SCT030 2821/2823 24008KT 2905/2907 24013KT 2908/2918 24015G25KT' while processing 'TAF EIDW 281700Z 2818/2918 26008KT 9999 BKN010\n",
            "         PROB40 TEMPO 2818/2820 3000 -DZ BR BKN005\n",
            "         BECMG 2819/2821 FEW010 SCT030\n",
            "         BECMG 2821/2823 24008KT\n",
            "         BECMG 2905/2907 24013KT\n",
            "         TEMPO 2908/2918 24015G25KT='\n",
            "Error parsing METAR: Unparsed groups in body 'TAF 2900/2924 2905/2907 24012KT 2908/2924 24015G26KT' while processing 'TAF EIDW 282300Z 2900/2924 25007KT 9999 FEW020 BKN035\n",
            "         BECMG 2905/2907 24012KT\n",
            "         TEMPO 2908/2924 24015G26KT='\n",
            "Error parsing METAR: Unparsed groups in body 'TAF 2906/3006 2909/2924 24015G26KT 3000/3002 24017KT 3000/3006 24018G30KT' while processing 'TAF EIDW 290500Z 2906/3006 24012KT 9999 FEW020 BKN030\n",
            "         TEMPO 2909/2924 24015G26KT\n",
            "         BECMG 3000/3002 24017KT\n",
            "         TEMPO 3000/3006 24018G30KT='\n",
            "Error parsing METAR: Unparsed groups in body 'TAF 2912/3012 2912/2924 24015G25KT PROB40 2912/2914 BKN014 3000/3002 24017KT 3000/3012 24018G30KT' while processing 'TAF EIDW 291100Z 2912/3012 24012KT 9999 BKN018\n",
            "         TEMPO 2912/2924 24015G25KT\n",
            "         PROB40 TEMPO 2912/2914 BKN014\n",
            "         BECMG 3000/3002 24017KT\n",
            "         TEMPO 3000/3012 24018G30KT='\n",
            "Error parsing METAR: Unparsed groups in body 'TAF 2918/3018 2918/2924 24015G25KT 3000/3002 24017KT 3000/3018 24020G32KT PROB30 3000/3007 -RA BKN010' while processing 'TAF EIDW 291700Z 2918/3018 24012KT 9999 BKN035\n",
            "         TEMPO 2918/2924 24015G25KT\n",
            "         BECMG 3000/3002 24017KT\n",
            "         TEMPO 3000/3018 24020G32KT\n",
            "         PROB30 TEMPO 3000/3007 -RA BKN010='\n",
            "Error parsing METAR: Unparsed groups in body 'TAF 3000/3024 3000/3024 24020G32KT PROB30 3000/3007 -RADZ BKN012 PROB30 3021/3024 24022G37KT' while processing 'TAF EIDW 292300Z 3000/3024 24016KT 9999 FEW012 BKN025\n",
            "         TEMPO 3000/3024 24020G32KT\n",
            "         PROB30 TEMPO 3000/3007 -RADZ BKN012\n",
            "         PROB30 TEMPO 3021/3024 24022G37KT='\n",
            "Error parsing METAR: Unparsed groups in body 'TAF 3006/3106 3006/3024 24018G32KT PROB30 3006/3008 BKN012 3100/3102 21017KT 3100/3106 22022G34KT' while processing 'TAF EIDW 300500Z 3006/3106 24015KT 9999 FEW012 SCT020\n",
            "         TEMPO 3006/3024 24018G32KT\n",
            "         PROB30 TEMPO 3006/3008 BKN012\n",
            "         BECMG 3100/3102 21017KT\n",
            "         TEMPO 3100/3106 22022G34KT='\n",
            "Error parsing METAR: Unparsed groups in body 'TAF 3012/3112 3012/3017 24016G28KT PROB30 3012/3015 BKN014 3017/3019 24017G29KT 3019/3024 24022G34KT PROB30 3020/3108 BKN012 3023/3101 21018KT 3100/3106 22022G34KT 3106/3108 22023G36KT 3108/3112 23026G42KT 4000 RA BKN012' while processing 'TAF EIDW 301100Z 3012/3112 23014KT 9999 FEW012 BKN020\n",
            "         TEMPO 3012/3017 24016G28KT\n",
            "         PROB30 TEMPO 3012/3015 BKN014\n",
            "         BECMG 3017/3019 24017G29KT\n",
            "         TEMPO 3019/3024 24022G34KT\n",
            "         PROB30 TEMPO 3020/3108 BKN012\n",
            "         BECMG 3023/3101 21018KT\n",
            "         TEMPO 3100/3106 22022G34KT\n",
            "         BECMG 3106/3108 22023G36KT\n",
            "         TEMPO 3108/3112 23026G42KT 4000 RA BKN012='\n",
            "Error parsing METAR: Unparsed groups in body 'TAF 3018/3118 3018/3024 23016G27KT PROB40 3019/3024 23022G32KT PROB30 3020/3108 BKN013 3023/3101 21018KT 3100/3106 22021G33KT 3106/3108 22023G36KT 3108/3114 23026G42KT 4000 RA BKN010 3113/3115 25020G32KT 3114/3118 24023G37KT PROB30 3114/3118 4000 -SHRA BKN013' while processing 'TAF EIDW 301700Z 3018/3118 24015KT 9999 FEW013 BKN025\n",
            "         TEMPO 3018/3024 23016G27KT\n",
            "         PROB40 TEMPO 3019/3024 23022G32KT\n",
            "         PROB30 TEMPO 3020/3108 BKN013\n",
            "         BECMG 3023/3101 21018KT\n",
            "         TEMPO 3100/3106 22021G33KT\n",
            "         BECMG 3106/3108 22023G36KT\n",
            "         TEMPO 3108/3114 23026G42KT 4000 RA BKN010\n",
            "         BECMG 3113/3115 25020G32KT\n",
            "         TEMPO 3114/3118 24023G37KT\n",
            "         PROB30 TEMPO 3114/3118 4000 -SHRA BKN013='\n",
            "Error parsing METAR: Unparsed groups in body 'TAF 3100/3124 3100/3106 22018G30KT 3106/3108 22022G35KT 3107/3113 23026G42KT 4000 RA BKN010 3113/3115 25020G32KT 3114/3124 24023G37KT PROB30 3114/3124 4000 -SHRA BKN013' while processing 'TAF EIDW 302300Z 3100/3124 22015KT 9999 FEW020\n",
            "         TEMPO 3100/3106 22018G30KT\n",
            "         BECMG 3106/3108 22022G35KT\n",
            "         TEMPO 3107/3113 23026G42KT 4000 RA BKN010\n",
            "         BECMG 3113/3115 25020G32KT\n",
            "         TEMPO 3114/3124 24023G37KT\n",
            "         PROB30 TEMPO 3114/3124 4000 -SHRA BKN013='\n",
            "Error parsing METAR: Unparsed groups in body 'TAF 3106/0106 3106/3108 22020G32KT 3107/3113 23026G42KT 4000 RA BKN010 3113/3115 25020G32KT 3114/0104 24023G37KT PROB30 3114/0101 4000 -SHRA BKN013 0104/0106 25015G25KT' while processing 'TAF EIDW 310500Z 3106/0106 22015KT 9999 FEW018 BKN020\n",
            "         BECMG 3106/3108 22020G32KT\n",
            "         TEMPO 3107/3113 23026G42KT 4000 RA BKN010\n",
            "         BECMG 3113/3115 25020G32KT\n",
            "         TEMPO 3114/0104 24023G37KT\n",
            "         PROB30 TEMPO 3114/0101 4000 -SHRA BKN013\n",
            "         BECMG 0104/0106 25015G25KT='\n",
            "Error parsing METAR: Unparsed groups in body 'TAF 3112/0112 3112/3114 23022G40KT 4000 RA BKN012 3112/3114 25020G33KT PROB30 3114/0101 4000 -RA BKN014 0104/0106 25015G25KT 0110/0112 29012KT' while processing 'TAF EIDW 311100Z 3112/0112 22020G35KT 9999 FEW018 BKN030\n",
            "         TEMPO 3112/3114 23022G40KT 4000 RA BKN012\n",
            "         BECMG 3112/3114 25020G33KT\n",
            "         PROB30 TEMPO 3114/0101 4000 -RA BKN014\n",
            "         BECMG 0104/0106 25015G25KT\n",
            "         BECMG 0110/0112 29012KT='\n",
            "Error parsing METAR: Unparsed groups in body 'TAF 3118/0118 PROB30 3118/0101 4000 -RA BKN014 0110/0112 29012KT 0114/0116 34005KT' while processing 'TAF EIDW 311700Z 3118/0118 25018G30KT 9999 FEW018 BKN030\n",
            "         PROB30 TEMPO 3118/0101 4000 -RA BKN014\n",
            "         BECMG 0110/0112 29012KT\n",
            "         BECMG 0114/0116 34005KT='\n",
            "Error parsing METAR: Unparsed groups in body 'TAF AMD 3121/0118 3121/0110 25015G28KT PROB30 3121/0101 4000 -RA BKN014 0110/0112 29012KT 0114/0116 34005KT' while processing 'TAF AMD EIDW 312106Z 3121/0118 25012KT 9999 FEW018 BKN030\n",
            "         TEMPO 3121/0110 25015G28KT\n",
            "         PROB30 TEMPO 3121/0101 4000 -RA BKN014\n",
            "         BECMG 0110/0112 29012KT\n",
            "         BECMG 0114/0116 34005KT='\n",
            "Error parsing METAR: Unparsed groups in body 'TAF 0100/0124 PROB40 0100/0110 26015G28KT PROB30 0100/0103 4000 -RA BKN014 0110/0112 28012KT 0114/0116 34005KT' while processing 'TAF EIDW 312300Z 0100/0124 25010KT 9999 FEW010 BKN020\n",
            "         PROB40 TEMPO 0100/0110 26015G28KT\n",
            "         PROB30 TEMPO 0100/0103 4000 -RA BKN014\n",
            "         BECMG 0110/0112 28012KT\n",
            "         BECMG 0114/0116 34005KT='\n",
            "  Station     Observation Time  Wind Speed (KT)  Visibility (m)  \\\n",
            "0    EIDW  2025-02-01 00:00:00             12.0         10000.0   \n",
            "1    EIDW  2025-02-01 00:30:00              9.0         10000.0   \n",
            "2    EIDW  2025-02-01 01:00:00              8.0         10000.0   \n",
            "3    EIDW  2025-02-01 01:30:00              8.0         10000.0   \n",
            "4    EIDW  2025-02-01 02:00:00              8.0         10000.0   \n",
            "\n",
            "   Temperature (C)  Dew Point (C)  Pressure (hPa)  Humidity (%)  \n",
            "0             14.0           11.0          1008.0         82.14  \n",
            "1             14.0           11.0          1007.0         82.14  \n",
            "2             13.0           11.0          1007.0         87.66  \n",
            "3             13.0           11.0          1007.0         87.66  \n",
            "4             13.0           11.0          1007.0         87.66  \n"
          ]
        }
      ]
    },
    {
      "cell_type": "code",
      "source": [
        "import requests\n",
        "from bs4 import BeautifulSoup\n",
        "import pandas as pd\n",
        "import numpy as np\n",
        "from metar import Metar  # Ensure you have the metar package installed\n",
        "\n",
        "# Function to calculate relative humidity\n",
        "def calculate_humidity(temp, dew_point):\n",
        "    if temp == \"N/A\" or dew_point == \"N/A\":\n",
        "        return \"N/A\"\n",
        "    return round(100 * (np.exp((17.625 * dew_point) / (243.04 + dew_point)) /\n",
        "                        np.exp((17.625 * temp) / (243.04 + temp))), 2)\n",
        "\n",
        "# List of URLs to scrape METAR data from\n",
        "urls = [\"https://www.ogimet.com/display_metars2.php?lang=en&lugar=EIDW&tipo=SA&ord=DIR&nil=SI&fmt=html&ano=2024&mes=01&day=01&hora=00&anof=2024&mesf=01&dayf=31&horaf=23&minf=59&send=send\",\n",
        "\"https://www.ogimet.com/display_metars2.php?lang=en&lugar=EIDW&tipo=SA&ord=DIR&nil=SI&fmt=html&ano=2024&mes=02&day=01&hora=00&anof=2024&mesf=02&dayf=29&horaf=23&minf=59&send=send\",\n",
        "\"https://www.ogimet.com/display_metars2.php?lang=en&lugar=EIDW&tipo=ALL&ord=REV&nil=SI&fmt=html&ano=2024&mes=03&day=01&hora=00&anof=2024&mesf=03&dayf=31&horaf=23&minf=59&send=send\",\n",
        "\"https://www.ogimet.com/display_metars2.php?lang=en&lugar=EIDW&tipo=ALL&ord=DIR&nil=SI&fmt=html&ano=2024&mes=04&day=01&hora=00&anof=2024&mesf=04&dayf=30&horaf=23&minf=59&send=send\",\n",
        "\"https://www.ogimet.com/display_metars2.php?lang=en&lugar=EIDW&tipo=ALL&ord=DIR&nil=SI&fmt=html&ano=2024&mes=05&day=01&hora=00&anof=2024&mesf=05&dayf=31&horaf=23&minf=59&send=send\",\n",
        "\"https://www.ogimet.com/display_metars2.php?lang=en&lugar=EIDW&tipo=ALL&ord=DIR&nil=SI&fmt=html&ano=2024&mes=06&day=01&hora=00&anof=2024&mesf=06&dayf=30&horaf=23&minf=59&send=send\",\n",
        "\"https://www.ogimet.com/display_metars2.php?lang=en&lugar=EIDW&tipo=ALL&ord=DIR&nil=SI&fmt=html&ano=2024&mes=07&day=01&hora=00&anof=2024&mesf=07&dayf=31&horaf=23&minf=59&send=send\",\n",
        "\"https://www.ogimet.com/display_metars2.php?lang=en&lugar=EIDW&tipo=ALL&ord=DIR&nil=SI&fmt=html&ano=2024&mes=08&day=01&hora=00&anof=2024&mesf=08&dayf=31&horaf=23&minf=59&send=send\",\n",
        "\"https://www.ogimet.com/display_metars2.php?lang=en&lugar=EIDW&tipo=ALL&ord=DIR&nil=SI&fmt=html&ano=2024&mes=09&day=01&hora=00&anof=2024&mesf=09&dayf=30&horaf=23&minf=59&send=send\",\n",
        "\"https://www.ogimet.com/display_metars2.php?lang=en&lugar=EIDW&tipo=ALL&ord=DIR&nil=SI&fmt=html&ano=2024&mes=10&day=01&hora=00&anof=2024&mesf=10&dayf=31&horaf=23&minf=59&send=send\",\n",
        "\"https://www.ogimet.com/display_metars2.php?lang=en&lugar=EIDW&tipo=ALL&ord=DIR&nil=SI&fmt=html&ano=2024&mes=11&day=01&hora=00&anof=2024&mesf=11&dayf=30&horaf=23&minf=59&send=send\",\n",
        "\"https://www.ogimet.com/display_metars2.php?lang=en&lugar=EIDW&tipo=ALL&ord=DIR&nil=SI&fmt=html&ano=2024&mes=12&day=01&hora=00&anof=2024&mesf=12&dayf=31&horaf=23&minf=59&send=send\"\n",
        "]\n",
        "\n",
        "data = []  # Store parsed METAR data\n",
        "\n",
        "for url in urls:\n",
        "    response = requests.get(url)\n",
        "    soup = BeautifulSoup(response.text, 'html.parser')\n",
        "\n",
        "    # Extract METAR strings from <pre> tags\n",
        "    metar_strings = [pre.get_text().strip() for pre in soup.find_all('pre')]\n",
        "\n",
        "    for metar_string in metar_strings:\n",
        "        try:\n",
        "            metar = Metar.Metar(metar_string)  # Parse METAR data\n",
        "            temp_c = metar.temp.value(\"C\") if metar.temp else \"N/A\"\n",
        "            dew_c = metar.dewpt.value(\"C\") if metar.dewpt else \"N/A\"\n",
        "\n",
        "            data.append({\n",
        "                \"Station\": metar.station_id,\n",
        "                \"Observation Time\": metar.time.strftime('%Y-%m-%d %H:%M:%S') if metar.time else \"N/A\",\n",
        "                \"Wind Speed (KT)\": metar.wind_speed.value(\"KT\") if metar.wind_speed else \"N/A\",\n",
        "                \"Visibility (m)\": metar.vis.value(\"m\") if metar.vis else \"N/A\",\n",
        "                \"Temperature (C)\": temp_c,\n",
        "                \"Dew Point (C)\": dew_c,\n",
        "                \"Humidity (%)\": calculate_humidity(temp_c, dew_c),\n",
        "                \"Pressure (hPa)\": metar.press.value(\"hPa\") if metar.press else \"N/A\",\n",
        "            })\n",
        "        except Exception as e:\n",
        "            print(\"Error parsing METAR:\", e)\n",
        "\n",
        "# Convert to DataFrame and append to CSV\n",
        "df = pd.DataFrame(data)\n",
        "df.to_csv(\"metar_data.csv\", mode='a', index=False, header=not pd.io.common.file_exists(\"metar_data.csv\"))\n",
        "\n",
        "print(\"CSV file updated successfully with new METAR data!\")\n"
      ],
      "metadata": {
        "colab": {
          "base_uri": "https://localhost:8080/"
        },
        "id": "nwwuRcMt5EKE",
        "outputId": "7579d5d7-0d57-45e6-83e3-5fd192ff3064"
      },
      "execution_count": null,
      "outputs": [
        {
          "output_type": "stream",
          "name": "stdout",
          "text": [
            "Error parsing METAR: Unparsed groups in body '800 FG' while processing 'METAR EIDW 050030Z 27009KT 1200 BR FEW001 BKN002 04/04 Q1000 TEMPO 800 FG='\n",
            "Error parsing METAR: Unparsed groups in body '800 FG BKN001' while processing 'METAR EIDW 141000Z 29010KT 2000 BR SCT001 BKN002 BKN027 01/01 Q1017 TEMPO 800 FG BKN001='\n",
            "Error parsing METAR: Unparsed groups in body '170V240' while processing 'METAR EIDW 270630Z 20010KT 9999 170V240 FEW016 BKN028 07/03 Q1026 NOSIG='\n",
            "Error parsing METAR: Unparsed groups in body 'FDW013' while processing 'METAR EIDW 061830Z 32006KT 9999 FDW013 SCT050 BKN140 02/00 Q1006 NOSIG='\n",
            "Error parsing METAR: Unparsed groups in body '800 FG BKN002' while processing 'METAR EIDW 210230Z 14010KT 110V170 1200 BR FEW002 BKN004 08/07 Q1006 TEMPO 800 FG BKN002='\n",
            "Error parsing METAR: Unparsed groups in body 'R10R0700U' while processing 'METAR EIDW 111900Z 30003KT 9999 R28L/2000 R10R0700U R28R/2000 MIFG FEW008 03/03 Q1040 NOSIG='\n",
            "Error parsing METAR: Unparsed groups in body '28L/1700U 10R/0800D 28R/0750D' while processing 'METAR EIDW 112100Z 29004KT 9999 28L/1700U 10R/0800D 28R/0750D MIFG FEW008 02/02 Q1040 NOSIG='\n",
            "Error parsing METAR: Unparsed groups in body 'TAF AMD 0101/0124 PROB40 0101/0116 BKN010 PROB30 0101/0110 -DZ BKN006' while processing 'TAF AMD EIDW 010203Z 0101/0124 25007KT 9999 SCT010 BKN016\n",
            "         PROB40 TEMPO 0101/0116 BKN010\n",
            "         PROB30 TEMPO 0101/0110 -DZ BKN006='\n",
            "Error parsing METAR: Unparsed groups in body 'TAF 0106/0206 PROB40 0106/0116 BKN010 PROB30 0108/0111 -DZ BKN006 0120/0122 VRB03KT' while processing 'TAF EIDW 010500Z 0106/0206 25008KT 9999 SCT010 BKN016\n",
            "         PROB40 TEMPO 0106/0116 BKN010\n",
            "         PROB30 TEMPO 0108/0111 -DZ BKN006\n",
            "         BECMG 0120/0122 VRB03KT='\n",
            "Error parsing METAR: Unparsed groups in body 'TAF 0112/0212 0120/0122 VRB03KT PROB30 0206/0210 BKN012 0208/0210 07005KT' while processing 'TAF EIDW 011100Z 0112/0212 25006KT 9999 FEW012 BKN020\n",
            "         BECMG 0120/0122 VRB03KT\n",
            "         PROB30 TEMPO 0206/0210 BKN012\n",
            "         BECMG 0208/0210 07005KT='\n",
            "Error parsing METAR: Unparsed groups in body 'TAF 0118/0218 0121/0123 VRB03KT PROB30 0205/0210 -DZ BKN012 0208/0210 07005KT 0211/0213 14006KT' while processing 'TAF EIDW 011700Z 0118/0218 28005KT 9999 SCT012 BKN016\n",
            "         BECMG 0121/0123 VRB03KT\n",
            "         PROB30 TEMPO 0205/0210 -DZ BKN012\n",
            "         BECMG 0208/0210 07005KT\n",
            "         BECMG 0211/0213 14006KT='\n",
            "Error parsing METAR: Unparsed groups in body 'TAF 0200/0224 PROB30 0203/0212 -DZ BKN012' while processing 'TAF EIDW 012300Z 0200/0224 VRB03KT 9999 FEW012 BKN016\n",
            "         PROB30 TEMPO 0203/0212 -DZ BKN012='\n",
            "Error parsing METAR: Unparsed groups in body 'TAF 0206/0306 PROB30 0206/0215 -DZ BKN012' while processing 'TAF EIDW 020500Z 0206/0306 VRB03KT 9999 FEW012 BKN016\n",
            "         PROB30 TEMPO 0206/0215 -DZ BKN012='\n",
            "Error parsing METAR: Unparsed groups in body 'TAF AMD 0208/0306 0208/0211 4000 -DZ BKN010 PROB30 0211/0215 -DZ BKN012' while processing 'TAF AMD EIDW 020845Z 0208/0306 VRB03KT 9999 FEW010 BKN016\n",
            "         TEMPO 0208/0211 4000 -DZ BKN010\n",
            "         PROB30 TEMPO 0211/0215 -DZ BKN012='\n",
            "Error parsing METAR: Unparsed groups in body 'TAF AMD 0210/0306 0210/0212 3000 -DZ BKN004 0212/0214 9999 NSW FEW012 BKN016 0214/0216 12005KT PROB40 0303/0306 -DZ BKN012' while processing 'TAF AMD EIDW 021031Z 0210/0306 VRB03KT 7000 -DZ BKN010\n",
            "         TEMPO 0210/0212 3000 -DZ BKN004\n",
            "         BECMG 0212/0214 9999 NSW FEW012 BKN016\n",
            "         BECMG 0214/0216 12005KT\n",
            "         PROB40 TEMPO 0303/0306 -DZ BKN012='\n",
            "Error parsing METAR: Unparsed groups in body 'TAF 0212/0312 0212/0214 9999 NSW FEW010 BKN016 0214/0216 12005KT PROB30 0214/0216 -DZ BKN010 0219/0221 VRB03KT PROB40 0303/0308 -DZ BKN012 0307/0309 13007KT' while processing 'TAF EIDW 021100Z 0212/0312 VRB03KT 4000 -DZ BKN004\n",
            "         BECMG 0212/0214 9999 NSW FEW010 BKN016\n",
            "         BECMG 0214/0216 12005KT\n",
            "         PROB30 TEMPO 0214/0216 -DZ BKN010\n",
            "         BECMG 0219/0221 VRB03KT\n",
            "         PROB40 TEMPO 0303/0308 -DZ BKN012\n",
            "         BECMG 0307/0309 13007KT='\n",
            "Error parsing METAR: Unparsed groups in body 'TAF AMD 0212/0312 0212/0214 4000 -DZ BKN007 PROB30 0212/0213 BKN004 0214/0216 12005KT PROB30 0214/0216 -DZ BKN010 0219/0221 VRB03KT PROB40 0303/0308 -DZ BKN012 0307/0309 13007KT' while processing 'TAF AMD EIDW 021210Z 0212/0312 16007KT 9999 FEW008 BKN016\n",
            "         TEMPO 0212/0214 4000 -DZ BKN007\n",
            "         PROB30 TEMPO 0212/0213 BKN004\n",
            "         BECMG 0214/0216 12005KT\n",
            "         PROB30 TEMPO 0214/0216 -DZ BKN010\n",
            "         BECMG 0219/0221 VRB03KT\n",
            "         PROB40 TEMPO 0303/0308 -DZ BKN012\n",
            "         BECMG 0307/0309 13007KT='\n",
            "Error parsing METAR: Unparsed groups in body 'TAF AMD 0216/0312 0216/0223 15005KT 0216/0218 FEW010 BKN015 PROB40 0302/0305 -DZ BKN010 0304/0306 10005KT 0305/0310 BKN010 PROB30 0306/0309 4000 -DZ BKN006 0308/0310 13008KT' while processing 'TAF AMD EIDW 021634Z 0216/0312 VRB03KT 9999 BKN012\n",
            "         TEMPO 0216/0223 15005KT\n",
            "         BECMG 0216/0218 FEW010 BKN015\n",
            "         PROB40 TEMPO 0302/0305 -DZ BKN010\n",
            "         BECMG 0304/0306 10005KT\n",
            "         TEMPO 0305/0310 BKN010\n",
            "         PROB30 TEMPO 0306/0309 4000 -DZ BKN006\n",
            "         BECMG 0308/0310 13008KT='\n",
            "Error parsing METAR: Unparsed groups in body 'TAF 0218/0318 0218/0223 15005KT PROB40 0218/0221 -DZ BKN012 0302/0310 BKN010 0304/0306 10005KT PROB30 0306/0309 4000 -DZ BKN006 0308/0310 13008KT' while processing 'TAF EIDW 021700Z 0218/0318 VRB03KT 9999 FEW010 BKN015\n",
            "         TEMPO 0218/0223 15005KT\n",
            "         PROB40 TEMPO 0218/0221 -DZ BKN012\n",
            "         TEMPO 0302/0310 BKN010\n",
            "         BECMG 0304/0306 10005KT\n",
            "         PROB30 TEMPO 0306/0309 4000 -DZ BKN006\n",
            "         BECMG 0308/0310 13008KT='\n",
            "Error parsing METAR: Unparsed groups in body 'TAF AMD 0221/0318 0221/0310 BKN010 0304/0306 10006KT PROB30 0305/0309 4000 -DZ BKN006 0308/0310 13008KT' while processing 'TAF AMD EIDW 022139Z 0221/0318 VRB03KT 9999 FEW010 BKN015\n",
            "         TEMPO 0221/0310 BKN010\n",
            "         BECMG 0304/0306 10006KT\n",
            "         PROB30 TEMPO 0305/0309 4000 -DZ BKN006\n",
            "         BECMG 0308/0310 13008KT='\n",
            "Error parsing METAR: Unparsed groups in body 'TAF 0300/0324 0300/0311 BKN010 PROB30 0300/0305 4000 -DZ BKN008 0305/0307 10007KT PROB30 0305/0310 3000 -DZ BR BKN005 0309/0311 13008KT PROB30 0311/0324 -DZ BKN012' while processing 'TAF EIDW 022300Z 0300/0324 VRB03KT 8000 SCT010 BKN015\n",
            "         TEMPO 0300/0311 BKN010\n",
            "         PROB30 TEMPO 0300/0305 4000 -DZ BKN008\n",
            "         BECMG 0305/0307 10007KT\n",
            "         PROB30 TEMPO 0305/0310 3000 -DZ BR BKN005\n",
            "         BECMG 0309/0311 13008KT\n",
            "         PROB30 TEMPO 0311/0324 -DZ BKN012='\n",
            "Error parsing METAR: Unparsed groups in body 'TAF 0306/0406 0306/0406 BKN012 PROB30 0306/0310 4000 -DZ BR BKN006 0307/0309 10007KT 0309/0311 13008KT PROB30 0321/0406 4000 -DZ BKN008' while processing 'TAF EIDW 030500Z 0306/0406 VRB03KT 9999 SCT012 BKN015\n",
            "         TEMPO 0306/0406 BKN012\n",
            "         PROB30 TEMPO 0306/0310 4000 -DZ BR BKN006\n",
            "         BECMG 0307/0309 10007KT\n",
            "         BECMG 0309/0311 13008KT\n",
            "         PROB30 TEMPO 0321/0406 4000 -DZ BKN008='\n",
            "Error parsing METAR: Unparsed groups in body 'TAF 0312/0412 0312/0412 BKN012 PROB30 0321/0407 4000 -DZ BKN008' while processing 'TAF EIDW 031100Z 0312/0412 13007KT 9999 SCT012 BKN015\n",
            "         TEMPO 0312/0412 BKN012\n",
            "         PROB30 TEMPO 0321/0407 4000 -DZ BKN008='\n",
            "Error parsing METAR: Unparsed groups in body 'TAF 0318/0418 0321/0409 BKN012 PROB30 0321/0407 4000 -DZ BKN008' while processing 'TAF EIDW 031700Z 0318/0418 13007KT 9999 SCT018 BKN025\n",
            "         TEMPO 0321/0409 BKN012\n",
            "         PROB30 TEMPO 0321/0407 4000 -DZ BKN008='\n",
            "Error parsing METAR: Unparsed groups in body 'TAF 0400/0424 0400/0409 BKN010 PROB30 0400/0407 4000 -DZ BKN008' while processing 'TAF EIDW 032300Z 0400/0424 14007KT 9999 SCT010 BKN025\n",
            "         TEMPO 0400/0409 BKN010\n",
            "         PROB30 TEMPO 0400/0407 4000 -DZ BKN008='\n",
            "Error parsing METAR: Unparsed groups in body 'TAF 0406/0506 0406/0409 BKN010 PROB30 0406/0408 3000 -DZ BR BKN005 0504/0506 BKN010 PROB40 0505/0506 3000 -DZ BKN005' while processing 'TAF EIDW 040500Z 0406/0506 13007KT 9999 SCT005 BKN025\n",
            "         TEMPO 0406/0409 BKN010\n",
            "         PROB30 TEMPO 0406/0408 3000 -DZ BR BKN005\n",
            "         TEMPO 0504/0506 BKN010\n",
            "         PROB40 TEMPO 0505/0506 3000 -DZ BKN005='\n",
            "Error parsing METAR: Unparsed groups in body 'TAF 0412/0512 PROB40 0505/0508 4000 -DZ BKN005 0508/0512 3000 -DZ BKN005 PROB30 0509/0512 2000 BR BKN003' while processing 'TAF EIDW 041100Z 0412/0512 14008KT 9999 FEW015 BKN040\n",
            "         PROB40 TEMPO 0505/0508 4000 -DZ BKN005\n",
            "         TEMPO 0508/0512 3000 -DZ BKN005\n",
            "         PROB30 TEMPO 0509/0512 2000 BR BKN003='\n",
            "Error parsing METAR: Unparsed groups in body 'TAF 0418/0518 PROB40 0505/0508 4000 -DZ BKN007 0508/0514 3000 -DZ BKN005 PROB30 0509/0513 2000 BR BKN003 PROB30 0514/0517 3000 -DZ BKN007' while processing 'TAF EIDW 041700Z 0418/0518 13007KT 9999 FEW015 BKN044\n",
            "         PROB40 TEMPO 0505/0508 4000 -DZ BKN007\n",
            "         TEMPO 0508/0514 3000 -DZ BKN005\n",
            "         PROB30 TEMPO 0509/0513 2000 BR BKN003\n",
            "         PROB30 TEMPO 0514/0517 3000 -DZ BKN007='\n",
            "Error parsing METAR: Unparsed groups in body 'TAF AMD 0418/0518 0418/0421 08007KT PROB40 0505/0508 4000 -DZ BKN007 0508/0514 3000 -DZ BKN005 PROB30 0509/0513 2000 BR BKN003 PROB30 0514/0517 3000 -DZ BKN007' while processing 'TAF AMD EIDW 041819Z 0418/0518 13007KT 9999 FEW015 BKN040\n",
            "         TEMPO 0418/0421 08007KT\n",
            "         PROB40 TEMPO 0505/0508 4000 -DZ BKN007\n",
            "         TEMPO 0508/0514 3000 -DZ BKN005\n",
            "         PROB30 TEMPO 0509/0513 2000 BR BKN003\n",
            "         PROB30 TEMPO 0514/0517 3000 -DZ BKN007='\n",
            "Error parsing METAR: Unparsed groups in body 'TAF 0500/0524 0500/0508 BKN012 0504/0506 14008KT PROB40 0504/0508 4000 -DZ BKN007 0508/0510 -DZ BKN007 PROB30 0509/0514 2000 BR BKN003 PROB30 0514/0517 3000 0517/0519 VRB03KT 0517/0524 SCT007 BKN015' while processing 'TAF EIDW 042300Z 0500/0524 VRB03KT 9999 SCT012 BKN025\n",
            "         TEMPO 0500/0508 BKN012\n",
            "         BECMG 0504/0506 14008KT\n",
            "         PROB40 TEMPO 0504/0508 4000 -DZ BKN007\n",
            "         BECMG 0508/0510 -DZ BKN007\n",
            "         PROB30 TEMPO 0509/0514 2000 BR BKN003\n",
            "         PROB30 TEMPO 0514/0517 3000\n",
            "         BECMG 0517/0519 VRB03KT\n",
            "         TEMPO 0517/0524 SCT007 BKN015='\n",
            "Error parsing METAR: Unparsed groups in body 'TAF 0506/0606 0506/0508 14009KT PROB40 0506/0508 4000 -DZ BKN007 0508/0510 -DZ BKN007 PROB30 0509/0513 2000 BR BKN003 0513/0515 SCT007 BKN015 0515/0606 BKN007 0517/0519 VRB03KT' while processing 'TAF EIDW 050500Z 0506/0606 VRB03KT 9999 SCT012 BKN025\n",
            "         BECMG 0506/0508 14009KT\n",
            "         PROB40 TEMPO 0506/0508 4000 -DZ BKN007\n",
            "         BECMG 0508/0510 -DZ BKN007\n",
            "         PROB30 TEMPO 0509/0513 2000 BR BKN003\n",
            "         BECMG 0513/0515 SCT007 BKN015\n",
            "         TEMPO 0515/0606 BKN007\n",
            "         BECMG 0517/0519 VRB03KT='\n",
            "Error parsing METAR: Unparsed groups in body 'TAF 0512/0612 PROB30 0512/0513 2000 -DZ BR BKN003 0513/0515 SCT007 BKN015 0515/0607 BKN007 0517/0519 VRB03KT 0610/0612 12005KT' while processing 'TAF EIDW 051100Z 0512/0612 14008KT 9999 BKN007\n",
            "         PROB30 TEMPO 0512/0513 2000 -DZ BR BKN003\n",
            "         BECMG 0513/0515 SCT007 BKN015\n",
            "         TEMPO 0515/0607 BKN007\n",
            "         BECMG 0517/0519 VRB03KT\n",
            "         BECMG 0610/0612 12005KT='\n",
            "Error parsing METAR: Unparsed groups in body 'TAF 0518/0618 0518/0607 BKN010 0518/0520 VRB03KT 0607/0609 12005KT PROB30 0616/0618 1500 BR BKN003' while processing 'TAF EIDW 051700Z 0518/0618 14005KT 9999 FEW010 BKN025\n",
            "         TEMPO 0518/0607 BKN010\n",
            "         BECMG 0518/0520 VRB03KT\n",
            "         BECMG 0607/0609 12005KT\n",
            "         PROB30 TEMPO 0616/0618 1500 BR BKN003='\n",
            "Error parsing METAR: Unparsed groups in body 'TAF 0600/0624 PROB30 0602/0607 3000 BR BKN005 PROB30 0616/0622 1500 BR BKN003' while processing 'TAF EIDW 052300Z 0600/0624 14006KT 9999 FEW010 BKN020\n",
            "         PROB30 TEMPO 0602/0607 3000 BR BKN005\n",
            "         PROB30 TEMPO 0616/0622 1500 BR BKN003='\n",
            "Error parsing METAR: Unparsed groups in body 'TAF 0606/0706 PROB30 0606/0610 3000 BR BKN005 PROB30 0616/0706 1500 BR BKN003 PROB30 0700/0706 BKN005' while processing 'TAF EIDW 060500Z 0606/0706 14007KT 9999 FEW015 BKN040\n",
            "         PROB30 TEMPO 0606/0610 3000 BR BKN005\n",
            "         PROB30 TEMPO 0616/0706 1500 BR BKN003\n",
            "         PROB30 TEMPO 0700/0706 BKN005='\n",
            "Error parsing METAR: Unparsed groups in body 'TAF 0612/0712 PROB40 0615/0706 1500 BR BKN003 PROB30 0618/0620 0500 FG BKN001 0700/0710 BKN005 0705/0707 15013KT 0710/0712 BKN010' while processing 'TAF EIDW 061100Z 0612/0712 14008KT 8000 FEW004 BKN043\n",
            "         PROB40 TEMPO 0615/0706 1500 BR BKN003\n",
            "         PROB30 TEMPO 0618/0620 0500 FG BKN001\n",
            "         TEMPO 0700/0710 BKN005\n",
            "         BECMG 0705/0707 15013KT\n",
            "         TEMPO 0710/0712 BKN010='\n",
            "Error parsing METAR: Unparsed groups in body 'TAF 0618/0718 PROB40 0618/0706 1500 BR BKN003 PROB30 0618/0621 0500 FG BKN001 0700/0710 BKN005 0705/0707 15013KT 0710/0717 BKN010' while processing 'TAF EIDW 061700Z 0618/0718 14008KT 8000 FEW005 BKN044\n",
            "         PROB40 TEMPO 0618/0706 1500 BR BKN003\n",
            "         PROB30 TEMPO 0618/0621 0500 FG BKN001\n",
            "         TEMPO 0700/0710 BKN005\n",
            "         BECMG 0705/0707 15013KT\n",
            "         TEMPO 0710/0717 BKN010='\n",
            "Error parsing METAR: Unparsed groups in body 'TAF 0700/0724 0700/0710 BKN006 PROB40 0703/0706 1500 BR BKN003 0710/0724 BKN010 PROB30 0721/0724 BKN006' while processing 'TAF EIDW 062300Z 0700/0724 15012KT 8000 FEW004 BKN015\n",
            "         TEMPO 0700/0710 BKN006\n",
            "         PROB40 TEMPO 0703/0706 1500 BR BKN003\n",
            "         TEMPO 0710/0724 BKN010\n",
            "         PROB30 TEMPO 0721/0724 BKN006='\n",
            "Error parsing METAR: Unparsed groups in body 'TAF 0706/0806 0706/0710 BKN007 0710/0806 BKN010 PROB30 0721/0801 BKN006' while processing 'TAF EIDW 070500Z 0706/0806 15013KT 9999 FEW007 BKN018\n",
            "         TEMPO 0706/0710 BKN007\n",
            "         TEMPO 0710/0806 BKN010\n",
            "         PROB30 TEMPO 0721/0801 BKN006='\n",
            "Error parsing METAR: Unparsed groups in body 'TAF 0712/0812 0712/0720 11009KT FEW010 BKN016 PROB40 0712/0716 -DZ BKN007 0720/0806 -DZ BKN006 0806/0808 FEW010 BKN016 0808/0812 BKN010' while processing 'TAF EIDW 071100Z 0712/0812 14011KT 9999 FEW007 BKN010\n",
            "         TEMPO 0712/0720 11009KT FEW010 BKN016\n",
            "         PROB40 TEMPO 0712/0716 -DZ BKN007\n",
            "         TEMPO 0720/0806 -DZ BKN006\n",
            "         BECMG 0806/0808 FEW010 BKN016\n",
            "         TEMPO 0808/0812 BKN010='\n",
            "Error parsing METAR: Unparsed groups in body 'TAF 0718/0818 0718/0721 16014KT BKN010 0721/0723 FEW007 BKN010 0723/0806 -DZ BKN007 0806/0808 FEW012 BKN016 0808/0818 BKN012' while processing 'TAF EIDW 071700Z 0718/0818 13011KT 9999 FEW010 BKN018\n",
            "         TEMPO 0718/0721 16014KT BKN010\n",
            "         BECMG 0721/0723 FEW007 BKN010\n",
            "         TEMPO 0723/0806 -DZ BKN007\n",
            "         BECMG 0806/0808 FEW012 BKN016\n",
            "         TEMPO 0808/0818 BKN012='\n",
            "Error parsing METAR: Unparsed groups in body 'TAF 0800/0824 0800/0806 -DZ BKN007 0806/0808 FEW012 BKN018 0808/0819 BKN012 0822/0824 16005KT' while processing 'TAF EIDW 072300Z 0800/0824 13010KT 9999 FEW007 BKN010\n",
            "         TEMPO 0800/0806 -DZ BKN007\n",
            "         BECMG 0806/0808 FEW012 BKN018\n",
            "         TEMPO 0808/0819 BKN012\n",
            "         BECMG 0822/0824 16005KT='\n",
            "Error parsing METAR: Unparsed groups in body 'TAF 0806/0906 0806/0808 FEW012 BKN018 0808/0819 BKN012 0822/0824 16005KT' while processing 'TAF EIDW 080500Z 0806/0906 13010KT 9999 FEW007 BKN010\n",
            "         BECMG 0806/0808 FEW012 BKN018\n",
            "         TEMPO 0808/0819 BKN012\n",
            "         BECMG 0822/0824 16005KT='\n",
            "Error parsing METAR: Unparsed groups in body 'TAF 0812/0912 0812/0819 BKN010 0822/0824 16005KT 0905/0907 13008KT PROB40 0907/0912 BKN012' while processing 'TAF EIDW 081100Z 0812/0912 13010KT 9999 SCT010 BKN018\n",
            "         TEMPO 0812/0819 BKN010\n",
            "         BECMG 0822/0824 16005KT\n",
            "         BECMG 0905/0907 13008KT\n",
            "         PROB40 TEMPO 0907/0912 BKN012='\n",
            "Error parsing METAR: Unparsed groups in body 'TAF AMD 0816/0912 0816/0818 9999 NSW SCT010 BKN020 0818/0820 -DZ BKN010 PROB40 0818/0820 4000 -RADZ BKN007 0822/0824 16005KT 0905/0907 13008KT PROB40 0907/0912 BKN012' while processing 'TAF AMD EIDW 081604Z 0816/0912 13010KT 4000 -RADZ BKN007\n",
            "         BECMG 0816/0818 9999 NSW SCT010 BKN020\n",
            "         TEMPO 0818/0820 -DZ BKN010\n",
            "         PROB40 TEMPO 0818/0820 4000 -RADZ BKN007\n",
            "         BECMG 0822/0824 16005KT\n",
            "         BECMG 0905/0907 13008KT\n",
            "         PROB40 TEMPO 0907/0912 BKN012='\n",
            "Error parsing METAR: Unparsed groups in body 'TAF 0818/0918 0818/0820 9999 NSW SCT010 BKN015 0901/0903 15005KT 0907/0909 13010KT 0907/0918 BKN012 PROB30 0907/0912 4000 -DZ BKN008' while processing 'TAF EIDW 081700Z 0818/0918 14010KT 4000 -DZ BKN007\n",
            "         BECMG 0818/0820 9999 NSW SCT010 BKN015\n",
            "         BECMG 0901/0903 15005KT\n",
            "         BECMG 0907/0909 13010KT\n",
            "         TEMPO 0907/0918 BKN012\n",
            "         PROB30 TEMPO 0907/0912 4000 -DZ BKN008='\n",
            "Error parsing METAR: Unparsed groups in body 'TAF AMD 0820/0918 0820/0822 9999 NSW SCT010 BKN015 0901/0903 15005KT 0907/0909 13010KT 0907/0918 BKN012 PROB30 0907/0912 4000 -DZ BKN008' while processing 'TAF AMD EIDW 082008Z 0820/0918 14010KT 4000 -DZ BKN009\n",
            "         BECMG 0820/0822 9999 NSW SCT010 BKN015\n",
            "         BECMG 0901/0903 15005KT\n",
            "         BECMG 0907/0909 13010KT\n",
            "         TEMPO 0907/0918 BKN012\n",
            "         PROB30 TEMPO 0907/0912 4000 -DZ BKN008='\n",
            "Error parsing METAR: Unparsed groups in body 'TAF AMD 0822/0918 0822/0824 SCT010 BKN015 PROB30 0900/0902 BKN010 0900/0902 14008KT 0907/0918 BKN010 PROB40 0907/0912 4000 -DZ BKN007' while processing 'TAF AMD EIDW 082234Z 0822/0918 17008KT 9999 BKN009\n",
            "         BECMG 0822/0824 SCT010 BKN015\n",
            "         PROB30 TEMPO 0900/0902 BKN010\n",
            "         BECMG 0900/0902 14008KT\n",
            "         TEMPO 0907/0918 BKN010\n",
            "         PROB40 TEMPO 0907/0912 4000 -DZ BKN007='\n",
            "Error parsing METAR: Unparsed groups in body 'TAF AMD 0903/0924 0903/0924 -DZ BKN010 PROB40 0907/0912 4000 -DZ BKN007 PROB40 0918/0924 3000 -DZ BR BKN005' while processing 'TAF AMD EIDW 090355Z 0903/0924 14008KT 9999 SCT010 BKN017\n",
            "         TEMPO 0903/0924 -DZ BKN010\n",
            "         PROB40 TEMPO 0907/0912 4000 -DZ BKN007\n",
            "         PROB40 TEMPO 0918/0924 3000 -DZ BR BKN005='\n",
            "Error parsing METAR: Unparsed groups in body 'TAF AMD 0900/0924 0900/0903 17008KT -DZ BKN009 0907/0924 BKN010 PROB40 0907/0912 4000 -DZ BKN007 PROB40 0918/0924 3000 -DZ BR BKN005' while processing 'TAF AMD EIDW 090034Z 0900/0924 14008KT 9999 SCT010 BKN017\n",
            "         TEMPO 0900/0903 17008KT -DZ BKN009\n",
            "         TEMPO 0907/0924 BKN010\n",
            "         PROB40 TEMPO 0907/0912 4000 -DZ BKN007\n",
            "         PROB40 TEMPO 0918/0924 3000 -DZ BR BKN005='\n",
            "Error parsing METAR: Unparsed groups in body 'TAF AMD 0903/0924 0903/0924 -DZ BKN010 PROB40 0907/0912 4000 -DZ BKN007 PROB40 0918/0924 3000 -DZ BR BKN005' while processing 'TAF AMD EIDW 090355Z 0903/0924 14008KT 9999 SCT010 BKN017\n",
            "         TEMPO 0903/0924 -DZ BKN010\n",
            "         PROB40 TEMPO 0907/0912 4000 -DZ BKN007\n",
            "         PROB40 TEMPO 0918/0924 3000 -DZ BR BKN005='\n",
            "Error parsing METAR: Unparsed groups in body 'TAF 0906/1006 0906/0912 4000 -DZ BKN008 0912/1001 BKN010 PROB40 0918/0924 3000 -DZ BR BKN005 1000/1002 VRB03KT PROB40 1001/1006 4000 -RA BR BKN010 1004/1006 23005KT' while processing 'TAF EIDW 090500Z 0906/1006 14008KT 9999 SCT010 BKN017\n",
            "         TEMPO 0906/0912 4000 -DZ BKN008\n",
            "         TEMPO 0912/1001 BKN010\n",
            "         PROB40 TEMPO 0918/0924 3000 -DZ BR BKN005\n",
            "         BECMG 1000/1002 VRB03KT\n",
            "         PROB40 TEMPO 1001/1006 4000 -RA BR BKN010\n",
            "         BECMG 1004/1006 23005KT='\n",
            "Error parsing METAR: Unparsed groups in body 'TAF 0912/1012 PROB40 0918/1001 3000 -DZ BR BKN004 PROB40 1000/1004 VRB03KT 1004/1006 25008KT PROB40 1004/1012 4000 -RA BR BKN008' while processing 'TAF EIDW 091100Z 0912/1012 13010KT 8000 BKN008 BKN020\n",
            "         PROB40 TEMPO 0918/1001 3000 -DZ BR BKN004\n",
            "         PROB40 TEMPO 1000/1004 VRB03KT\n",
            "         BECMG 1004/1006 25008KT\n",
            "         PROB40 TEMPO 1004/1012 4000 -RA BR BKN008='\n",
            "Error parsing METAR: Unparsed groups in body 'TAF AMD 0913/1012 0913/0918 SCT008 PROB40 0918/1001 3000 -DZ BR BKN004 PROB40 1000/1004 VRB03KT 1004/1006 25008KT PROB40 1004/1012 4000 -RA BR BKN008' while processing 'TAF AMD EIDW 091333Z 0913/1012 13010KT 8000 BKN008 BKN020\n",
            "         TEMPO 0913/0918 SCT008\n",
            "         PROB40 TEMPO 0918/1001 3000 -DZ BR BKN004\n",
            "         PROB40 TEMPO 1000/1004 VRB03KT\n",
            "         BECMG 1004/1006 25008KT\n",
            "         PROB40 TEMPO 1004/1012 4000 -RA BR BKN008='\n",
            "Error parsing METAR: Unparsed groups in body 'TAF AMD 0915/1012 0915/0918 BKN008 PROB40 0918/1001 3000 -DZ BR BKN004 PROB40 1000/1004 VRB03KT 1004/1006 25008KT PROB40 1004/1012 4000 -RA BR BKN008' while processing 'TAF AMD EIDW 091529Z 0915/1012 13010KT 9000 SCT008 BKN025\n",
            "         TEMPO 0915/0918 BKN008\n",
            "         PROB40 TEMPO 0918/1001 3000 -DZ BR BKN004\n",
            "         PROB40 TEMPO 1000/1004 VRB03KT\n",
            "         BECMG 1004/1006 25008KT\n",
            "         PROB40 TEMPO 1004/1012 4000 -RA BR BKN008='\n",
            "Error parsing METAR: Unparsed groups in body 'TAF 0918/1018 0918/1001 BKN008 PROB40 0918/1001 3000 -DZ BR BKN004 1003/1005 24008KT PROB40 1004/1015 4000 -RA BR BKN008 1014/1016 30010KT' while processing 'TAF EIDW 091700Z 0918/1018 14008KT 9999 SCT005 BKN025\n",
            "         TEMPO 0918/1001 BKN008\n",
            "         PROB40 TEMPO 0918/1001 3000 -DZ BR BKN004\n",
            "         BECMG 1003/1005 24008KT\n",
            "         PROB40 TEMPO 1004/1015 4000 -RA BR BKN008\n",
            "         BECMG 1014/1016 30010KT='\n",
            "Error parsing METAR: Unparsed groups in body 'TAF 1000/1024 1000/1002 VRB03KT PROB40 1000/1007 BKN008 PROB30 1000/1008 4000 -DZ BR 1004/1006 24008KT 1007/1009 BKN007 1008/1014 4000 -RADZ PROB30 1008/1013 2500 -DZ BR BKN004 1014/1016 31012KT FEW012 BKN025 1016/1018 29007KT' while processing 'TAF EIDW 092300Z 1000/1024 15005KT 9999 FEW008 BKN025\n",
            "         BECMG 1000/1002 VRB03KT\n",
            "         PROB40 TEMPO 1000/1007 BKN008\n",
            "         PROB30 TEMPO 1000/1008 4000 -DZ BR\n",
            "         BECMG 1004/1006 24008KT\n",
            "         BECMG 1007/1009 BKN007\n",
            "         TEMPO 1008/1014 4000 -RADZ\n",
            "         PROB30 TEMPO 1008/1013 2500 -DZ BR BKN004\n",
            "         BECMG 1014/1016 31012KT FEW012 BKN025\n",
            "         BECMG 1016/1018 29007KT='\n",
            "Error parsing METAR: Unparsed groups in body 'TAF 1006/1106 1006/1008 24008KT PROB40 1006/1007 4000 -DZ BR BKN010 1007/1015 4000 -RADZ BKN008 PROB30 1008/1013 2500 -DZ BR BKN004 1014/1016 31012KT 1016/1018 29007KT PROB30 1104/1106 4000 BR' while processing 'TAF EIDW 100500Z 1006/1106 VRB03KT 9999 FEW008 BKN025\n",
            "         BECMG 1006/1008 24008KT\n",
            "         PROB40 TEMPO 1006/1007 4000 -DZ BR BKN010\n",
            "         TEMPO 1007/1015 4000 -RADZ BKN008\n",
            "         PROB30 TEMPO 1008/1013 2500 -DZ BR BKN004\n",
            "         BECMG 1014/1016 31012KT\n",
            "         BECMG 1016/1018 29007KT\n",
            "         PROB30 TEMPO 1104/1106 4000 BR='\n",
            "Error parsing METAR: Unparsed groups in body 'TAF 1012/1112 PROB40 1012/1014 4000 -RADZ BKN006 1013/1015 31012KT 1016/1018 29007KT PROB30 1104/1107 4000 BR' while processing 'TAF EIDW 101100Z 1012/1112 27010KT 9999 FEW006\n",
            "         PROB40 TEMPO 1012/1014 4000 -RADZ BKN006\n",
            "         BECMG 1013/1015 31012KT\n",
            "         BECMG 1016/1018 29007KT\n",
            "         PROB30 TEMPO 1104/1107 4000 BR='\n",
            "Error parsing METAR: Unparsed groups in body 'TAF 1018/1118 PROB30 1104/1107 4000 BR' while processing 'TAF EIDW 101700Z 1018/1118 31007KT 9999 FEW010 SCT030\n",
            "         PROB30 TEMPO 1104/1107 4000 BR='\n",
            "Error parsing METAR: Unparsed groups in body 'TAF AMD 1021/1118 PROB30 1104/1107 4000 BR' while processing 'TAF AMD EIDW 102103Z 1021/1118 28007KT 9999 FEW010 SCT030\n",
            "         PROB30 TEMPO 1104/1107 4000 BR='\n",
            "Error parsing METAR: Unparsed groups in body 'TAF 1100/1124 PROB30 1104/1107 4000 BR' while processing 'TAF EIDW 102300Z 1100/1124 28006KT 9999 FEW015\n",
            "         PROB30 TEMPO 1104/1107 4000 BR='\n",
            "Error parsing METAR: Unparsed groups in body 'TAF 1106/1206 PROB30 1106/1107 4000 BR 1110/1112 34007KT PROB40 1200/1204 4000 BR PROB40 1204/1206 0500 FG BKN001' while processing 'TAF EIDW 110500Z 1106/1206 28007KT 9999 FEW010\n",
            "         PROB30 TEMPO 1106/1107 4000 BR\n",
            "         BECMG 1110/1112 34007KT\n",
            "         PROB40 TEMPO 1200/1204 4000 BR\n",
            "         PROB40 TEMPO 1204/1206 0500 FG BKN001='\n",
            "Error parsing METAR: Unparsed groups in body 'TAF 1112/1212 PROB40 1200/1204 4000 BR PROB40 1204/1210 0500 FG BKN001' while processing 'TAF EIDW 111100Z 1112/1212 VRB03KT 9999 FEW010 BKN040\n",
            "         PROB40 TEMPO 1200/1204 4000 BR\n",
            "         PROB40 TEMPO 1204/1210 0500 FG BKN001='\n",
            "Error parsing METAR: Unparsed groups in body 'TAF 1118/1218 PROB40 1120/1205 3000 BR SCT005 1122/1124 06008KT 1205/1207 VRB03KT PROB40 1205/1210 0500 FG BKN001 1211/1213 02008KT' while processing 'TAF EIDW 111700Z 1118/1218 VRB03KT 9999 FEW008 SCT040\n",
            "         PROB40 TEMPO 1120/1205 3000 BR SCT005\n",
            "         BECMG 1122/1124 06008KT\n",
            "         BECMG 1205/1207 VRB03KT\n",
            "         PROB40 TEMPO 1205/1210 0500 FG BKN001\n",
            "         BECMG 1211/1213 02008KT='\n",
            "Error parsing METAR: Unparsed groups in body 'TAF 1200/1224 1200/1205 3000 BR PROB40 1205/1210 0500 FG BKN001 1220/1224 3000 BR' while processing 'TAF EIDW 112300Z 1200/1224 29005KT 8000 FEW005\n",
            "         TEMPO 1200/1205 3000 BR\n",
            "         PROB40 TEMPO 1205/1210 0500 FG BKN001\n",
            "         TEMPO 1220/1224 3000 BR='\n",
            "Error parsing METAR: Unparsed groups in body 'TAF 1200/1224 1200/1210 0500 FG BKN001 1220/1224 3000 BR' while processing 'TAF COR EIDW 112326Z 1200/1224 29005KT 8000 FEW005\n",
            "         TEMPO 1200/1210 0500 FG BKN001\n",
            "         TEMPO 1220/1224 3000 BR='\n",
            "Error parsing METAR: Unparsed groups in body 'TAF 1206/1306 1206/1210 0500 FG BKN001 1220/1306 3000 BR PROB40 1300/1306 0500 FG BKN001' while processing 'TAF EIDW 120500Z 1206/1306 29005KT 8000 FEW005\n",
            "         TEMPO 1206/1210 0500 FG BKN001\n",
            "         TEMPO 1220/1306 3000 BR\n",
            "         PROB40 TEMPO 1300/1306 0500 FG BKN001='\n",
            "Error parsing METAR: Unparsed groups in body 'TAF 1212/1312 1218/1307 3000 BR PROB40 1218/1306 0500 FG BKN001 1302/1304 26005KT' while processing 'TAF EIDW 121100Z 1212/1312 29005KT 9999 FEW008\n",
            "         TEMPO 1218/1307 3000 BR\n",
            "         PROB40 TEMPO 1218/1306 0500 FG BKN001\n",
            "         BECMG 1302/1304 26005KT='\n",
            "Error parsing METAR: Unparsed groups in body 'TAF AMD 1214/1312 1214/1218 VRB03KT 1218/1307 3000 BR PROB40 1218/1306 0500 FG BKN001 1302/1304 26005KT' while processing 'TAF AMD EIDW 121416Z 1214/1312 29005KT 9999 FEW008\n",
            "         TEMPO 1214/1218 VRB03KT\n",
            "         TEMPO 1218/1307 3000 BR\n",
            "         PROB40 TEMPO 1218/1306 0500 FG BKN001\n",
            "         BECMG 1302/1304 26005KT='\n",
            "Error parsing METAR: Unparsed groups in body 'TAF 1218/1318 1218/1219 VRB03KT 1219/1221 3000 BR PROB40 1219/1306 0500 FG BKN001 1302/1304 26005KT 1306/1308 9999 NSW PROB30 1307/1310 3000 BR BKN003 PROB30 1314/1316 -DZ BKN008' while processing 'TAF EIDW 121700Z 1218/1318 29005KT 9999 FEW010\n",
            "         TEMPO 1218/1219 VRB03KT\n",
            "         BECMG 1219/1221 3000 BR\n",
            "         PROB40 1219/1306 0500 FG BKN001\n",
            "         BECMG 1302/1304 26005KT\n",
            "         BECMG 1306/1308 9999 NSW\n",
            "         PROB30 TEMPO 1307/1310 3000 BR BKN003\n",
            "         PROB30 TEMPO 1314/1316 -DZ BKN008='\n",
            "Error parsing METAR: Unparsed groups in body 'TAF AMD 1221/1318 1223/1301 3000 BR PROB40 1223/1306 0500 FG BKN001 1302/1304 26005KT 1306/1308 9999 NSW PROB30 1307/1310 3000 BR BKN003 PROB30 1314/1316 -DZ BKN008' while processing 'TAF AMD EIDW 122135Z 1221/1318 29005KT 9999 FEW010\n",
            "         BECMG 1223/1301 3000 BR\n",
            "         PROB40 1223/1306 0500 FG BKN001\n",
            "         BECMG 1302/1304 26005KT\n",
            "         BECMG 1306/1308 9999 NSW\n",
            "         PROB30 TEMPO 1307/1310 3000 BR BKN003\n",
            "         PROB30 TEMPO 1314/1316 -DZ BKN008='\n",
            "Error parsing METAR: Unparsed groups in body 'TAF 1300/1324 1300/1305 3000 BR SCT003 PROB40 1300/1305 0500 FG BKN001 1305/1307 FEW005 BKN014 PROB40 1306/1311 3000 BR BKN003 PROB30 1312/1319 -DZ BKN008 PROB30 1320/1324 3000 -DZ BR BKN003' while processing 'TAF EIDW 122300Z 1300/1324 27006KT 9999 FEW010\n",
            "         TEMPO 1300/1305 3000 BR SCT003\n",
            "         PROB40 1300/1305 0500 FG BKN001\n",
            "         BECMG 1305/1307 FEW005 BKN014\n",
            "         PROB40 TEMPO 1306/1311 3000 BR BKN003\n",
            "         PROB30 TEMPO 1312/1319 -DZ BKN008\n",
            "         PROB30 TEMPO 1320/1324 3000 -DZ BR BKN003='\n",
            "Error parsing METAR: Unparsed groups in body 'TAF 1306/1406 PROB40 1306/1314 3000 BR BKN003 PROB40 1315/1406 5000 -DZ BKN008 PROB30 1320/1404 3000 -DZ BR BKN003' while processing 'TAF EIDW 130500Z 1306/1406 27006KT 9999 FEW007 BKN020\n",
            "         PROB40 TEMPO 1306/1314 3000 BR BKN003\n",
            "         PROB40 TEMPO 1315/1406 5000 -DZ BKN008\n",
            "         PROB30 TEMPO 1320/1404 3000 -DZ BR BKN003='\n",
            "Error parsing METAR: Unparsed groups in body 'TAF AMD 1306/1406 PROB40 1306/1314 3000 BR BKN003 PROB30 1306/1310 0500 FG BKN001 PROB40 1315/1406 5000 -DZ BKN008 PROB30 1320/1404 3000 -DZ BR BKN003' while processing 'TAF AMD EIDW 130516Z 1306/1406 27006KT 9999 FEW007 BKN020\n",
            "         PROB40 TEMPO 1306/1314 3000 BR BKN003\n",
            "         PROB30 TEMPO 1306/1310 0500 FG BKN001\n",
            "         PROB40 TEMPO 1315/1406 5000 -DZ BKN008\n",
            "         PROB30 TEMPO 1320/1404 3000 -DZ BR BKN003='\n",
            "Error parsing METAR: Unparsed groups in body 'TAF AMD 1308/1406 PROB30 1308/1310 0400 BKN001 1309/1311 3000 BR BKN005 1311/1313 8000 NSW SCT020 PROB40 1315/1406 5000 BR BKN008 PROB30 1320/1404 3000 -DZ BR BKN003' while processing 'TAF AMD EIDW 130819Z 1308/1406 27006KT 0800 FG BKN002\n",
            "         PROB30 TEMPO 1308/1310 0400 BKN001\n",
            "         BECMG 1309/1311 3000 BR BKN005\n",
            "         BECMG 1311/1313 8000 NSW SCT020\n",
            "         PROB40 TEMPO 1315/1406 5000 BR BKN008\n",
            "         PROB30 TEMPO 1320/1404 3000 -DZ BR BKN003='\n",
            "Error parsing METAR: Unparsed groups in body 'TAF 1312/1412 PROB30 1312/1314 0900 FG BKN002 1312/1314 9999 NSW SCT020 1320/1410 4000 BR BKN008 PROB30 1321/1408 1600 -DZ BR BKN002' while processing 'TAF EIDW 131100Z 1312/1412 28008KT 3000 BR BKN004\n",
            "         PROB30 TEMPO 1312/1314 0900 FG BKN002\n",
            "         BECMG 1312/1314 9999 NSW SCT020\n",
            "         TEMPO 1320/1410 4000 BR BKN008\n",
            "         PROB30 TEMPO 1321/1408 1600 -DZ BR BKN002='\n",
            "Error parsing METAR: Unparsed groups in body 'TAF AMD 1316/1412 1316/1410 2500 BR BKN003 PROB30 1321/1408 1600 -DZ BR BKN002' while processing 'TAF AMD EIDW 131615Z 1316/1412 28008KT 6000 BKN007\n",
            "         TEMPO 1316/1410 2500 BR BKN003\n",
            "         PROB30 TEMPO 1321/1408 1600 -DZ BR BKN002='\n",
            "Error parsing METAR: Unparsed groups in body 'TAF 1318/1418 1318/1418 2500 BR BKN004 PROB30 1320/1408 1600 -DZ BR BKN002' while processing 'TAF EIDW 131700Z 1318/1418 29007KT 6000 BKN007\n",
            "         TEMPO 1318/1418 2500 BR BKN004\n",
            "         PROB30 TEMPO 1320/1408 1600 -DZ BR BKN002='\n",
            "Error parsing METAR: Unparsed groups in body 'TAF AMD 1319/1418 1320/1409 0800 FG BKN001 PROB40 1322/1409 6000 NSW BKN007 1410/1412 6000 NSW BKN010' while processing 'TAF AMD EIDW 131947Z 1319/1418 29007KT 2000 BR BKN003\n",
            "         TEMPO 1320/1409 0800 FG BKN001\n",
            "         PROB40 TEMPO 1322/1409 6000 NSW BKN007\n",
            "         BECMG 1410/1412 6000 NSW BKN010='\n",
            "Error parsing METAR: Unparsed groups in body 'TAF 1400/1424 1400/1415 0800 FG BKN001 PROB40 1400/1415 6000 NSW SCT007 BKN016 1403/1405 30006KT 1415/1417 6000 NSW BKN010 PROB40 1417/1424 3000 -DZ BR BKN005' while processing 'TAF EIDW 132300Z 1400/1424 27008KT 3500 BR SCT002 BKN003\n",
            "         TEMPO 1400/1415 0800 FG BKN001\n",
            "         PROB40 TEMPO 1400/1415 6000 NSW SCT007 BKN016\n",
            "         BECMG 1403/1405 30006KT\n",
            "         BECMG 1415/1417 6000 NSW BKN010\n",
            "         PROB40 TEMPO 1417/1424 3000 -DZ BR BKN005='\n",
            "Error parsing METAR: Unparsed groups in body 'TAF 1406/1506 1406/1415 0800 FG BKN001 PROB40 1406/1415 6000 NSW SCT007 BKN016 1407/1409 29006KT 1415/1417 6000 NSW BKN010 PROB40 1417/1506 3000 -DZ BR BKN005 PROB30 1500/1506 0800 FG BKN001' while processing 'TAF EIDW 140500Z 1406/1506 26008KT 3500 BR SCT002 BKN003\n",
            "         TEMPO 1406/1415 0800 FG BKN001\n",
            "         PROB40 TEMPO 1406/1415 6000 NSW SCT007 BKN016\n",
            "         BECMG 1407/1409 29006KT\n",
            "         BECMG 1415/1417 6000 NSW BKN010\n",
            "         PROB40 TEMPO 1417/1506 3000 -DZ BR BKN005\n",
            "         PROB30 TEMPO 1500/1506 0800 FG BKN001='\n",
            "Error parsing METAR: Unparsed groups in body 'TAF AMD 1407/1506 1407/1417 3000 BR BKN005 PROB40 1407/1415 0800 FG BKN001 1415/1417 BKN010 PROB40 1417/1506 3000 -DZ BR BKN005 PROB30 1500/1506 0800 FG BKN001' while processing 'TAF AMD EIDW 140759Z 1407/1506 29008KT 7000 FEW005 BKN030\n",
            "         TEMPO 1407/1417 3000 BR BKN005\n",
            "         PROB40 TEMPO 1407/1415 0800 FG BKN001\n",
            "         BECMG 1415/1417 BKN010\n",
            "         PROB40 TEMPO 1417/1506 3000 -DZ BR BKN005\n",
            "         PROB30 TEMPO 1500/1506 0800 FG BKN001='\n",
            "Error parsing METAR: Unparsed groups in body 'TAF 1412/1512 1412/1415 BKN005 PROB30 1412/1418 3000 -DZ BR 1418/1420 BKN010 1418/1512 3000 -DZ BR BKN004 1500/1502 26005KT FEW010 BKN030 PROB30 1502/1508 0500 FG BKN001' while processing 'TAF EIDW 141100Z 1412/1512 32006KT 7000 FEW005 BKN020\n",
            "         TEMPO 1412/1415 BKN005\n",
            "         PROB30 TEMPO 1412/1418 3000 -DZ BR\n",
            "         BECMG 1418/1420 BKN010\n",
            "         TEMPO 1418/1512 3000 -DZ BR BKN004\n",
            "         BECMG 1500/1502 26005KT FEW010 BKN030\n",
            "         PROB30 TEMPO 1502/1508 0500 FG BKN001='\n",
            "Error parsing METAR: Unparsed groups in body 'TAF 1412/1512 1412/1418 BKN005 PROB30 1412/1418 3000 -DZ BR 1418/1420 BKN010 1418/1512 3000 -DZ BR BKN004 1500/1502 26005KT FEW010 BKN030 PROB30 1502/1508 0500 FG BKN001' while processing 'TAF COR EIDW 141201Z 1412/1512 32006KT 7000 FEW005 BKN020\n",
            "         TEMPO 1412/1418 BKN005\n",
            "         PROB30 TEMPO 1412/1418 3000 -DZ BR\n",
            "         BECMG 1418/1420 BKN010\n",
            "         TEMPO 1418/1512 3000 -DZ BR BKN004\n",
            "         BECMG 1500/1502 26005KT FEW010 BKN030\n",
            "         PROB30 TEMPO 1502/1508 0500 FG BKN001='\n",
            "Error parsing METAR: Unparsed groups in body 'TAF 1418/1518 1418/1510 3000 -DZ BR BKN005 1500/1502 26005KT FEW008 BKN030 PROB30 1502/1508 0500 FG BKN001 1510/1518 BKN010 1510/1512 23008KT PROB30 1510/1513 3000 -DZ BR BKN005' while processing 'TAF EIDW 141700Z 1418/1518 VRB03KT 7000 BKN010\n",
            "         TEMPO 1418/1510 3000 -DZ BR BKN005\n",
            "         BECMG 1500/1502 26005KT FEW008 BKN030\n",
            "         PROB30 TEMPO 1502/1508 0500 FG BKN001\n",
            "         TEMPO 1510/1518 BKN010\n",
            "         BECMG 1510/1512 23008KT\n",
            "         PROB30 TEMPO 1510/1513 3000 -DZ BR BKN005='\n",
            "Error parsing METAR: Unparsed groups in body 'TAF AMD 1418/1518 1418/1510 3000 -DZ BR BKN004 1500/1502 26005KT FEW008 BKN030 PROB30 1502/1508 0500 FG BKN001 1510/1518 BKN010 1510/1512 23008KT PROB30 1510/1513 3000 -DZ BR BKN005' while processing 'TAF AMD EIDW 141738Z 1418/1518 VRB03KT 7000 BKN010\n",
            "         TEMPO 1418/1510 3000 -DZ BR BKN004\n",
            "         BECMG 1500/1502 26005KT FEW008 BKN030\n",
            "         PROB30 TEMPO 1502/1508 0500 FG BKN001\n",
            "         TEMPO 1510/1518 BKN010\n",
            "         BECMG 1510/1512 23008KT\n",
            "         PROB30 TEMPO 1510/1513 3000 -DZ BR BKN005='\n",
            "Error parsing METAR: Unparsed groups in body 'TAF AMD 1418/1518 1418/1510 3000 -DZ BR BKN004 1500/1502 26005KT FEW008 BKN030 PROB30 1502/1508 0500 FG BKN001 1510/1518 BKN010 1510/1512 23008KT PROB30 1510/1513 3000 -DZ BR BKN005' while processing 'TAF AMD EIDW 141755Z 1418/1518 VRB03KT 7000 BKN010\n",
            "         TEMPO 1418/1510 3000 -DZ BR BKN004\n",
            "         BECMG 1500/1502 26005KT FEW008 BKN030\n",
            "         PROB30 TEMPO 1502/1508 0500 FG BKN001\n",
            "         TEMPO 1510/1518 BKN010\n",
            "         BECMG 1510/1512 23008KT\n",
            "         PROB30 TEMPO 1510/1513 3000 -DZ BR BKN005='\n",
            "Error parsing METAR: Unparsed groups in body 'TAF AMD 1501/1524 1501/1509 2000 -DZ BR BKN004 1509/1511 23008KT 7000 NSW SCT010 BKN016 PROB40 1509/1524 4000 -DZ BR BKN007' while processing 'TAF AMD EIDW 150107Z 1501/1524 VRB03KT 0800 FG BKN002\n",
            "         TEMPO 1501/1509 2000 -DZ BR BKN004\n",
            "         BECMG 1509/1511 23008KT 7000 NSW SCT010 BKN016\n",
            "         PROB40 TEMPO 1509/1524 4000 -DZ BR BKN007='\n",
            "Error parsing METAR: Unparsed groups in body 'TAF AMD 1501/1524 1501/1509 2000 -DZ BR BKN004 1509/1511 23008KT 7000 NSW SCT010 BKN016 PROB40 1509/1524 4000 -DZ BR BKN007' while processing 'TAF AMD EIDW 150107Z 1501/1524 VRB03KT 0800 FG BKN002\n",
            "         TEMPO 1501/1509 2000 -DZ BR BKN004\n",
            "         BECMG 1509/1511 23008KT 7000 NSW SCT010 BKN016\n",
            "         PROB40 TEMPO 1509/1524 4000 -DZ BR BKN007='\n",
            "Error parsing METAR: Unparsed groups in body 'TAF 1506/1606 1506/1509 2000 -DZ BR BKN004 1509/1511 23008KT 7000 NSW SCT010 BKN016 PROB40 1509/1524 4000 -DZ BR BKN007 1600/1606 3000 -RADZ BR BKN006' while processing 'TAF EIDW 150500Z 1506/1606 VRB03KT 0800 FG BKN002\n",
            "         TEMPO 1506/1509 2000 -DZ BR BKN004\n",
            "         BECMG 1509/1511 23008KT 7000 NSW SCT010 BKN016\n",
            "         PROB40 TEMPO 1509/1524 4000 -DZ BR BKN007\n",
            "         TEMPO 1600/1606 3000 -RADZ BR BKN006='\n",
            "Error parsing METAR: Unparsed groups in body 'TAF AMD 1506/1606 1506/1509 3000 BR BKN009 PROB30 1506/1509 1200 -DZ BKN003 PROB30 1509/1524 4000 -DZ BR BKN007 1600/1606 3000 -RADZ BR BKN006' while processing 'TAF AMD EIDW 150603Z 1506/1606 23007KT 7000 BKN016\n",
            "         TEMPO 1506/1509 3000 BR BKN009\n",
            "         PROB30 TEMPO 1506/1509 1200 -DZ BKN003\n",
            "         PROB30 TEMPO 1509/1524 4000 -DZ BR BKN007\n",
            "         TEMPO 1600/1606 3000 -RADZ BR BKN006='\n",
            "Error parsing METAR: Unparsed groups in body 'TAF 1512/1612 1512/1514 BKN015 1512/1514 3000 -DZ BR PROB30 1514/1524 4000 -DZ BR BKN008 1600/1606 3000 -RADZ BR BKN005 1605/1607 31010KT 1608/1610 28010KT' while processing 'TAF EIDW 151100Z 1512/1612 25008KT 9999 FEW004 BKN007\n",
            "         BECMG 1512/1514 BKN015\n",
            "         TEMPO 1512/1514 3000 -DZ BR\n",
            "         PROB30 TEMPO 1514/1524 4000 -DZ BR BKN008\n",
            "         TEMPO 1600/1606 3000 -RADZ BR BKN005\n",
            "         BECMG 1605/1607 31010KT\n",
            "         BECMG 1608/1610 28010KT='\n",
            "Error parsing METAR: Unparsed groups in body 'TAF 1518/1618 PROB40 1518/1524 4000 -DZ BR BKN010 1600/1606 3000 -RADZ BR BKN006 1605/1607 31010KT 1608/1610 28010KT' while processing 'TAF EIDW 151700Z 1518/1618 24008KT 9999 FEW008 BKN016\n",
            "         PROB40 TEMPO 1518/1524 4000 -DZ BR BKN010\n",
            "         TEMPO 1600/1606 3000 -RADZ BR BKN006\n",
            "         BECMG 1605/1607 31010KT\n",
            "         BECMG 1608/1610 28010KT='\n",
            "Error parsing METAR: Unparsed groups in body 'TAF AMD 1520/1618 1520/1606 4000 -DZ BR BKN007 1605/1607 31010KT 1608/1610 28010KT' while processing 'TAF AMD EIDW 152017Z 1520/1618 24008KT 9999 FEW007 BKN015\n",
            "         TEMPO 1520/1606 4000 -DZ BR BKN007\n",
            "         BECMG 1605/1607 31010KT\n",
            "         BECMG 1608/1610 28010KT='\n",
            "Error parsing METAR: Unparsed groups in body 'TAF 1600/1624 1600/1606 4000 -DZ BR BKN007 1605/1607 31010KT BKN020 1608/1610 28010KT' while processing 'TAF EIDW 152300Z 1600/1624 24008KT 9999 FEW007 BKN012\n",
            "         TEMPO 1600/1606 4000 -DZ BR BKN007\n",
            "         BECMG 1605/1607 31010KT BKN020\n",
            "         BECMG 1608/1610 28010KT='\n",
            "Error parsing METAR: Unparsed groups in body 'TAF 1606/1706 1606/1607 4000 -DZ BR BKN007 1606/1607 33010KT BKN020 1608/1610 28010KT' while processing 'TAF EIDW 160500Z 1606/1706 24008KT 9999 FEW007 BKN012\n",
            "         TEMPO 1606/1607 4000 -DZ BR BKN007\n",
            "         BECMG 1606/1607 33010KT BKN020\n",
            "         BECMG 1608/1610 28010KT='\n",
            "Error parsing METAR: Unparsed groups in body 'TAF 1612/1712 1706/1708 24008KT PROB30 1710/1712 -RA BKN012' while processing 'TAF EIDW 161100Z 1612/1712 28011KT 9999 FEW016 BKN036\n",
            "         BECMG 1706/1708 24008KT\n",
            "         PROB30 TEMPO 1710/1712 -RA BKN012='\n",
            "Error parsing METAR: Unparsed groups in body 'TAF 1618/1718 1706/1708 24008KT PROB30 1710/1718 -RA BKN012 1713/1714 35010KT 1715/1717 25010KT' while processing 'TAF EIDW 161700Z 1618/1718 28010KT 9999 FEW010 BKN040\n",
            "         BECMG 1706/1708 24008KT\n",
            "         PROB30 TEMPO 1710/1718 -RA BKN012\n",
            "         BECMG 1713/1714 35010KT\n",
            "         BECMG 1715/1717 25010KT='\n",
            "Error parsing METAR: Unparsed groups in body 'TAF 1700/1724 1707/1709 24010KT PROB30 1710/1724 -RA BKN010 1712/1714 30010KT 1716/1718 24008KT PROB30 1720/1724 4000 RA' while processing 'TAF EIDW 162300Z 1700/1724 27010KT 9999 FEW018\n",
            "         BECMG 1707/1709 24010KT\n",
            "         PROB30 TEMPO 1710/1724 -RA BKN010\n",
            "         BECMG 1712/1714 30010KT\n",
            "         BECMG 1716/1718 24008KT\n",
            "         PROB30 TEMPO 1720/1724 4000 RA='\n",
            "Error parsing METAR: Unparsed groups in body 'TAF 1706/1806 PROB40 1710/1806 -RA BKN010 1712/1714 30010KT 1716/1718 24008KT PROB30 1720/1801 4000 RA 1801/1803 36007KT' while processing 'TAF EIDW 170500Z 1706/1806 26010KT 9999 FEW010 SCT035\n",
            "         PROB40 TEMPO 1710/1806 -RA BKN010\n",
            "         BECMG 1712/1714 30010KT\n",
            "         BECMG 1716/1718 24008KT\n",
            "         PROB30 TEMPO 1720/1801 4000 RA\n",
            "         BECMG 1801/1803 36007KT='\n",
            "Error parsing METAR: Unparsed groups in body 'TAF 1712/1812 PROB40 1712/1801 -RA BKN010 1712/1714 30012KT 1717/1719 25008KT PROB30 1720/1723 4000 RA 1722/1724 36007KT 1805/1807 VRB03KT 1810/1812 09005KT' while processing 'TAF EIDW 171100Z 1712/1812 26010KT 9999 FEW010 BKN020\n",
            "         PROB40 TEMPO 1712/1801 -RA BKN010\n",
            "         BECMG 1712/1714 30012KT\n",
            "         BECMG 1717/1719 25008KT\n",
            "         PROB30 TEMPO 1720/1723 4000 RA\n",
            "         BECMG 1722/1724 36007KT\n",
            "         BECMG 1805/1807 VRB03KT\n",
            "         BECMG 1810/1812 09005KT='\n",
            "Error parsing METAR: Unparsed groups in body 'TAF 1712/1812 1712/1714 30012KT 1712/1801 4000 -RA BKN010 1717/1719 25008KT 1722/1724 36007KT 1805/1807 VRB03KT 1810/1812 09005KT' while processing 'TAF COR EIDW 171209Z 1712/1812 26010KT 9999 FEW010 BKN020\n",
            "         BECMG 1712/1714 30012KT\n",
            "         TEMPO 1712/1801 4000 -RA BKN010\n",
            "         BECMG 1717/1719 25008KT\n",
            "         BECMG 1722/1724 36007KT\n",
            "         BECMG 1805/1807 VRB03KT\n",
            "         BECMG 1810/1812 09005KT='\n",
            "Error parsing METAR: Unparsed groups in body 'TAF 1718/1818 1718/1720 25008KT 1718/1801 4000 -RA BKN010 1721/1723 36005KT 1805/1807 VRB03KT 1810/1812 10008KT PROB40 1810/1818 -RA BKN010 PROB30 1816/1818 4000 RA' while processing 'TAF EIDW 171700Z 1718/1818 28008KT 9999 FEW010 BKN050\n",
            "         BECMG 1718/1720 25008KT\n",
            "         TEMPO 1718/1801 4000 -RA BKN010\n",
            "         BECMG 1721/1723 36005KT\n",
            "         BECMG 1805/1807 VRB03KT\n",
            "         BECMG 1810/1812 10008KT\n",
            "         PROB40 TEMPO 1810/1818 -RA BKN010\n",
            "         PROB30 TEMPO 1816/1818 4000 RA='\n",
            "Error parsing METAR: Unparsed groups in body 'TAF 1800/1824 1805/1807 VRB03KT 1810/1812 09008KT PROB40 1813/1824 -RA BKN010 PROB30 1816/1821 4000 RA 1817/1819 09013KT PROB40 1819/1824 10015G25KT' while processing 'TAF EIDW 172300Z 1800/1824 32006KT 9999 FEW012 SCT025 BKN040\n",
            "         BECMG 1805/1807 VRB03KT\n",
            "         BECMG 1810/1812 09008KT\n",
            "         PROB40 TEMPO 1813/1824 -RA BKN010\n",
            "         PROB30 TEMPO 1816/1821 4000 RA\n",
            "         BECMG 1817/1819 09013KT\n",
            "         PROB40 TEMPO 1819/1824 10015G25KT='\n",
            "Error parsing METAR: Unparsed groups in body 'TAF 1806/1906 1810/1812 09008KT PROB40 1813/1906 -RA BKN010 PROB30 1816/1906 4000 RA 1817/1819 09013KT PROB30 1819/1824 09015G25KT 1900/1906 08015G25KT' while processing 'TAF EIDW 180500Z 1806/1906 31005KT 9999 FEW012\n",
            "         BECMG 1810/1812 09008KT\n",
            "         PROB40 TEMPO 1813/1906 -RA BKN010\n",
            "         PROB30 TEMPO 1816/1906 4000 RA\n",
            "         BECMG 1817/1819 09013KT\n",
            "         PROB30 TEMPO 1819/1824 09015G25KT\n",
            "         TEMPO 1900/1906 08015G25KT='\n",
            "Error parsing METAR: Unparsed groups in body 'TAF 1812/1912 1812/1911 6000 -RA FEW007 BKN011 1813/1815 09008KT PROB30 1816/1911 3000 RA BKN007 1820/1821 09013KT 1900/1910 08015G25KT PROB30 1906/1910 08020G30KT 1910/1912 06012KT 1910/1912 05015G25KT' while processing 'TAF EIDW 181100Z 1812/1912 VRB03KT 9999 FEW012 BKN035\n",
            "         TEMPO 1812/1911 6000 -RA FEW007 BKN011\n",
            "         BECMG 1813/1815 09008KT\n",
            "         PROB30 TEMPO 1816/1911 3000 RA BKN007\n",
            "         BECMG 1820/1821 09013KT\n",
            "         TEMPO 1900/1910 08015G25KT\n",
            "         PROB30 TEMPO 1906/1910 08020G30KT\n",
            "         BECMG 1910/1912 06012KT\n",
            "         TEMPO 1910/1912 05015G25KT='\n",
            "Error parsing METAR: Unparsed groups in body 'TAF 1818/1918 1818/1911 07015G25KT 6000 -RA FEW007 BKN011 PROB30 1818/1911 3000 RA BKN006 PROB30 1909/1911 08020G30KT 1914/1916 01010KT 1916/1918 34008KT' while processing 'TAF EIDW 181700Z 1818/1918 08012KT 9999 FEW012 BKN018\n",
            "         TEMPO 1818/1911 07015G25KT 6000 -RA FEW007 BKN011\n",
            "         PROB30 TEMPO 1818/1911 3000 RA BKN006\n",
            "         PROB30 TEMPO 1909/1911 08020G30KT\n",
            "         BECMG 1914/1916 01010KT\n",
            "         BECMG 1916/1918 34008KT='\n",
            "Error parsing METAR: Unparsed groups in body 'TAF 1900/1924 1900/1911 -RA BKN010 1900/1910 07015G25KT PROB40 1900/1911 3000 RA BKN006 1910/1912 01008KT 1912/1914 34008KT 1919/1921 28008KT' while processing 'TAF EIDW 182300Z 1900/1924 08012KT 9999 FEW006 BKN018\n",
            "         TEMPO 1900/1911 -RA BKN010\n",
            "         TEMPO 1900/1910 07015G25KT\n",
            "         PROB40 TEMPO 1900/1911 3000 RA BKN006\n",
            "         BECMG 1910/1912 01008KT\n",
            "         BECMG 1912/1914 34008KT\n",
            "         BECMG 1919/1921 28008KT='\n",
            "Error parsing METAR: Unparsed groups in body 'TAF 1906/2006 1906/1911 -RA BKN010 1906/1910 07015G25KT PROB30 1906/1911 3000 RA BKN006 1910/1912 01008KT 1912/1914 34008KT 1919/1921 28008KT' while processing 'TAF EIDW 190500Z 1906/2006 06012KT 9999 FEW012 BKN018\n",
            "         TEMPO 1906/1911 -RA BKN010\n",
            "         TEMPO 1906/1910 07015G25KT\n",
            "         PROB30 TEMPO 1906/1911 3000 RA BKN006\n",
            "         BECMG 1910/1912 01008KT\n",
            "         BECMG 1912/1914 34008KT\n",
            "         BECMG 1919/1921 28008KT='\n",
            "Error parsing METAR: Unparsed groups in body 'TAF 1912/2012 1912/1915 VRB03KT PROB40 1912/1914 4000 -SHRAGS BKN010 FEW018CB 1915/1917 35010KT 1917/1919 32009KT 1919/1921 27008KT PROB30 2004/2006 BKN012 2008/2010 30010KT' while processing 'TAF EIDW 191100Z 1912/2012 04008KT 9999 FEW010 BKN020\n",
            "         TEMPO 1912/1915 VRB03KT\n",
            "         PROB40 TEMPO 1912/1914 4000 -SHRAGS BKN010 FEW018CB\n",
            "         BECMG 1915/1917 35010KT\n",
            "         BECMG 1917/1919 32009KT\n",
            "         BECMG 1919/1921 27008KT\n",
            "         PROB30 TEMPO 2004/2006 BKN012\n",
            "         BECMG 2008/2010 30010KT='\n",
            "Error parsing METAR: Unparsed groups in body 'TAF 1918/2018 1919/1921 27008KT PROB30 2004/2007 BKN012 2008/2010 30010KT 2014/2016 27006KT' while processing 'TAF EIDW 191700Z 1918/2018 33011KT 9999 FEW015 SCT028\n",
            "         BECMG 1919/1921 27008KT\n",
            "         PROB30 TEMPO 2004/2007 BKN012\n",
            "         BECMG 2008/2010 30010KT\n",
            "         BECMG 2014/2016 27006KT='\n",
            "Error parsing METAR: Unparsed groups in body 'TAF 2000/2024 PROB30 2004/2007 BKN008 2006/2008 30010KT 2008/2010 27008KT' while processing 'TAF EIDW 192300Z 2000/2024 27008KT 9999 FEW015\n",
            "         PROB30 TEMPO 2004/2007 BKN008\n",
            "         BECMG 2006/2008 30010KT\n",
            "         BECMG 2008/2010 27008KT='\n",
            "Error parsing METAR: Unparsed groups in body 'TAF 2006/2106 PROB30 2006/2007 BKN008 2006/2008 30010KT 2008/2010 27008KT 2104/2106 33005KT' while processing 'TAF EIDW 200500Z 2006/2106 27010KT 9999 FEW018\n",
            "         PROB30 TEMPO 2006/2007 BKN008\n",
            "         BECMG 2006/2008 30010KT\n",
            "         BECMG 2008/2010 27008KT\n",
            "         BECMG 2104/2106 33005KT='\n",
            "Error parsing METAR: Unparsed groups in body 'TAF 2012/2112 2100/2102 36010KT 2023/2107 4000 -RASN BKN014 PROB40 2100/2106 2000 -SN BKN009 2110/2112 30010KT' while processing 'TAF EIDW 201100Z 2012/2112 29010KT 9999 FEW018\n",
            "         BECMG 2100/2102 36010KT\n",
            "         TEMPO 2023/2107 4000 -RASN BKN014\n",
            "         PROB40 TEMPO 2100/2106 2000 -SN BKN009\n",
            "         BECMG 2110/2112 30010KT='\n",
            "Error parsing METAR: Unparsed groups in body 'TAF 2018/2118 2100/2102 VRB03KT 2104/2106 33010KT PROB40 2023/2107 4000 -RASN BKN014 PROB30 2100/2106 2000 -SN BKN009 2110/2112 30010KT 2116/2118 27015KT' while processing 'TAF EIDW 201700Z 2018/2118 29010KT 9999 FEW018\n",
            "         BECMG 2100/2102 VRB03KT\n",
            "         BECMG 2104/2106 33010KT\n",
            "         PROB40 TEMPO 2023/2107 4000 -RASN BKN014\n",
            "         PROB30 TEMPO 2100/2106 2000 -SN BKN009\n",
            "         BECMG 2110/2112 30010KT\n",
            "         BECMG 2116/2118 27015KT='\n",
            "Error parsing METAR: Unparsed groups in body 'TAF 2100/2124 PROB40 2101/2108 4000 -RASN BKN012 PROB30 2101/2107 2000 -SN BKN007 2102/2104 36005KT 2105/2107 35010KT 2110/2112 31010KT 2112/2114 27010KT PROB30 2116/2119 -SHRASN FEW020CB 2117/2119 27015KT 2118/2124 26016G28KT' while processing 'TAF EIDW 202300Z 2100/2124 VRB03KT 9999 FEW012 BKN030\n",
            "         PROB40 TEMPO 2101/2108 4000 -RASN BKN012\n",
            "         PROB30 TEMPO 2101/2107 2000 -SN BKN007\n",
            "         BECMG 2102/2104 36005KT\n",
            "         BECMG 2105/2107 35010KT\n",
            "         BECMG 2110/2112 31010KT\n",
            "         BECMG 2112/2114 27010KT\n",
            "         PROB30 TEMPO 2116/2119 -SHRASN FEW020CB\n",
            "         BECMG 2117/2119 27015KT\n",
            "         TEMPO 2118/2124 26016G28KT='\n",
            "Error parsing METAR: Unparsed groups in body 'TAF 2106/2206 2110/2112 31010KT 2112/2114 27010KT PROB30 2116/2119 -SHRASN FEW020CB 2117/2119 27015KT 2118/2204 26017G29KT' while processing 'TAF EIDW 210500Z 2106/2206 35010KT 9999 FEW018 SCT030\n",
            "         BECMG 2110/2112 31010KT\n",
            "         BECMG 2112/2114 27010KT\n",
            "         PROB30 TEMPO 2116/2119 -SHRASN FEW020CB\n",
            "         BECMG 2117/2119 27015KT\n",
            "         TEMPO 2118/2204 26017G29KT='\n",
            "Error parsing METAR: Unparsed groups in body 'TAF 2112/2212 2112/2114 27012KT 2118/2205 26020G30KT' while processing 'TAF EIDW 211100Z 2112/2212 33010KT 9999 FEW015 SCT045\n",
            "         BECMG 2112/2114 27012KT\n",
            "         TEMPO 2118/2205 26020G30KT='\n",
            "Error parsing METAR: Unparsed groups in body 'TAF 2118/2218 2118/2207 27020G30KT' while processing 'TAF EIDW 211700Z 2118/2218 25012KT 9999 FEW015\n",
            "         TEMPO 2118/2207 27020G30KT='\n",
            "Error parsing METAR: Unparsed groups in body 'TAF 2200/2224 2200/2203 27017G29KT PROB40 2203/2208 26015G25KT PROB30 2203/2205 4000 -SHSNRA BKN012 2215/2217 23007KT 2220/2222 13006KT 2222/2224 15011KT -RA' while processing 'TAF EIDW 212300Z 2200/2224 26012KT 9999 FEW015\n",
            "         TEMPO 2200/2203 27017G29KT\n",
            "         PROB40 TEMPO 2203/2208 26015G25KT\n",
            "         PROB30 TEMPO 2203/2205 4000 -SHSNRA BKN012\n",
            "         BECMG 2215/2217 23007KT\n",
            "         BECMG 2220/2222 13006KT\n",
            "         BECMG 2222/2224 15011KT -RA='\n",
            "Error parsing METAR: Unparsed groups in body 'TAF 2206/2306 2206/2208 27016G26KT 2215/2217 23007KT 2220/2222 13006KT 2222/2224 15011KT -RA 2300/2302 15020G32KT 2300/2306 4000 RA BKN012 2302/2304 15024G40KT 2304/2306 18018G30KT' while processing 'TAF EIDW 220500Z 2206/2306 26013KT 9999 FEW012 SCT035\n",
            "         TEMPO 2206/2208 27016G26KT\n",
            "         BECMG 2215/2217 23007KT\n",
            "         BECMG 2220/2222 13006KT\n",
            "         BECMG 2222/2224 15011KT -RA\n",
            "         BECMG 2300/2302 15020G32KT\n",
            "         TEMPO 2300/2306 4000 RA BKN012\n",
            "         TEMPO 2302/2304 15024G40KT\n",
            "         BECMG 2304/2306 18018G30KT='\n",
            "Error parsing METAR: Unparsed groups in body 'TAF 2212/2312 2215/2217 23007KT 2220/2222 13006KT 2222/2224 13011KT -RA 2300/2302 14020G32KT PROB40 2300/2311 4000 RA BKN012 2302/2306 14024G40KT 2304/2306 17020G32KT 2306/2308 20018G30KT PROB40 2306/2312 21020G35KT' while processing 'TAF EIDW 221100Z 2212/2312 26013KT 9999 FEW020\n",
            "         BECMG 2215/2217 23007KT\n",
            "         BECMG 2220/2222 13006KT\n",
            "         BECMG 2222/2224 13011KT -RA\n",
            "         BECMG 2300/2302 14020G32KT\n",
            "         PROB40 TEMPO 2300/2311 4000 RA BKN012\n",
            "         TEMPO 2302/2306 14024G40KT\n",
            "         BECMG 2304/2306 17020G32KT\n",
            "         BECMG 2306/2308 20018G30KT\n",
            "         PROB40 TEMPO 2306/2312 21020G35KT='\n",
            "Error parsing METAR: Unparsed groups in body 'TAF 2218/2318 2220/2222 13006KT 2222/2224 13011KT -RA 2300/2302 14020G32KT PROB40 2300/2311 RA BKN012 2302/2306 14024G40KT PROB30 2302/2307 4000 +RA 2304/2306 17020G32KT 2306/2308 20018G30KT PROB40 2306/2310 21020G35KT PROB30 2311/2318 BKN012 2312/2314 20012KT PROB30 2314/2318 20015G25KT' while processing 'TAF EIDW 221700Z 2218/2318 24005KT 9999 FEW015\n",
            "         BECMG 2220/2222 13006KT\n",
            "         BECMG 2222/2224 13011KT -RA\n",
            "         BECMG 2300/2302 14020G32KT\n",
            "         PROB40 TEMPO 2300/2311 RA BKN012\n",
            "         TEMPO 2302/2306 14024G40KT\n",
            "         PROB30 TEMPO 2302/2307 4000 +RA\n",
            "         BECMG 2304/2306 17020G32KT\n",
            "         BECMG 2306/2308 20018G30KT\n",
            "         PROB40 TEMPO 2306/2310 21020G35KT\n",
            "         PROB30 TEMPO 2311/2318 BKN012\n",
            "         BECMG 2312/2314 20012KT\n",
            "         PROB30 TEMPO 2314/2318 20015G25KT='\n",
            "Error parsing METAR: Unparsed groups in body 'TAF 2300/2324 2300/2302 14020G30KT -RA 2302/2307 16025G45KT 3000 +RA BKN009 2306/2308 20020G30KT PROB40 2307/2312 21025G38KT 4500 RA BKN012 2312/2314 19012KT 2319/2321 20020G30KT 2322/2324 22025G40KT' while processing 'TAF EIDW 222300Z 2300/2324 13005KT 9999 FEW015 BKN040\n",
            "         BECMG 2300/2302 14020G30KT -RA\n",
            "         TEMPO 2302/2307 16025G45KT 3000 +RA BKN009\n",
            "         BECMG 2306/2308 20020G30KT\n",
            "         PROB40 TEMPO 2307/2312 21025G38KT 4500 RA BKN012\n",
            "         BECMG 2312/2314 19012KT\n",
            "         BECMG 2319/2321 20020G30KT\n",
            "         TEMPO 2322/2324 22025G40KT='\n",
            "Error parsing METAR: Unparsed groups in body 'TAF 2306/2406 2306/2308 20020G30KT 2306/2311 4000 RA BKN004 PROB40 2307/2311 21025G38KT 2312/2314 19012KT BKN020 2317/2401 4500 SHRA BKN010 2319/2321 20020G30KT 2322/2402 22025G40KT' while processing 'TAF EIDW 230500Z 2306/2406 15025G35KT 7000 -RA BKN008 BKN012\n",
            "         BECMG 2306/2308 20020G30KT\n",
            "         TEMPO 2306/2311 4000 RA BKN004\n",
            "         PROB40 TEMPO 2307/2311 21025G38KT\n",
            "         BECMG 2312/2314 19012KT BKN020\n",
            "         TEMPO 2317/2401 4500 SHRA BKN010\n",
            "         BECMG 2319/2321 20020G30KT\n",
            "         TEMPO 2322/2402 22025G40KT='\n",
            "Error parsing METAR: Unparsed groups in body 'TAF AMD 2307/2406 2307/2311 4000 RA BKN004 PROB40 2307/2311 21025G38KT 2312/2314 19012KT 2317/2401 4500 SHRA BKN010 2319/2321 20020G30KT 2322/2402 22025G40KT' while processing 'TAF AMD EIDW 230705Z 2307/2406 19015G25KT 9000 -RA FEW010 BKN020\n",
            "          TEMPO 2307/2311 4000 RA BKN004\n",
            "         PROB40 TEMPO 2307/2311 21025G38KT\n",
            "         BECMG 2312/2314 19012KT\n",
            "         TEMPO 2317/2401 4500 SHRA BKN010\n",
            "         BECMG 2319/2321 20020G30KT\n",
            "         TEMPO 2322/2402 22025G40KT='\n",
            "Error parsing METAR: Unparsed groups in body 'TAF 2312/2412 2312/2314 19012KT PROB30 2312/2314 BKN010 2317/2319 20017KT 2319/2412 21020G35KT 2320/2403 22025G40KT 4500 SHRA BKN010 SCT018CB' while processing 'TAF EIDW 231100Z 2312/2412 20015G25KT 9999 FEW010 BKN018\n",
            "         BECMG 2312/2314 19012KT\n",
            "         PROB30 TEMPO 2312/2314 BKN010\n",
            "         BECMG 2317/2319 20017KT\n",
            "         TEMPO 2319/2412 21020G35KT\n",
            "         TEMPO 2320/2403 22025G40KT 4500 SHRA BKN010 SCT018CB='\n",
            "Error parsing METAR: Unparsed groups in body 'TAF 2318/2418 2319/2418 21020G35KT 2320/2403 21025G40KT 4500 RA BKN010 SCT018CB 2412/2418 21025G40KT' while processing 'TAF EIDW 231700Z 2318/2418 20016KT 9999 FEW010 BKN018\n",
            "         TEMPO 2319/2418 21020G35KT\n",
            "         TEMPO 2320/2403 21025G40KT 4500 RA BKN010 SCT018CB\n",
            "         TEMPO 2412/2418 21025G40KT='\n",
            "Error parsing METAR: Unparsed groups in body 'TAF 2318/2418 2320/2403 21022G37KT 4500 RA BKN010 SCT018CB PROB30 2322/2403 21022G45KT PROB40 2412/2418 21025G40KT' while processing 'TAF COR EIDW 231929Z 2318/2418 20016G27KT 9999 FEW010 BKN018\n",
            "         TEMPO 2320/2403 21022G37KT 4500 RA BKN010 SCT018CB\n",
            "         PROB30 TEMPO 2322/2403 21022G45KT\n",
            "         PROB40 TEMPO 2412/2418 21025G40KT='\n",
            "Error parsing METAR: Unparsed groups in body 'TAF 2400/2424 2400/2404 4500 RA BKN010 SCT018CB PROB30 2400/2404 21025G45KT PROB40 2413/2422 21025G40KT' while processing 'TAF EIDW 232300Z 2400/2424 20020G30KT 8000 -RA SCT020 BKN045\n",
            "         TEMPO 2400/2404 4500 RA BKN010 SCT018CB\n",
            "         PROB30 TEMPO 2400/2404 21025G45KT\n",
            "         PROB40 TEMPO 2413/2422 21025G40KT='\n",
            "Error parsing METAR: Unparsed groups in body 'TAF 2406/2506 2406/2506 22020G30KT PROB40 2414/2422 21025G40KT' while processing 'TAF EIDW 240500Z 2406/2506 21012KT 9999 FEW015\n",
            "         TEMPO 2406/2506 22020G30KT\n",
            "         PROB40 TEMPO 2414/2422 21025G40KT='\n",
            "Error parsing METAR: Unparsed groups in body 'TAF 2412/2512 2412/2504 22020G32KT PROB40 2413/2421 21025G40KT PROB30 2420/2423 -SHRA FEW020CB 2504/2506 24015KT 2504/2512 24020G32KT' while processing 'TAF EIDW 241100Z 2412/2512 21015KT 9999 FEW025\n",
            "         TEMPO 2412/2504 22020G32KT\n",
            "         PROB40 TEMPO 2413/2421 21025G40KT\n",
            "         PROB30 TEMPO 2420/2423 -SHRA FEW020CB\n",
            "         BECMG 2504/2506 24015KT\n",
            "         TEMPO 2504/2512 24020G32KT='\n",
            "Error parsing METAR: Unparsed groups in body 'TAF 2418/2518 PROB40 2418/2422 21025G40KT PROB30 2420/2423 -SHRA FEW020CB 2500/2502 24015KT 2500/2510 24020G32KT 2510/2512 24010KT 2510/2515 24015G25KT' while processing 'TAF EIDW 241700Z 2418/2518 21018G30KT 9999 FEW015\n",
            "         PROB40 TEMPO 2418/2422 21025G40KT\n",
            "         PROB30 TEMPO 2420/2423 -SHRA FEW020CB\n",
            "         BECMG 2500/2502 24015KT\n",
            "         TEMPO 2500/2510 24020G32KT\n",
            "         BECMG 2510/2512 24010KT\n",
            "         TEMPO 2510/2515 24015G25KT='\n",
            "Error parsing METAR: Unparsed groups in body 'TAF 2500/2524 2500/2515 24017G27KT PROB40 2500/2508 24020G32KT 2515/2517 24010KT' while processing 'TAF EIDW 242300Z 2500/2524 24015KT 9999 FEW020\n",
            "         TEMPO 2500/2515 24017G27KT\n",
            "         PROB40 TEMPO 2500/2508 24020G32KT\n",
            "         BECMG 2515/2517 24010KT='\n",
            "Error parsing METAR: Unparsed groups in body 'TAF 2506/2606 2506/2515 25015G26KT 2515/2517 24010KT' while processing 'TAF EIDW 250500Z 2506/2606 24013KT 9999 FEW016 SCT020\n",
            "         TEMPO 2506/2515 25015G26KT\n",
            "         BECMG 2515/2517 24010KT='\n",
            "Error parsing METAR: Unparsed groups in body 'TAF 2512/2612 PROB30 2512/2515 25015G26KT FEW020CB' while processing 'TAF EIDW 251100Z 2512/2612 24010KT 9999 FEW016 SCT020\n",
            "         PROB30 TEMPO 2512/2515 25015G26KT FEW020CB='\n",
            "Error parsing METAR: Unparsed groups in body 'TAF 2518/2618 2614/2616 VRB03KT' while processing 'TAF EIDW 251700Z 2518/2618 24010KT 9999 FEW016 SCT020\n",
            "         BECMG 2614/2616 VRB03KT='\n",
            "Error parsing METAR: Unparsed groups in body 'TAF 2600/2624 2614/2616 VRB03KT 2619/2621 02006KT' while processing 'TAF EIDW 252300Z 2600/2624 24009KT 9999 FEW016\n",
            "         BECMG 2614/2616 VRB03KT\n",
            "         BECMG 2619/2621 02006KT='\n",
            "Error parsing METAR: Unparsed groups in body 'TAF 2606/2706 2614/2616 VRB03KT 2619/2621 02006KT PROB30 2700/2706 4000 SHRA BKN008 2702/2704 35008KT' while processing 'TAF EIDW 260500Z 2606/2706 25008KT 9999 FEW016\n",
            "         BECMG 2614/2616 VRB03KT\n",
            "         BECMG 2619/2621 02006KT\n",
            "         PROB30 TEMPO 2700/2706 4000 SHRA BKN008\n",
            "         BECMG 2702/2704 35008KT='\n",
            "Error parsing METAR: Unparsed groups in body 'TAF 2612/2712 2614/2616 VRB03KT 2617/2619 02006KT PROB30 2700/2708 4000 -SHRA BKN012 2701/2703 35008KT 2709/2711 30007KT' while processing 'TAF EIDW 261100Z 2612/2712 23006KT 9999 FEW018\n",
            "         BECMG 2614/2616 VRB03KT\n",
            "         BECMG 2617/2619 02006KT\n",
            "         PROB30 TEMPO 2700/2708 4000 -SHRA BKN012\n",
            "         BECMG 2701/2703 35008KT\n",
            "         BECMG 2709/2711 30007KT='\n",
            "Error parsing METAR: Unparsed groups in body 'TAF 2618/2718 2620/2622 01006KT PROB30 2700/2708 4000 -SHRA BR BKN012 2703/2705 33008KT 2713/2715 29006KT PROB30 2716/2718 4000 BR BKN007' while processing 'TAF EIDW 261700Z 2618/2718 VRB03KT 9999 FEW012\n",
            "         BECMG 2620/2622 01006KT\n",
            "         PROB30 TEMPO 2700/2708 4000 -SHRA BR BKN012\n",
            "         BECMG 2703/2705 33008KT\n",
            "         BECMG 2713/2715 29006KT\n",
            "         PROB30 TEMPO 2716/2718 4000 BR BKN007='\n",
            "Error parsing METAR: Unparsed groups in body 'TAF 2700/2724 PROB40 2702/2708 4000 BR SCT006 2703/2705 33008KT 2713/2715 29006KT PROB30 2716/2720 4000 BR BKN007 PROB30 2720/2724 2500 BR BKN003' while processing 'TAF EIDW 262300Z 2700/2724 01006KT 9999 FEW012\n",
            "         PROB40 TEMPO 2702/2708 4000 BR SCT006\n",
            "         BECMG 2703/2705 33008KT\n",
            "         BECMG 2713/2715 29006KT\n",
            "         PROB30 TEMPO 2716/2720 4000 BR BKN007\n",
            "         PROB30 TEMPO 2720/2724 2500 BR BKN003='\n",
            "Error parsing METAR: Unparsed groups in body 'TAF 2706/2806 PROB40 2706/2708 4000 BR SCT006 PROB30 2720/2724 3000 BR 2800/2806 3000 BR BKN004 PROB30 2800/2806 0500 FG BKN001 2802/2804 13006KT' while processing 'TAF EIDW 270500Z 2706/2806 32008KT 9999 FEW012\n",
            "         PROB40 TEMPO 2706/2708 4000 BR SCT006\n",
            "         PROB30 TEMPO 2720/2724 3000 BR\n",
            "         TEMPO 2800/2806 3000 BR BKN004\n",
            "         PROB30 TEMPO 2800/2806 0500 FG BKN001\n",
            "         BECMG 2802/2804 13006KT='\n",
            "Error parsing METAR: Unparsed groups in body 'TAF 2712/2812 PROB30 2718/2720 3000 BR PROB40 2720/2806 0400 FZFG BKN001 2721/2723 VRB03KT 2804/2806 12006KT 2806/2808 12012KT 2808/2810 13015G25KT' while processing 'TAF EIDW 271100Z 2712/2812 29005KT 9999 FEW018\n",
            "         PROB30 TEMPO 2718/2720 3000 BR\n",
            "         PROB40 TEMPO 2720/2806 0400 FZFG BKN001\n",
            "         BECMG 2721/2723 VRB03KT\n",
            "         BECMG 2804/2806 12006KT\n",
            "         BECMG 2806/2808 12012KT\n",
            "         BECMG 2808/2810 13015G25KT='\n",
            "Error parsing METAR: Unparsed groups in body 'TAF 2718/2818 PROB30 2718/2720 3000 BR PROB40 2720/2806 0400 FZFG BKN001 2803/2805 12007KT 2805/2807 12012KT 2808/2810 13015G25KT 2811/2816 14018G30KT PROB30 2813/2818 15020G35KT 2816/2818 16018G30KT -RADZ BKN012' while processing 'TAF EIDW 271700Z 2718/2818 VRB03KT 9999 FEW016\n",
            "         PROB30 TEMPO 2718/2720 3000 BR\n",
            "         PROB40 TEMPO 2720/2806 0400 FZFG BKN001\n",
            "         BECMG 2803/2805 12007KT\n",
            "         BECMG 2805/2807 12012KT\n",
            "         BECMG 2808/2810 13015G25KT\n",
            "         TEMPO 2811/2816 14018G30KT\n",
            "         PROB30 TEMPO 2813/2818 15020G35KT\n",
            "         BECMG 2816/2818 16018G30KT -RADZ BKN012='\n",
            "Error parsing METAR: Unparsed groups in body 'TAF 2800/2824 2800/2805 3000 BR PROB30 2800/2804 0400 FZFG BKN001 2804/2806 12010KT 2807/2809 13015G25KT 2811/2816 14018G30KT PROB30 2813/2818 15020G35KT -RADZ BKN012 2816/2818 16018G30KT 2822/2824 15010KT' while processing 'TAF EIDW 272300Z 2800/2824 VRB03KT 9999 FEW016\n",
            "         TEMPO 2800/2805 3000 BR\n",
            "         PROB30 TEMPO 2800/2804 0400 FZFG BKN001\n",
            "         BECMG 2804/2806 12010KT\n",
            "         BECMG 2807/2809 13015G25KT\n",
            "         TEMPO 2811/2816 14018G30KT\n",
            "         PROB30 TEMPO 2813/2818 15020G35KT -RADZ BKN012\n",
            "         BECMG 2816/2818 16018G30KT\n",
            "         BECMG 2822/2824 15010KT='\n",
            "Error parsing METAR: Unparsed groups in body 'TAF 2806/2906 2807/2809 13015G25KT 2811/2816 14018G30KT PROB30 2813/2817 15020G35KT -RADZ BKN012 2816/2818 16018G30KT 2822/2824 15010KT 2903/2906 16015KT 3000 -DZ BR BKN004' while processing 'TAF EIDW 280500Z 2806/2906 12010KT 9999 BKN025\n",
            "         BECMG 2807/2809 13015G25KT\n",
            "         TEMPO 2811/2816 14018G30KT\n",
            "         PROB30 TEMPO 2813/2817 15020G35KT -RADZ BKN012\n",
            "         BECMG 2816/2818 16018G30KT\n",
            "         BECMG 2822/2824 15010KT\n",
            "         TEMPO 2903/2906 16015KT 3000 -DZ BR BKN004='\n",
            "Error parsing METAR: Unparsed groups in body 'TAF 2812/2912 2812/2823 15018G28KT PROB40 2812/2818 15023G33KT PROB30 2812/2903 -RA BKN012 2823/2901 15010KT 2903/2912 16015G25KT -DZ BKN010 PROB40 2904/2910 3000 -RA BR BKN005' while processing 'TAF EIDW 281100Z 2812/2912 14015KT 9999 BKN025\n",
            "         TEMPO 2812/2823 15018G28KT\n",
            "         PROB40 TEMPO 2812/2818 15023G33KT\n",
            "         PROB30 TEMPO 2812/2903 -RA BKN012\n",
            "         BECMG 2823/2901 15010KT\n",
            "         TEMPO 2903/2912 16015G25KT -DZ BKN010\n",
            "         PROB40 TEMPO 2904/2910 3000 -RA BR BKN005='\n",
            "Error parsing METAR: Unparsed groups in body 'TAF 2818/2918 2818/2824 15020G30KT -RA BKN012 2900/2902 14010KT 2901/2918 -DZ BKN010 PROB30 2901/2905 16015G25KT PROB40 2904/2910 3000 -RA BR BKN005 2905/2917 16018G30KT' while processing 'TAF EIDW 281700Z 2818/2918 16015KT 9999 SCT012 BKN016\n",
            "         TEMPO 2818/2824 15020G30KT -RA BKN012\n",
            "         BECMG 2900/2902 14010KT\n",
            "         TEMPO 2901/2918 -DZ BKN010\n",
            "         PROB30 TEMPO 2901/2905 16015G25KT\n",
            "         PROB40 TEMPO 2904/2910 3000 -RA BR BKN005\n",
            "         TEMPO 2905/2917 16018G30KT='\n",
            "Error parsing METAR: Unparsed groups in body 'TAF AMD 2818/2918 2818/2824 15020G30KT -RA FEW005 BKN009 2900/2902 14010KT 2901/2918 -DZ BKN009 PROB30 2901/2905 16015G25KT PROB40 2904/2910 3000 -RA BR BKN004 2905/2917 16018G30KT' while processing 'TAF AMD EIDW 281834Z 2818/2918 16015KT 9999 SCT012 BKN016\n",
            "         TEMPO 2818/2824 15020G30KT -RA FEW005 BKN009\n",
            "         BECMG 2900/2902 14010KT\n",
            "         TEMPO 2901/2918 -DZ BKN009\n",
            "         PROB30 TEMPO 2901/2905 16015G25KT\n",
            "         PROB40 TEMPO 2904/2910 3000 -RA BR BKN004\n",
            "         TEMPO 2905/2917 16018G30KT='\n",
            "Error parsing METAR: Unparsed groups in body 'TAF 2900/2924 2900/2902 15013KT 2900/2924 -DZ BKN009 PROB40 2901/2907 14015G25KT PROB40 2903/2910 3000 -DZ BR BKN004 2907/2909 16015G25KT PROB40 2909/2914 17020G30KT 2918/2920 18012KT 2921/2923 21015G25KT PROB30 2922/2924 22017G30KT' while processing 'TAF EIDW 282300Z 2900/2924 17015G25KT 9999 FEW008 SCT010\n",
            "         BECMG 2900/2902 15013KT\n",
            "         TEMPO 2900/2924 -DZ BKN009\n",
            "         PROB40 TEMPO 2901/2907 14015G25KT\n",
            "         PROB40 TEMPO 2903/2910 3000 -DZ BR BKN004\n",
            "         BECMG 2907/2909 16015G25KT\n",
            "         PROB40 TEMPO 2909/2914 17020G30KT\n",
            "         BECMG 2918/2920 18012KT\n",
            "         BECMG 2921/2923 21015G25KT\n",
            "         PROB30 TEMPO 2922/2924 22017G30KT='\n",
            "Error parsing METAR: Unparsed groups in body 'TAF 2906/3006 2906/2908 15015G25KT 2906/2918 -DZ BKN008 PROB40 2906/2910 3000 -DZ BR BKN004 PROB40 2909/2914 17020G30KT PROB30 2915/2918 4000 -RADZ BR 2918/2920 18012KT PROB30 2918/3006 -DZ BKN012 2921/2923 21015G25KT 3001/3003 21012KT' while processing 'TAF EIDW 290500Z 2906/3006 15013KT 9999 FEW005 SCT008\n",
            "         BECMG 2906/2908 15015G25KT\n",
            "         TEMPO 2906/2918 -DZ BKN008\n",
            "         PROB40 TEMPO 2906/2910 3000 -DZ BR BKN004\n",
            "         PROB40 TEMPO 2909/2914 17020G30KT\n",
            "         PROB30 TEMPO 2915/2918 4000 -RADZ BR\n",
            "         BECMG 2918/2920 18012KT\n",
            "         PROB30 TEMPO 2918/3006 -DZ BKN012\n",
            "         BECMG 2921/2923 21015G25KT\n",
            "         BECMG 3001/3003 21012KT='\n",
            "Error parsing METAR: Unparsed groups in body 'TAF 2912/3012 2912/2918 -RA BKN011 PROB40 2912/2914 17020G30KT PROB30 2915/2918 4000 -RADZ BR BKN008 2917/2919 18012KT PROB30 2918/3006 -DZ BKN012 2921/2923 21015G25KT 3001/3003 21012KT' while processing 'TAF EIDW 291100Z 2912/3012 15015G25KT 9999 SCT008 BKN015\n",
            "         TEMPO 2912/2918 -RA BKN011\n",
            "         PROB40 TEMPO 2912/2914 17020G30KT\n",
            "         PROB30 TEMPO 2915/2918 4000 -RADZ BR BKN008\n",
            "         BECMG 2917/2919 18012KT\n",
            "         PROB30 TEMPO 2918/3006 -DZ BKN012\n",
            "         BECMG 2921/2923 21015G25KT\n",
            "         BECMG 3001/3003 21012KT='\n",
            "Error parsing METAR: Unparsed groups in body 'TAF 2918/3018 2918/2920 19012KT PROB30 2918/3011 -DZ BKN012 2921/2923 21015G25KT 3001/3003 21012KT 3004/3006 17005KT 3006/3012 20008KT 3011/3018 -DZ BKN012 3012/3014 20013KT' while processing 'TAF EIDW 291700Z 2918/3018 16010KT 9999 SCT012 BKN020\n",
            "         BECMG 2918/2920 19012KT\n",
            "         PROB30 TEMPO 2918/3011 -DZ BKN012\n",
            "         BECMG 2921/2923 21015G25KT\n",
            "         BECMG 3001/3003 21012KT\n",
            "         BECMG 3004/3006 17005KT\n",
            "         TEMPO 3006/3012 20008KT\n",
            "         TEMPO 3011/3018 -DZ BKN012\n",
            "         BECMG 3012/3014 20013KT='\n",
            "Error parsing METAR: Unparsed groups in body 'TAF AMD 2919/3018 2919/2921 19012KT PROB30 2919/3011 -DZ BKN012 2921/3001 21015G25KT 3001/3003 21012KT 3004/3006 17005KT 3006/3012 20008KT 3011/3018 -DZ BKN012 3012/3014 20013KT' while processing 'TAF AMD EIDW 291906Z 2919/3018 09005KT 9999 SCT015 BKN020\n",
            "         BECMG 2919/2921 19012KT\n",
            "         PROB30 TEMPO 2919/3011 -DZ BKN012\n",
            "         TEMPO 2921/3001 21015G25KT\n",
            "         BECMG 3001/3003 21012KT\n",
            "         BECMG 3004/3006 17005KT\n",
            "         TEMPO 3006/3012 20008KT\n",
            "         TEMPO 3011/3018 -DZ BKN012\n",
            "         BECMG 3012/3014 20013KT='\n",
            "Error parsing METAR: Unparsed groups in body 'TAF 3000/3024 3000/3002 20012KT PROB30 3000/3018 -DZ BKN012 3004/3006 17007KT 3010/3012 19014KT 3012/3020 17015G25KT 3018/3024 -RADZ BKN012 PROB30 3018/3024 4000 RADZ BKN006 3021/3023 16009KT' while processing 'TAF EIDW 292300Z 3000/3024 21015G25KT 9999 SCT014 BKN030\n",
            "         BECMG 3000/3002 20012KT\n",
            "         PROB30 TEMPO 3000/3018 -DZ BKN012\n",
            "         BECMG 3004/3006 17007KT\n",
            "         BECMG 3010/3012 19014KT\n",
            "         TEMPO 3012/3020 17015G25KT\n",
            "         TEMPO 3018/3024 -RADZ BKN012\n",
            "         PROB30 TEMPO 3018/3024 4000 RADZ BKN006\n",
            "         BECMG 3021/3023 16009KT='\n",
            "Error parsing METAR: Unparsed groups in body 'TAF 3006/0106 3006/3008 17007KT PROB30 3006/3018 -DZ BKN012 3010/3012 19014KT 3012/3020 17015G25KT PROB30 3016/3019 17020G30KT 3018/3024 -RADZ BKN012 PROB30 3018/3024 4000 RADZ BKN006 3021/3023 17009KT PROB30 0100/0106 -SHRA BKN012 0101/0103 20010KT' while processing 'TAF EIDW 300500Z 3006/0106 20007KT 9999 FEW014 SCT030\n",
            "         BECMG 3006/3008 17007KT\n",
            "         PROB30 TEMPO 3006/3018 -DZ BKN012\n",
            "         BECMG 3010/3012 19014KT\n",
            "         TEMPO 3012/3020 17015G25KT\n",
            "         PROB30 TEMPO 3016/3019 17020G30KT\n",
            "         TEMPO 3018/3024 -RADZ BKN012\n",
            "         PROB30 TEMPO 3018/3024 4000 RADZ BKN006\n",
            "         BECMG 3021/3023 17009KT\n",
            "         PROB30 TEMPO 0100/0106 -SHRA BKN012\n",
            "         BECMG 0101/0103 20010KT='\n",
            "Error parsing METAR: Unparsed groups in body 'TAF 3012/0112 3012/3014 19014KT PROB30 3012/3018 -DZ BKN012 3013/3021 18017G28KT 3018/0103 -RADZ BKN012 PROB30 3020/0102 4000 RA BKN006 3021/3023 17009KT 0101/0103 20010KT PROB30 0108/0112 -SHRA BKN012 0109/0111 24012KT' while processing 'TAF EIDW 301100Z 3012/0112 16012KT 9999 FEW019 BKN024\n",
            "         BECMG 3012/3014 19014KT\n",
            "         PROB30 TEMPO 3012/3018 -DZ BKN012\n",
            "         TEMPO 3013/3021 18017G28KT\n",
            "         TEMPO 3018/0103 -RADZ BKN012\n",
            "         PROB30 TEMPO 3020/0102 4000 RA BKN006\n",
            "         BECMG 3021/3023 17009KT\n",
            "         BECMG 0101/0103 20010KT\n",
            "         PROB30 TEMPO 0108/0112 -SHRA BKN012\n",
            "         BECMG 0109/0111 24012KT='\n",
            "Error parsing METAR: Unparsed groups in body 'TAF 3018/0118 3018/3021 18017G28KT 3018/0103 -RADZ BKN012 PROB30 3020/0102 4000 RA BKN006 3021/3023 20009KT 3022/0103 17009KT PROB30 0108/0116 -SHRA BKN012 0109/0111 23012KT' while processing 'TAF EIDW 301700Z 3018/0118 19014KT 9999 FEW008 BKN027\n",
            "         TEMPO 3018/3021 18017G28KT\n",
            "         TEMPO 3018/0103 -RADZ BKN012\n",
            "         PROB30 TEMPO 3020/0102 4000 RA BKN006\n",
            "         BECMG 3021/3023 20009KT\n",
            "         TEMPO 3022/0103 17009KT\n",
            "         PROB30 TEMPO 0108/0116 -SHRA BKN012\n",
            "         BECMG 0109/0111 23012KT='\n",
            "Error parsing METAR: Unparsed groups in body 'TAF 0100/0124 0100/0103 20008KT 4000 -RADZ BKN012 0103/0105 20008KT PROB30 0108/0116 -SHRA BKN012 0109/0111 23012KT 0121/0123 27012KT 0122/0124 -SHRA BKN012' while processing 'TAF EIDW 302300Z 0100/0124 17008KT 9999 SCT012 BKN018\n",
            "         TEMPO 0100/0103 20008KT 4000 -RADZ BKN012\n",
            "         BECMG 0103/0105 20008KT\n",
            "         PROB30 TEMPO 0108/0116 -SHRA BKN012\n",
            "         BECMG 0109/0111 23012KT\n",
            "         BECMG 0121/0123 27012KT\n",
            "         TEMPO 0122/0124 -SHRA BKN012='\n",
            "Error parsing METAR: Unparsed groups in body 'TAF 0106/0206 PROB30 0108/0116 -SHRA BKN012 0109/0111 23012KT 0121/0123 28012KT 0122/0206 -SHRA BKN012 0200/0206 31015G25KT' while processing 'TAF EIDW 010500Z 0106/0206 20005KT 9999 FEW005 SCT018\n",
            "         PROB30 TEMPO 0108/0116 -SHRA BKN012\n",
            "         BECMG 0109/0111 23012KT\n",
            "         BECMG 0121/0123 28012KT\n",
            "         TEMPO 0122/0206 -SHRA BKN012\n",
            "         TEMPO 0200/0206 31015G25KT='\n",
            "Error parsing METAR: Unparsed groups in body 'TAF 0112/0212 PROB30 0112/0115 -SHRA BKN012 0115/0118 -SHRA BKN012 FEW020CB 0116/0118 26012KT 0120/0201 27015G26KT -SHRA BKN012 0200/0202 30014KT 0201/0205 30015G26KT PROB30 0201/0204 -SHRA BKN012 PROB30 0209/0212 31014G25KT' while processing 'TAF EIDW 011100Z 0112/0212 23012KT 9999 FEW012 BKN025\n",
            "         PROB30 TEMPO 0112/0115 -SHRA BKN012\n",
            "         TEMPO 0115/0118 -SHRA BKN012 FEW020CB\n",
            "         BECMG 0116/0118 26012KT\n",
            "         TEMPO 0120/0201 27015G26KT -SHRA BKN012\n",
            "         BECMG 0200/0202 30014KT\n",
            "         TEMPO 0201/0205 30015G26KT\n",
            "         PROB30 TEMPO 0201/0204 -SHRA BKN012\n",
            "         PROB30 TEMPO 0209/0212 31014G25KT='\n",
            "Error parsing METAR: Unparsed groups in body 'TAF 0118/0218 0120/0201 27015G26KT -SHRA BKN012 0200/0202 30014KT 0201/0205 30015G26KT PROB30 0201/0204 -SHRA BKN012 PROB30 0209/0212 31014G25KT 0213/0215 30009KT' while processing 'TAF EIDW 011700Z 0118/0218 26012KT 9999 FEW012 BKN025\n",
            "         TEMPO 0120/0201 27015G26KT -SHRA BKN012\n",
            "         BECMG 0200/0202 30014KT\n",
            "         TEMPO 0201/0205 30015G26KT\n",
            "         PROB30 TEMPO 0201/0204 -SHRA BKN012\n",
            "         PROB30 TEMPO 0209/0212 31014G25KT\n",
            "         BECMG 0213/0215 30009KT='\n",
            "Error parsing METAR: Unparsed groups in body 'TAF AMD 0118/0218 0118/0201 -SHRA BKN012 0120/0201 27015G26KT 0200/0202 30014KT 0201/0205 30015G26KT PROB30 0201/0204 -SHRA BKN012 PROB30 0209/0212 31014G25KT 0213/0215 30009KT' while processing 'TAF AMD EIDW 011805Z 0118/0218 26012KT 9999 FEW012 BKN025\n",
            "         TEMPO 0118/0201 -SHRA BKN012\n",
            "         TEMPO 0120/0201 27015G26KT\n",
            "         BECMG 0200/0202 30014KT\n",
            "         TEMPO 0201/0205 30015G26KT\n",
            "         PROB30 TEMPO 0201/0204 -SHRA BKN012\n",
            "         PROB30 TEMPO 0209/0212 31014G25KT\n",
            "         BECMG 0213/0215 30009KT='\n",
            "Error parsing METAR: Unparsed groups in body 'TAF AMD 0200/0224 0200/0204 -RA BKN008 0200/0202 30012KT 0200/0206 30015G28KT PROB30 0208/0211 29015G25KT 0216/0218 29007KT 0221/0223 25005KT' while processing 'TAF AMD EIDW 020004Z 0200/0224 27012KT 9999 SCT008 BKN018\n",
            "         TEMPO 0200/0204 -RA BKN008\n",
            "         BECMG 0200/0202 30012KT\n",
            "         TEMPO 0200/0206 30015G28KT\n",
            "         PROB30 TEMPO 0208/0211 29015G25KT\n",
            "         BECMG 0216/0218 29007KT\n",
            "         BECMG 0221/0223 25005KT='\n",
            "Error parsing METAR: Unparsed groups in body 'TAF AMD 0200/0224 0200/0204 -RA BKN008 0200/0202 30012KT 0200/0206 30015G28KT PROB30 0208/0211 29015G25KT 0216/0218 29007KT 0221/0223 25005KT' while processing 'TAF AMD EIDW 020004Z 0200/0224 27012KT 9999 SCT008 BKN018\n",
            "         TEMPO 0200/0204 -RA BKN008\n",
            "         BECMG 0200/0202 30012KT\n",
            "         TEMPO 0200/0206 30015G28KT\n",
            "         PROB30 TEMPO 0208/0211 29015G25KT\n",
            "         BECMG 0216/0218 29007KT\n",
            "         BECMG 0221/0223 25005KT='\n",
            "Error parsing METAR: Unparsed groups in body 'TAF 0206/0306 PROB30 0208/0211 29015G25KT 0216/0218 29007KT 0221/0223 25005KT 0303/0305 VRB03KT' while processing 'TAF EIDW 020500Z 0206/0306 29012KT 9999 FEW015 BKN020\n",
            "         PROB30 TEMPO 0208/0211 29015G25KT\n",
            "         BECMG 0216/0218 29007KT\n",
            "         BECMG 0221/0223 25005KT\n",
            "         BECMG 0303/0305 VRB03KT='\n",
            "Error parsing METAR: Unparsed groups in body 'TAF 0212/0312 PROB40 0212/0214 30015G25KT 0216/0218 29007KT 0221/0223 VRB03KT 0310/0312 16007KT' while processing 'TAF EIDW 021100Z 0212/0312 29012KT 9999 FEW020\n",
            "         PROB40 TEMPO 0212/0214 30015G25KT\n",
            "         BECMG 0216/0218 29007KT\n",
            "         BECMG 0221/0223 VRB03KT\n",
            "         BECMG 0310/0312 16007KT='\n",
            "Error parsing METAR: Unparsed groups in body 'TAF 0218/0318 0222/0224 26006KT 0306/0308 15006KT PROB30 0315/0318 -RA BKN014' while processing 'TAF EIDW 021700Z 0218/0318 29008KT 9999 FEW015\n",
            "         BECMG 0222/0224 26006KT\n",
            "         BECMG 0306/0308 15006KT\n",
            "         PROB30 TEMPO 0315/0318 -RA BKN014='\n",
            "Error parsing METAR: Unparsed groups in body 'TAF 0300/0324 0304/0306 VRB03KT 0307/0309 13006KT 0315/0317 21006KT PROB30 0316/0318 -RA BKN014 0317/0319 24011KT 0318/0320 4000 -RA BKN012 0319/0321 27009KT PROB40 0320/0324 3000 BR BKN006 PROB30 0322/0324 0500 FG BKN001' while processing 'TAF EIDW 022300Z 0300/0324 25005KT 9999 FEW014\n",
            "         BECMG 0304/0306 VRB03KT\n",
            "         BECMG 0307/0309 13006KT\n",
            "         BECMG 0315/0317 21006KT\n",
            "         PROB30 TEMPO 0316/0318 -RA BKN014\n",
            "         BECMG 0317/0319 24011KT\n",
            "         TEMPO 0318/0320 4000 -RA BKN012\n",
            "         BECMG 0319/0321 27009KT\n",
            "         PROB40 TEMPO 0320/0324 3000 BR BKN006\n",
            "         PROB30 TEMPO 0322/0324 0500 FG BKN001='\n",
            "Error parsing METAR: Unparsed groups in body 'TAF 0306/0406 0307/0309 13006KT 0315/0317 21008KT 0317/0319 24011KT 0318/0321 4000 -RA BKN012 0320/0322 27009KT PROB40 0321/0324 3000 BR BKN006 PROB30 0322/0402 0500 FG BKN001 0400/0406 3000 BR BKN003 PROB40 0402/0406 0300 FG BKN001' while processing 'TAF EIDW 030500Z 0306/0406 VRB03KT 9999 FEW018 SCT040\n",
            "         BECMG 0307/0309 13006KT\n",
            "         BECMG 0315/0317 21008KT\n",
            "         BECMG 0317/0319 24011KT\n",
            "         TEMPO 0318/0321 4000 -RA BKN012\n",
            "         BECMG 0320/0322 27009KT\n",
            "         PROB40 TEMPO 0321/0324 3000 BR BKN006\n",
            "         PROB30 TEMPO 0322/0402 0500 FG BKN001\n",
            "         TEMPO 0400/0406 3000 BR BKN003\n",
            "         PROB40 TEMPO 0402/0406 0300 FG BKN001='\n",
            "Error parsing METAR: Unparsed groups in body 'TAF 0312/0412 0318/0320 25010KT 0318/0321 -RA BKN012 0400/0406 3000 BR BKN003 PROB40 0402/0404 0500 FG BKN001 0407/0409 13008KT' while processing 'TAF EIDW 031100Z 0312/0412 VRB03KT 9999 FEW025\n",
            "         BECMG 0318/0320 25010KT\n",
            "         TEMPO 0318/0321 -RA BKN012\n",
            "         TEMPO 0400/0406 3000 BR BKN003\n",
            "         PROB40 0402/0404 0500 FG BKN001\n",
            "         BECMG 0407/0409 13008KT='\n",
            "Error parsing METAR: Unparsed groups in body 'TAF 0318/0418 0318/0320 25010KT 0318/0321 -RA BKN012 0400/0406 3000 BR BKN003 PROB40 0402/0404 0500 FG BKN001 0407/0409 15010KT PROB40 0414/0418 17015G25KT -RA BKN014' while processing 'TAF EIDW 031700Z 0318/0418 19006KT 9999 FEW018 BKN035\n",
            "         BECMG 0318/0320 25010KT\n",
            "         TEMPO 0318/0321 -RA BKN012\n",
            "         TEMPO 0400/0406 3000 BR BKN003\n",
            "         PROB40 0402/0404 0500 FG BKN001\n",
            "         BECMG 0407/0409 15010KT\n",
            "         PROB40 TEMPO 0414/0418 17015G25KT -RA BKN014='\n",
            "Error parsing METAR: Unparsed groups in body 'TAF AMD 0319/0418 0319/0321 4000 -RA BKN012 0323/0408 3000 BR BKN003 PROB40 0400/0405 0500 FG BKN001 0407/0409 15010KT PROB40 0414/0418 17015G25KT -RA BKN014' while processing 'TAF AMD EIDW 031934Z 0319/0418 24010KT 9999 SCT020 BKN025\n",
            "         TEMPO 0319/0321 4000 -RA BKN012\n",
            "         TEMPO 0323/0408 3000 BR BKN003\n",
            "         PROB40 0400/0405 0500 FG BKN001\n",
            "         BECMG 0407/0409 15010KT\n",
            "         PROB40 TEMPO 0414/0418 17015G25KT -RA BKN014='\n",
            "Error parsing METAR: Unparsed groups in body 'TAF AMD 0320/0418 0320/0322 9999 NSW FEW005 BKN016 0322/0408 3000 BR BKN003 PROB40 0400/0405 0500 FG BKN001 0407/0409 15010KT PROB40 0414/0418 17015G25KT -RA BKN014' while processing 'TAF AMD EIDW 032014Z 0320/0418 24010KT 2000 -RA BR BKN005\n",
            "         BECMG 0320/0322 9999 NSW FEW005 BKN016\n",
            "         TEMPO 0322/0408 3000 BR BKN003\n",
            "         PROB40 0400/0405 0500 FG BKN001\n",
            "         BECMG 0407/0409 15010KT\n",
            "         PROB40 TEMPO 0414/0418 17015G25KT -RA BKN014='\n",
            "Error parsing METAR: Unparsed groups in body 'TAF AMD 0404/0424 0405/0407 VRB03KT 0405/0408 2500 BR BKN004 PROB30 0405/0407 0500 FG BKN001 0407/0409 14010KT 0412/0414 17012KT PROB40 0413/0416 4000 RA BKN012 0415/0417 21018G30KT 0417/0420 21020G35KT 0418/0423 -RA BKN012 0420/0422 23015G25KT PROB40 0420/0423 4000 -RADZ BKN008' while processing 'TAF AMD EIDW 040456Z 0404/0424 24005KT 9999 FEW006 BKN020\n",
            "         BECMG 0405/0407 VRB03KT\n",
            "         TEMPO 0405/0408 2500 BR BKN004\n",
            "         PROB30 TEMPO 0405/0407 0500 FG BKN001\n",
            "         BECMG 0407/0409 14010KT\n",
            "         BECMG 0412/0414 17012KT\n",
            "         PROB40 TEMPO 0413/0416 4000 RA BKN012\n",
            "         BECMG 0415/0417 21018G30KT\n",
            "         TEMPO 0417/0420 21020G35KT\n",
            "         TEMPO 0418/0423 -RA BKN012\n",
            "         BECMG 0420/0422 23015G25KT\n",
            "         PROB40 TEMPO 0420/0423 4000 -RADZ BKN008='\n",
            "Error parsing METAR: Unparsed groups in body 'TAF AMD 0404/0424 0405/0407 VRB03KT 0405/0408 2500 BR BKN004 PROB30 0405/0407 0500 FG BKN001 0407/0409 14010KT 0412/0414 17012KT PROB40 0413/0416 4000 RA BKN012 0415/0417 21018G30KT 0417/0420 21020G35KT 0418/0423 -RA BKN012 0420/0422 23015G25KT PROB40 0420/0423 4000 -RADZ BKN008' while processing 'TAF AMD EIDW 040456Z 0404/0424 24005KT 9999 FEW006 BKN020\n",
            "         BECMG 0405/0407 VRB03KT\n",
            "         TEMPO 0405/0408 2500 BR BKN004\n",
            "         PROB30 TEMPO 0405/0407 0500 FG BKN001\n",
            "         BECMG 0407/0409 14010KT\n",
            "         BECMG 0412/0414 17012KT\n",
            "         PROB40 TEMPO 0413/0416 4000 RA BKN012\n",
            "         BECMG 0415/0417 21018G30KT\n",
            "         TEMPO 0417/0420 21020G35KT\n",
            "         TEMPO 0418/0423 -RA BKN012\n",
            "         BECMG 0420/0422 23015G25KT\n",
            "         PROB40 TEMPO 0420/0423 4000 -RADZ BKN008='\n",
            "Error parsing METAR: Unparsed groups in body 'TAF 0406/0506 0406/0407 0300 FG BKN001 0407/0409 14010KT 0412/0414 17012KT PROB40 0413/0416 4000 RA BKN012 0415/0417 21018G30KT 0417/0420 21020G35KT 0418/0423 -RA BKN012 0420/0422 23015G25KT PROB40 0420/0423 4000 -RADZ BKN008 0500/0502 26017G29KT 0504/0506 24013KT' while processing 'TAF EIDW 040500Z 0406/0506 VRB03KT 9999 FEW008 BKN020\n",
            "         TEMPO 0406/0407 0300 FG BKN001\n",
            "         BECMG 0407/0409 14010KT\n",
            "         BECMG 0412/0414 17012KT\n",
            "         PROB40 TEMPO 0413/0416 4000 RA BKN012\n",
            "         BECMG 0415/0417 21018G30KT\n",
            "         TEMPO 0417/0420 21020G35KT\n",
            "         TEMPO 0418/0423 -RA BKN012\n",
            "         BECMG 0420/0422 23015G25KT\n",
            "         PROB40 TEMPO 0420/0423 4000 -RADZ BKN008\n",
            "         BECMG 0500/0502 26017G29KT\n",
            "         BECMG 0504/0506 24013KT='\n",
            "Error parsing METAR: Unparsed groups in body 'TAF 0412/0512 PROB40 0412/0414 4000 -RA BKN012 0415/0417 21018G30KT PROB40 0416/0420 21020G35KT 0418/0423 -RADZ BKN012 PROB40 0419/0422 4000 RADZ BKN008 0420/0422 23015G25KT 0500/0502 26015G25KT 0503/0505 24013KT 0508/0510 22008KT' while processing 'TAF EIDW 041100Z 0412/0512 16010KT 9999 FEW010 SCT012\n",
            "         PROB40 TEMPO 0412/0414 4000 -RA BKN012\n",
            "         BECMG 0415/0417 21018G30KT\n",
            "         PROB40 TEMPO 0416/0420 21020G35KT\n",
            "         TEMPO 0418/0423 -RADZ BKN012\n",
            "         PROB40 TEMPO 0419/0422 4000 RADZ BKN008\n",
            "         BECMG 0420/0422 23015G25KT\n",
            "         BECMG 0500/0502 26015G25KT\n",
            "         BECMG 0503/0505 24013KT\n",
            "         BECMG 0508/0510 22008KT='\n",
            "Error parsing METAR: Unparsed groups in body 'TAF 0418/0518 0418/0423 -RADZ BKN012 PROB30 0418/0419 21020G35KT PROB40 0419/0422 4000 RADZ BKN008 0420/0422 23015G25KT 0500/0502 26015G25KT 0503/0505 25013KT 0509/0511 22013KT 0511/0514 22015G25KT PROB30 0513/0515 24017G30KT 4000 SHRA BKN012 0514/0516 26015G25KT PROB30 0515/0518 26018G30KT -SHRA' while processing 'TAF EIDW 041700Z 0418/0518 21018G30KT 9999 FEW010 BKN030\n",
            "         TEMPO 0418/0423 -RADZ BKN012\n",
            "         PROB30 TEMPO 0418/0419 21020G35KT\n",
            "         PROB40 TEMPO 0419/0422 4000 RADZ BKN008\n",
            "         BECMG 0420/0422 23015G25KT\n",
            "         BECMG 0500/0502 26015G25KT\n",
            "         BECMG 0503/0505 25013KT\n",
            "         BECMG 0509/0511 22013KT\n",
            "         TEMPO 0511/0514 22015G25KT\n",
            "         PROB30 TEMPO 0513/0515 24017G30KT 4000 SHRA BKN012\n",
            "         BECMG 0514/0516 26015G25KT\n",
            "         PROB30 TEMPO 0515/0518 26018G30KT -SHRA='\n",
            "Error parsing METAR: Unparsed groups in body 'TAF 0500/0524 PROB40 0500/0505 25015G25KT 0509/0511 22013KT PROB40 0512/0515 22015G26KT 4000 RA BKN012 FEW018CB 0515/0517 26018G30KT 0515/0521 27020G35KT -SHRA 0521/0523 26013KT' while processing 'TAF EIDW 042300Z 0500/0524 25013KT 9999 SCT010 BKN018\n",
            "         PROB40 TEMPO 0500/0505 25015G25KT\n",
            "         BECMG 0509/0511 22013KT\n",
            "         PROB40 TEMPO 0512/0515 22015G26KT 4000 RA BKN012 FEW018CB\n",
            "          BECMG 0515/0517 26018G30KT\n",
            "         TEMPO 0515/0521 27020G35KT -SHRA\n",
            "         BECMG 0521/0523 26013KT='\n",
            "Error parsing METAR: Unparsed groups in body 'TAF 0506/0606 0509/0511 21014KT PROB40 0512/0515 22017G28KT 4000 RA BKN012 FEW018CB 0515/0517 26017G27KT 0515/0520 27020G32KT -SHRA 0520/0522 26013KT' while processing 'TAF EIDW 050500Z 0506/0606 24012KT 9999 FEW012 BKN025\n",
            "         BECMG 0509/0511 21014KT\n",
            "         PROB40 TEMPO 0512/0515 22017G28KT 4000 RA BKN012 FEW018CB\n",
            "          BECMG 0515/0517 26017G27KT\n",
            "         TEMPO 0515/0520 27020G32KT -SHRA\n",
            "         BECMG 0520/0522 26013KT='\n",
            "Error parsing METAR: Unparsed groups in body 'TAF 0512/0612 0512/0514 22017G28KT 0513/0516 4000 RA BKN012 FEW018CB 0514/0516 26018G30KT 0514/0516 27022G40KT PROB40 0516/0520 -SHRA FEW018CB 0520/0522 26013KT 0606/0608 20007KT' while processing 'TAF EIDW 051100Z 0512/0612 19010KT 9999 FEW010 BKN025\n",
            "         BECMG 0512/0514 22017G28KT\n",
            "         TEMPO 0513/0516 4000 RA BKN012 FEW018CB\n",
            "         BECMG 0514/0516 26018G30KT\n",
            "         TEMPO 0514/0516 27022G40KT\n",
            "         PROB40 TEMPO 0516/0520 -SHRA FEW018CB\n",
            "         BECMG 0520/0522 26013KT\n",
            "         BECMG 0606/0608 20007KT='\n",
            "Error parsing METAR: Unparsed groups in body 'TAF AMD 0513/0612 0513/0515 26015G30KT 0513/0516 26025G40KT 2000 RA BKN012 FEW018CB PROB40 0516/0520 -SHRA FEW018CB 0520/0522 26013KT 0606/0608 20007KT' while processing 'TAF AMD EIDW 051337Z 0513/0612 23015G30KT 5000 -RA SCT012 BKN025\n",
            "          BECMG 0513/0515 26015G30KT\n",
            "         TEMPO 0513/0516 26025G40KT 2000 RA BKN012 FEW018CB\n",
            "         PROB40 TEMPO 0516/0520 -SHRA FEW018CB\n",
            "         BECMG 0520/0522 26013KT\n",
            "         BECMG 0606/0608 20007KT='\n",
            "Error parsing METAR: Unparsed groups in body 'TAF 0518/0618 0518/0519 26015G30KT FEW018CB 0606/0608 23007KT 0610/0612 18008KT -RA PROB40 0612/0617 4000 RA BKN014 0612/0614 16013KT 0614/0618 16018G30KT' while processing 'TAF EIDW 051700Z 0518/0618 26013KT 9999 FEW015\n",
            "         TEMPO 0518/0519 26015G30KT FEW018CB\n",
            "         BECMG 0606/0608 23007KT\n",
            "         BECMG 0610/0612 18008KT -RA\n",
            "         PROB40 TEMPO 0612/0617 4000 RA BKN014\n",
            "         BECMG 0612/0614 16013KT\n",
            "         TEMPO 0614/0618 16018G30KT='\n",
            "Error parsing METAR: Unparsed groups in body 'TAF 0600/0624 0603/0605 25008KT 0607/0609 22007KT 0609/0611 17008KT -RA PROB40 0612/0618 4000 RA BKN012 0613/0615 16016G26KT 0615/0618 16022G36KT 0618/0620 22017G28KT 0618/0624 22020G33KT 0622/0624 4000 BKN008' while processing 'TAF EIDW 052300Z 0600/0624 26013KT 9999 FEW015\n",
            "         BECMG 0603/0605 25008KT\n",
            "         BECMG 0607/0609 22007KT\n",
            "         BECMG 0609/0611 17008KT -RA\n",
            "         PROB40 TEMPO 0612/0618 4000 RA BKN012\n",
            "         BECMG 0613/0615 16016G26KT\n",
            "         TEMPO 0615/0618 16022G36KT\n",
            "         BECMG 0618/0620 22017G28KT\n",
            "         TEMPO 0618/0624 22020G33KT\n",
            "         TEMPO 0622/0624 4000 BKN008='\n",
            "Error parsing METAR: Unparsed groups in body 'TAF 0606/0706 0609/0611 17008KT -RA 0613/0615 16016G27KT PROB40 0613/0618 4000 RA BKN012 0615/0618 16023G37KT 0618/0620 21016G27KT 0618/0624 22020G35KT 0700/0702 29035G60KT 0700/0706 4000 BKN008' while processing 'TAF EIDW 060500Z 0606/0706 24007KT 9999 FEW015 SCT030\n",
            "         BECMG 0609/0611 17008KT -RA\n",
            "         BECMG 0613/0615 16016G27KT\n",
            "         PROB40 TEMPO 0613/0618 4000 RA BKN012\n",
            "         TEMPO 0615/0618 16023G37KT\n",
            "         BECMG 0618/0620 21016G27KT\n",
            "         TEMPO 0618/0624 22020G35KT\n",
            "         BECMG 0700/0702 29035G60KT\n",
            "         TEMPO 0700/0706 4000 BKN008='\n",
            "Error parsing METAR: Unparsed groups in body 'TAF 0612/0712 0613/0615 16015G25KT PROB40 0613/0618 4000 RA BKN012 0615/0618 16022G35KT 0618/0620 21018G30KT 0618/0624 23020G35KT -RA BKN014 0700/0702 29032G55KT 0700/0707 29038G65KT 4000 RA BKN008 0707/0709 31028G50KT' while processing 'TAF EIDW 061100Z 0612/0712 16008KT 9999 FEW012 BKN035\n",
            "         BECMG 0613/0615 16015G25KT\n",
            "         PROB40 TEMPO 0613/0618 4000 RA BKN012\n",
            "         TEMPO 0615/0618 16022G35KT\n",
            "         BECMG 0618/0620 21018G30KT\n",
            "         TEMPO 0618/0624 23020G35KT -RA BKN014\n",
            "         BECMG 0700/0702 29032G55KT\n",
            "         TEMPO 0700/0707 29038G65KT 4000 RA BKN008\n",
            "         BECMG 0707/0709 31028G50KT='\n",
            "Error parsing METAR: Unparsed groups in body 'TAF 0618/0718 0618/0620 21018G30KT 0618/0624 23020G35KT -RA BKN014 0700/0702 29032G55KT 0700/0707 29038G60KT 4000 RA BKN008 0707/0709 31028G50KT 0710/0712 32025G45KT 0716/0718 31020G35KT' while processing 'TAF EIDW 061700Z 0618/0718 15012KT 9999 FEW010 BKN020\n",
            "         BECMG 0618/0620 21018G30KT\n",
            "         TEMPO 0618/0624 23020G35KT -RA BKN014\n",
            "         BECMG 0700/0702 29032G55KT\n",
            "         TEMPO 0700/0707 29038G60KT 4000 RA BKN008\n",
            "         BECMG 0707/0709 31028G50KT\n",
            "         BECMG 0710/0712 32025G45KT\n",
            "         BECMG 0716/0718 31020G35KT='\n",
            "Error parsing METAR: Unparsed groups in body 'TAF 0700/0724 0700/0702 30035G55KT 0700/0707 30040G60KT 4000 RA BKN008 0707/0709 30028G50KT PROB30 0709/0712 -SHRA FEW018CB 0710/0712 32025G45KT 0717/0719 31020G35KT' while processing 'TAF EIDW 062300Z 0700/0724 23018G30KT 9999 FEW010 BKN016\n",
            "         BECMG 0700/0702 30035G55KT\n",
            "         TEMPO 0700/0707 30040G60KT 4000 RA BKN008\n",
            "         BECMG 0707/0709 30028G50KT\n",
            "         PROB30 TEMPO 0709/0712 -SHRA FEW018CB\n",
            "         BECMG 0710/0712 32025G45KT\n",
            "         BECMG 0717/0719 31020G35KT='\n",
            "Error parsing METAR: Unparsed groups in body 'TAF 0706/0806 PROB40 0706/0707 30040G55KT 4000 RA BKN008 0708/0710 32028G45KT PROB40 0709/0713 32035G50KT -SHRA FEW018CB 0717/0719 31020G35KT 0800/0802 31015G25KT 0802/0804 28010KT' while processing 'TAF EIDW 070500Z 0706/0806 29034G50KT 7000 FEW010 BKN016\n",
            "         PROB40 TEMPO 0706/0707 30040G55KT 4000 RA BKN008\n",
            "         BECMG 0708/0710 32028G45KT\n",
            "         PROB40 TEMPO 0709/0713 32035G50KT -SHRA FEW018CB\n",
            "         BECMG 0717/0719 31020G35KT\n",
            "         BECMG 0800/0802 31015G25KT\n",
            "         BECMG 0802/0804 28010KT='\n",
            "Error parsing METAR: Unparsed groups in body 'TAF 0712/0812 PROB40 0712/0714 32035G50KT -SHRA FEW018CB 0717/0719 32020G35KT 0800/0802 33015G25KT' while processing 'TAF EIDW 071100Z 0712/0812 32028G45KT 9999 FEW015 BKN025\n",
            "         PROB40 TEMPO 0712/0714 32035G50KT -SHRA FEW018CB\n",
            "         BECMG 0717/0719 32020G35KT\n",
            "         BECMG 0800/0802 33015G25KT='\n",
            "Error parsing METAR: Unparsed groups in body 'TAF 0718/0818 0718/0720 32020G35KT 0800/0802 33015G25KT 0804/0806 33013KT' while processing 'TAF EIDW 071700Z 0718/0818 32025G40KT 9999 SCT020\n",
            "         BECMG 0718/0720 32020G35KT\n",
            "         BECMG 0800/0802 33015G25KT\n",
            "         BECMG 0804/0806 33013KT='\n",
            "Error parsing METAR: Unparsed groups in body 'TAF 0800/0824 0800/0803 33020G30KT 0803/0805 32010KT PROB30 0807/0810 33015G25KT 0810/0812 35013KT PROB30 0812/0816 34015G25KT' while processing 'TAF EIDW 072300Z 0800/0824 32018KT 9999 FEW018 SCT020\n",
            "         TEMPO 0800/0803 33020G30KT\n",
            "         BECMG 0803/0805 32010KT\n",
            "         PROB30 TEMPO 0807/0810 33015G25KT\n",
            "         BECMG 0810/0812 35013KT\n",
            "         PROB30 TEMPO 0812/0816 34015G25KT='\n",
            "Error parsing METAR: Unparsed groups in body 'TAF 0806/0906 PROB40 0806/0810 33015G25KT 0810/0812 35013KT PROB30 0812/0816 34015G25KT' while processing 'TAF EIDW 080500Z 0806/0906 32013KT 9999 FEW018 SCT020\n",
            "         PROB40 TEMPO 0806/0810 33015G25KT\n",
            "         BECMG 0810/0812 35013KT\n",
            "         PROB30 TEMPO 0812/0816 34015G25KT='\n",
            "Error parsing METAR: Unparsed groups in body 'TAF 0812/0912 PROB30 0812/0816 35016G26KT 0900/0902 35008KT 0910/0912 03009KT' while processing 'TAF EIDW 081100Z 0812/0912 34013KT 9999 FEW018\n",
            "         PROB30 TEMPO 0812/0816 35016G26KT\n",
            "         BECMG 0900/0902 35008KT\n",
            "         BECMG 0910/0912 03009KT='\n",
            "Error parsing METAR: Unparsed groups in body 'TAF 0818/0918 0900/0902 35008KT 0910/0912 03009KT' while processing 'TAF EIDW 081700Z 0818/0918 35013KT 9999 SCT025\n",
            "         BECMG 0900/0902 35008KT\n",
            "         BECMG 0910/0912 03009KT='\n",
            "Error parsing METAR: Unparsed groups in body 'TAF 0900/0924 0913/0915 04009KT' while processing 'TAF EIDW 082300Z 0900/0924 36010KT 9999 FEW015 BKN025\n",
            "         BECMG 0913/0915 04009KT='\n",
            "Error parsing METAR: Unparsed groups in body 'TAF 0906/1006 0913/0915 04009KT' while processing 'TAF EIDW 090500Z 0906/1006 36014KT 9999 FEW015 BKN020\n",
            "         BECMG 0913/0915 04009KT='\n",
            "Error parsing METAR: Unparsed groups in body 'TAF 0912/1012 PROB30 0912/0914 -RA BKN012 0914/0916 04010KT 1010/1012 07010KT' while processing 'TAF EIDW 091100Z 0912/1012 01011KT 9000 SCT012 BKN018\n",
            "         PROB30 TEMPO 0912/0914 -RA BKN012\n",
            "         BECMG 0914/0916 04010KT\n",
            "         BECMG 1010/1012 07010KT='\n",
            "Error parsing METAR: Unparsed groups in body 'TAF 0918/1018 0919/0921 35008KT 1009/1011 06010KT' while processing 'TAF EIDW 091700Z 0918/1018 02010KT 9999 FEW015 BKN028\n",
            "         BECMG 0919/0921 35008KT\n",
            "         BECMG 1009/1011 06010KT='\n",
            "Error parsing METAR: Unparsed groups in body 'TAF 1000/1024 1009/1011 06010KT' while processing 'TAF EIDW 092300Z 1000/1024 36010KT 9999 FEW015 BKN035\n",
            "         BECMG 1009/1011 06010KT='\n",
            "Error parsing METAR: Unparsed groups in body 'TAF 1006/1106 1009/1011 06010KT' while processing 'TAF EIDW 100500Z 1006/1106 34010KT 9999 FEW015 BKN025\n",
            "         BECMG 1009/1011 06010KT='\n",
            "Error parsing METAR: Unparsed groups in body 'TAF 1012/1112 1109/1111 09008KT' while processing 'TAF EIDW 101100Z 1012/1112 04007KT 9999 FEW020 BKN025\n",
            "         BECMG 1109/1111 09008KT='\n",
            "Error parsing METAR: Unparsed groups in body 'TAF 1018/1118 1105/1107 08009KT' while processing 'TAF EIDW 101700Z 1018/1118 05006KT 9999 BKN025\n",
            "         BECMG 1105/1107 08009KT='\n",
            "Error parsing METAR: Unparsed groups in body 'TAF AMD 1019/1118 1020/1022 05006KT 1105/1107 08009KT' while processing 'TAF AMD EIDW 101949Z 1019/1118 07011KT 9999 BKN025\n",
            "         BECMG 1020/1022 05006KT\n",
            "         BECMG 1105/1107 08009KT='\n",
            "Error parsing METAR: Unparsed groups in body 'TAF 1100/1124 1108/1110 09008KT' while processing 'TAF EIDW 102300Z 1100/1124 06007KT 9999 BKN025\n",
            "         BECMG 1108/1110 09008KT='\n",
            "Error parsing METAR: Unparsed groups in body 'TAF 1106/1206 1108/1110 09008KT' while processing 'TAF EIDW 110500Z 1106/1206 06007KT 9999 BKN024\n",
            "         BECMG 1108/1110 09008KT='\n",
            "Error parsing METAR: Unparsed groups in body 'TAF 1112/1212 1207/1209 13005KT' while processing 'TAF EIDW 111100Z 1112/1212 09007KT 9999 BKN024\n",
            "         BECMG 1207/1209 13005KT='\n",
            "Error parsing METAR: Unparsed groups in body 'TAF 1118/1218 1207/1209 VRB03KT 1214/1217 13005KT' while processing 'TAF EIDW 111700Z 1118/1218 09005KT 9999 BKN020\n",
            "         BECMG 1207/1209 VRB03KT\n",
            "         TEMPO 1214/1217 13005KT='\n",
            "Error parsing METAR: Unparsed groups in body 'TAF 1200/1224 1206/1208 12006KT 1221/1223 VRB03KT BKN010 PROB30 1222/1224 4000 -RADZ BKN006' while processing 'TAF EIDW 112300Z 1200/1224 09006KT 9999 BKN020\n",
            "         BECMG 1206/1208 12006KT\n",
            "         BECMG 1221/1223 VRB03KT BKN010\n",
            "         PROB30 TEMPO 1222/1224 4000 -RADZ BKN006='\n",
            "Error parsing METAR: Unparsed groups in body 'TAF 1206/1306 1220/1222 VRB03KT 1223/1301 BKN010 PROB30 1301/1306 4000 -RADZ BKN007' while processing 'TAF EIDW 120500Z 1206/1306 10006KT 9999 BKN020\n",
            "         BECMG 1220/1222 VRB03KT\n",
            "         BECMG 1223/1301 BKN010\n",
            "         PROB30 TEMPO 1301/1306 4000 -RADZ BKN007='\n",
            "Error parsing METAR: Unparsed groups in body 'TAF AMD 1206/1306 PROB30 1221/1223 BKN012 1223/1301 BKN012 PROB30 1301/1306 4000 -RADZ BKN006' while processing 'TAF AMD EIDW 120612Z 1206/1306 VRB03KT 9999 BKN020\n",
            "         PROB30 TEMPO 1221/1223 BKN012\n",
            "         BECMG 1223/1301 BKN012\n",
            "         PROB30 TEMPO 1301/1306 4000 -RADZ BKN006='\n",
            "Error parsing METAR: Unparsed groups in body 'TAF 1212/1312 1300/1308 BKN012 PROB30 1301/1308 4000 -RADZ BKN008' while processing 'TAF EIDW 121100Z 1212/1312 VRB03KT 9999 BKN025\n",
            "         TEMPO 1300/1308 BKN012\n",
            "         PROB30 TEMPO 1301/1308 4000 -RADZ BKN008='\n",
            "Error parsing METAR: Unparsed groups in body 'TAF 1218/1318 1300/1308 34005KT BKN012 PROB30 1301/1308 4000 -RADZ BKN008 1313/1315 27007KT' while processing 'TAF EIDW 121700Z 1218/1318 VRB03KT 9999 FEW024 BKN027\n",
            "         TEMPO 1300/1308 34005KT BKN012\n",
            "         PROB30 TEMPO 1301/1308 4000 -RADZ BKN008\n",
            "         BECMG 1313/1315 27007KT='\n",
            "Error parsing METAR: Unparsed groups in body 'TAF 1218/1318 1218/1224 35005KT 1300/1308 34005KT BKN012 PROB30 1301/1308 4000 -RADZ BKN008 1313/1315 27007KT' while processing 'TAF COR EIDW 121721Z 1218/1318 VRB03KT 9999 FEW024 BKN027\n",
            "         TEMPO 1218/1224 35005KT\n",
            "         TEMPO 1300/1308 34005KT BKN012\n",
            "         PROB30 TEMPO 1301/1308 4000 -RADZ BKN008\n",
            "         BECMG 1313/1315 27007KT='\n",
            "Error parsing METAR: Unparsed groups in body 'TAF 1300/1324 PROB40 1300/1308 30005KT -RADZ BKN012 1313/1315 27007KT PROB30 1323/1324 -RA BKN012' while processing 'TAF EIDW 122300Z 1300/1324 VRB03KT 9999 BKN025\n",
            "         PROB40 TEMPO 1300/1308 30005KT -RADZ BKN012\n",
            "         BECMG 1313/1315 27007KT\n",
            "         PROB30 TEMPO 1323/1324 -RA BKN012='\n",
            "Error parsing METAR: Unparsed groups in body 'TAF 1306/1406 PROB30 1306/1308 29005KT -RADZ BKN012 1313/1315 27007KT PROB30 1323/1401 -RA BKN012' while processing 'TAF EIDW 130500Z 1306/1406 VRB03KT 9999 BKN025\n",
            "         PROB30 TEMPO 1306/1308 29005KT -RADZ BKN012\n",
            "         BECMG 1313/1315 27007KT\n",
            "         PROB30 TEMPO 1323/1401 -RA BKN012='\n",
            "Error parsing METAR: Unparsed groups in body 'TAF 1312/1412 PROB30 1323/1401 -RA BKN012' while processing 'TAF EIDW 131100Z 1312/1412 27007KT 9999 BKN033\n",
            "         PROB30 TEMPO 1323/1401 -RA BKN012='\n",
            "Error parsing METAR: Unparsed groups in body 'TAF 1318/1418 PROB30 1322/1401 -RA BKN012' while processing 'TAF EIDW 131700Z 1318/1418 27009KT 9999 FEW018 BKN042\n",
            "         PROB30 TEMPO 1322/1401 -RA BKN012='\n",
            "Error parsing METAR: Unparsed groups in body 'TAF AMD 1321/1418 PROB40 1321/1401 5000 -RADZ BKN006' while processing 'TAF AMD EIDW 132135Z 1321/1418 28010KT 9999 FEW018 BKN020\n",
            "         PROB40 TEMPO 1321/1401 5000 -RADZ BKN006='\n",
            "Error parsing METAR: Unparsed groups in body 'TAF AMD 1400/1424 1400/1402 4000 -DZ BKN003 1409/1411 25008KT 1419/1421 24013KT 1419/1424 4000 -RA BKN008 PROB40 1420/1424 25017G27KT 2000 BR BKN004' while processing 'TAF AMD EIDW 140004Z 1400/1424 28010KT 9999 FEW015 BKN040\n",
            "         TEMPO 1400/1402 4000 -DZ BKN003\n",
            "         BECMG 1409/1411 25008KT\n",
            "         BECMG 1419/1421 24013KT\n",
            "         TEMPO 1419/1424 4000 -RA BKN008\n",
            "         PROB40 TEMPO 1420/1424 25017G27KT 2000 BR BKN004='\n",
            "Error parsing METAR: Unparsed groups in body 'TAF AMD 1400/1424 1400/1402 4000 -DZ BKN003 1409/1411 25008KT 1419/1421 24013KT 1419/1424 4000 -RA BKN008 PROB40 1420/1424 25017G27KT 2000 BR BKN004' while processing 'TAF AMD EIDW 140004Z 1400/1424 28010KT 9999 FEW015 BKN040\n",
            "         TEMPO 1400/1402 4000 -DZ BKN003\n",
            "         BECMG 1409/1411 25008KT\n",
            "         BECMG 1419/1421 24013KT\n",
            "         TEMPO 1419/1424 4000 -RA BKN008\n",
            "         PROB40 TEMPO 1420/1424 25017G27KT 2000 BR BKN004='\n",
            "Error parsing METAR: Unparsed groups in body 'TAF 1406/1506 1410/1412 25010KT PROB30 1415/1419 -RA BKN012 1419/1506 4000 -RA BKN008 PROB40 1419/1506 25015G27KT 2000 BR BKN004 PROB30 1422/1506 0800 FG BKN002' while processing 'TAF EIDW 140500Z 1406/1506 28010KT 9999 FEW045\n",
            "         BECMG 1410/1412 25010KT\n",
            "         PROB30 TEMPO 1415/1419 -RA BKN012\n",
            "         TEMPO 1419/1506 4000 -RA BKN008\n",
            "         PROB40 TEMPO 1419/1506 25015G27KT 2000 BR BKN004\n",
            "         PROB30 TEMPO 1422/1506 0800 FG BKN002='\n",
            "Error parsing METAR: Unparsed groups in body 'TAF 1412/1512 1412/1417 26009KT PROB30 1415/1417 4000 -RA BKN012 1417/1419 4000 -RA BKN008 1419/1501 26015G25KT 1419/1507 2500 -RADZ BKN004 PROB30 1423/1507 1200 BR BKN002 PROB30 1501/1509 25014G25KT 1507/1509 9999 NSW BKN012 1509/1512 26015G26KT BKN008 PROB30 1509/1512 4000 -DZ BR' while processing 'TAF EIDW 141100Z 1412/1512 25014KT 9999 FEW012 BKN030\n",
            "         TEMPO 1412/1417 26009KT\n",
            "         PROB30 TEMPO 1415/1417 4000 -RA BKN012\n",
            "         BECMG 1417/1419 4000 -RA BKN008\n",
            "         TEMPO 1419/1501 26015G25KT\n",
            "         TEMPO 1419/1507 2500 -RADZ BKN004\n",
            "         PROB30 TEMPO 1423/1507 1200 BR BKN002\n",
            "         PROB30 TEMPO 1501/1509 25014G25KT\n",
            "         BECMG 1507/1509 9999 NSW BKN012\n",
            "         TEMPO 1509/1512 26015G26KT BKN008\n",
            "         PROB30 TEMPO 1509/1512 4000 -DZ BR='\n",
            "Error parsing METAR: Unparsed groups in body 'TAF 1418/1518 1418/1501 26015G25KT 1418/1420 4000 -RA BKN007 1419/1507 2500 -RADZ BKN004 PROB30 1421/1507 1200 BR BKN002 PROB40 1501/1509 25014G25KT 1507/1509 9999 NSW FEW008 BKN018 1509/1511 26016G27KT 1509/1514 BKN008 PROB30 1509/1512 4000 -DZ 1513/1518 26019G32KT' while processing 'TAF EIDW 141700Z 1418/1518 25013KT 9999 FEW007 BKN012\n",
            "         TEMPO 1418/1501 26015G25KT\n",
            "         BECMG 1418/1420 4000 -RA BKN007\n",
            "         TEMPO 1419/1507 2500 -RADZ BKN004\n",
            "         PROB30 TEMPO 1421/1507 1200 BR BKN002\n",
            "         PROB40 TEMPO 1501/1509 25014G25KT\n",
            "         BECMG 1507/1509 9999 NSW FEW008 BKN018\n",
            "         BECMG 1509/1511 26016G27KT\n",
            "         TEMPO 1509/1514 BKN008\n",
            "         PROB30 TEMPO 1509/1512 4000 -DZ\n",
            "         TEMPO 1513/1518 26019G32KT='\n",
            "Error parsing METAR: Unparsed groups in body 'TAF 1500/1524 1500/1508 3000 -RADZ BKN004 PROB30 1500/1507 25015G25KT 1500 BR BKN002 1508/1510 9999 NSW FEW008 BKN018 1508/1524 25016G27KT PROB40 1508/1514 5000 -DZ BKN008 PROB40 1515/1522 25019G32KT' while processing 'TAF EIDW 142300Z 1500/1524 25012KT 5000 -DZ SCT004 BKN006\n",
            "         TEMPO 1500/1508 3000 -RADZ BKN004\n",
            "         PROB30 TEMPO 1500/1507 25015G25KT 1500 BR BKN002\n",
            "         BECMG 1508/1510 9999 NSW FEW008 BKN018\n",
            "         TEMPO 1508/1524 25016G27KT\n",
            "         PROB40 TEMPO 1508/1514 5000 -DZ BKN008\n",
            "         PROB40 TEMPO 1515/1522 25019G32KT='\n",
            "Error parsing METAR: Unparsed groups in body 'TAF 1506/1606 PROB40 1506/1508 25015G25KT 3000 -RADZ BKN003 1508/1510 FEW008 BKN018 1508/1606 24016G27KT PROB40 1508/1515 5000 -DZ FEW003 BKN008 PROB40 1513/1522 24019G32KT' while processing 'TAF EIDW 150500Z 1506/1606 25012KT 9999 BKN006\n",
            "         PROB40 TEMPO 1506/1508 25015G25KT 3000 -RADZ BKN003\n",
            "         BECMG 1508/1510 FEW008 BKN018\n",
            "         TEMPO 1508/1606 24016G27KT\n",
            "         PROB40 TEMPO 1508/1515 5000 -DZ FEW003 BKN008\n",
            "         PROB40 TEMPO 1513/1522 24019G32KT='\n",
            "Error parsing METAR: Unparsed groups in body 'TAF AMD 1509/1606 1509/1606 24016G27KT 1509/1515 4000 -DZ PROB30 1511/1514 3000 BR BKN004 1514/1516 SCT008 BKN015 PROB30 1516/1518 BKN008 PROB40 1514/1522 24019G32KT' while processing 'TAF AMD EIDW 150933Z 1509/1606 25014KT 9999 FEW004 BKN008\n",
            "         TEMPO 1509/1606 24016G27KT\n",
            "         TEMPO 1509/1515 4000 -DZ\n",
            "         PROB30 TEMPO 1511/1514 3000 BR BKN004\n",
            "         BECMG 1514/1516 SCT008 BKN015\n",
            "         PROB30 TEMPO 1516/1518 BKN008\n",
            "         PROB40 TEMPO 1514/1522 24019G32KT='\n",
            "Error parsing METAR: Unparsed groups in body 'TAF 1512/1612 1512/1612 25017G27KT 1512/1515 4000 -DZ BKN008 PROB30 1512/1514 3000 BR BKN004 PROB40 1514/1522 25019G32KT PROB40 1515/1519 BKN010' while processing 'TAF EIDW 151100Z 1512/1612 25015KT 9999 SCT008 BKN015\n",
            "         TEMPO 1512/1612 25017G27KT\n",
            "         TEMPO 1512/1515 4000 -DZ BKN008\n",
            "         PROB30 TEMPO 1512/1514 3000 BR BKN004\n",
            "         PROB40 TEMPO 1514/1522 25019G32KT\n",
            "         PROB40 TEMPO 1515/1519 BKN010='\n",
            "Error parsing METAR: Unparsed groups in body 'TAF 1518/1618 1518/1606 25018G28KT PROB40 1518/1522 25020G33KT 1606/1608 23011KT 1606/1618 24015G25KT PROB30 1606/1610 -DZ BKN012' while processing 'TAF EIDW 151700Z 1518/1618 25016KT 9999 FEW012 BKN016\n",
            "         TEMPO 1518/1606 25018G28KT\n",
            "         PROB40 TEMPO 1518/1522 25020G33KT\n",
            "         BECMG 1606/1608 23011KT\n",
            "         TEMPO 1606/1618 24015G25KT\n",
            "         PROB30 TEMPO 1606/1610 -DZ BKN012='\n",
            "Error parsing METAR: Unparsed groups in body 'TAF 1600/1624 1600/1617 26020G30KT PROB30 1600/1610 -DZ BKN012 1617/1619 23010KT' while processing 'TAF EIDW 152300Z 1600/1624 24017KT 9999 SCT015 BKN025\n",
            "         TEMPO 1600/1617 26020G30KT\n",
            "         PROB30 TEMPO 1600/1610 -DZ BKN012\n",
            "         BECMG 1617/1619 23010KT='\n",
            "Error parsing METAR: Unparsed groups in body 'TAF 1606/1706 1606/1616 26015G25KT PROB30 1606/1610 -DZ BKN012 1700/1702 16008KT 1702/1706 -DZ BKN009' while processing 'TAF EIDW 160500Z 1606/1706 24012KT 9999 FEW015 SCT030\n",
            "         TEMPO 1606/1616 26015G25KT\n",
            "         PROB30 TEMPO 1606/1610 -DZ BKN012\n",
            "         BECMG 1700/1702 16008KT\n",
            "         TEMPO 1702/1706 -DZ BKN009='\n",
            "Error parsing METAR: Unparsed groups in body 'TAF 1612/1712 PROB30 1612/1616 24015G25KT 1701/1703 16008KT PROB30 1702/1712 -DZ BKN009 1710/1712 17013KT' while processing 'TAF EIDW 161100Z 1612/1712 24012KT 9999 FEW015 SCT040\n",
            "         PROB30 TEMPO 1612/1616 24015G25KT\n",
            "         BECMG 1701/1703 16008KT\n",
            "         PROB30 TEMPO 1702/1712 -DZ BKN009\n",
            "         BECMG 1710/1712 17013KT='\n",
            "Error parsing METAR: Unparsed groups in body 'TAF 1618/1718 1623/1701 20007KT 1701/1703 15008KT 1710/1712 16013KT 1711/1718 -RA BKN012 1713/1715 17015G25KT 1715/1718 17018G30KT' while processing 'TAF EIDW 161700Z 1618/1718 23009KT 9999 FEW013 BKN040\n",
            "         BECMG 1623/1701 20007KT\n",
            "         BECMG 1701/1703 15008KT\n",
            "         BECMG 1710/1712 16013KT\n",
            "         TEMPO 1711/1718 -RA BKN012\n",
            "         BECMG 1713/1715 17015G25KT\n",
            "         TEMPO 1715/1718 17018G30KT='\n",
            "Error parsing METAR: Unparsed groups in body 'TAF 1700/1724 1701/1703 15008KT 1711/1713 16013KT PROB40 1711/1720 -RA BKN012 1713/1715 17015G25KT 1715/1720 17018G32KT 1720/1722 20015G25KT 1720/1724 21018G32KT -RA BKN010 PROB30 1720/1724 4000 -RADZ BKN007' while processing 'TAF EIDW 162300Z 1700/1724 19006KT 9999 FEW018 SCT040\n",
            "         BECMG 1701/1703 15008KT\n",
            "         BECMG 1711/1713 16013KT\n",
            "         PROB40 TEMPO 1711/1720 -RA BKN012\n",
            "         BECMG 1713/1715 17015G25KT\n",
            "         TEMPO 1715/1720 17018G32KT\n",
            "         BECMG 1720/1722 20015G25KT\n",
            "         TEMPO 1720/1724 21018G32KT -RA BKN010\n",
            "         PROB30 TEMPO 1720/1724 4000 -RADZ BKN007='\n",
            "Error parsing METAR: Unparsed groups in body 'TAF 1706/1806 1711/1713 16013KT PROB40 1711/1720 -RA BKN010 1713/1715 17015G25KT 1713/1719 17018G32KT PROB30 1717/1720 4000 -RADZ BKN007 1719/1721 20017G28KT 1720/1806 21020G33KT -RA BKN010' while processing 'TAF EIDW 170500Z 1706/1806 14008KT 9999 FEW015 SCT030\n",
            "         BECMG 1711/1713 16013KT\n",
            "         PROB40 TEMPO 1711/1720 -RA BKN010\n",
            "         BECMG 1713/1715 17015G25KT\n",
            "         TEMPO 1713/1719 17018G32KT\n",
            "         PROB30 TEMPO 1717/1720 4000 -RADZ BKN007\n",
            "         BECMG 1719/1721 20017G28KT\n",
            "         TEMPO 1720/1806 21020G33KT -RA BKN010='\n",
            "Error parsing METAR: Unparsed groups in body 'TAF AMD 1707/1806 1711/1713 17013KT PROB40 1711/1720 -RA BKN010 1713/1715 17015G25KT 1713/1719 17018G32KT PROB30 1717/1720 4000 -RADZ BKN007 1719/1721 20017G28KT 1720/1806 21020G33KT -RA BKN010' while processing 'TAF AMD EIDW 170709Z 1707/1806 17008KT 9999 FEW015 SCT030\n",
            "         BECMG 1711/1713 17013KT\n",
            "         PROB40 TEMPO 1711/1720 -RA BKN010\n",
            "         BECMG 1713/1715 17015G25KT\n",
            "         TEMPO 1713/1719 17018G32KT\n",
            "         PROB30 TEMPO 1717/1720 4000 -RADZ BKN007\n",
            "         BECMG 1719/1721 20017G28KT\n",
            "         TEMPO 1720/1806 21020G33KT -RA BKN010='\n",
            "Error parsing METAR: Unparsed groups in body 'TAF 1712/1812 1712/1714 17015G25KT 1713/1720 17018G32KT -RA BKN010 PROB30 1717/1720 4000 -RADZ BKN007 1720/1722 20017G28KT 1720/1804 21020G33KT -RA BKN010 1804/1806 25020G33KT 1806/1810 27023G38KT' while processing 'TAF EIDW 171100Z 1712/1812 18014KT 9999 SCT010 BKN020\n",
            "         BECMG 1712/1714 17015G25KT\n",
            "         TEMPO 1713/1720 17018G32KT -RA BKN010\n",
            "         PROB30 TEMPO 1717/1720 4000 -RADZ BKN007\n",
            "         BECMG 1720/1722 20017G28KT\n",
            "         TEMPO 1720/1804 21020G33KT -RA BKN010\n",
            "         BECMG 1804/1806 25020G33KT\n",
            "         TEMPO 1806/1810 27023G38KT='\n",
            "Error parsing METAR: Unparsed groups in body 'TAF 1718/1818 1718/1720 17020G30KT -RA BKN010 PROB30 1718/1721 4000 -RADZ BKN007 1720/1722 20017G28KT 1720/1804 21020G33KT -RA BKN010 1804/1806 25020G33KT PROB40 1804/1807 -RA BKN010 1806/1809 26023G38KT 1810/1812 26015G25KT 1812/1814 26012KT' while processing 'TAF EIDW 171700Z 1718/1818 17015G25KT 9999 SCT010 BKN020\n",
            "         TEMPO 1718/1720 17020G30KT -RA BKN010\n",
            "         PROB30 TEMPO 1718/1721 4000 -RADZ BKN007\n",
            "         BECMG 1720/1722 20017G28KT\n",
            "         TEMPO 1720/1804 21020G33KT -RA BKN010\n",
            "         BECMG 1804/1806 25020G33KT\n",
            "         PROB40 TEMPO 1804/1807 -RA BKN010\n",
            "         TEMPO 1806/1809 26023G38KT\n",
            "         BECMG 1810/1812 26015G25KT\n",
            "         BECMG 1812/1814 26012KT='\n",
            "Error parsing METAR: Unparsed groups in body 'TAF 1800/1824 1800/1807 -RA BKN010 1800/1805 21018G32KT 1805/1807 28023G40KT 1807/1809 26020G35KT 1810/1812 26015G25KT 1812/1814 26012KT PROB30 1822/1824 -SHRA FEW018CB' while processing 'TAF EIDW 172300Z 1800/1824 20015G26KT 9999 SCT010 BKN020\n",
            "         TEMPO 1800/1807 -RA BKN010\n",
            "         TEMPO 1800/1805 21018G32KT\n",
            "         BECMG 1805/1807 28023G40KT\n",
            "         BECMG 1807/1809 26020G35KT\n",
            "         BECMG 1810/1812 26015G25KT\n",
            "         BECMG 1812/1814 26012KT\n",
            "         PROB30 TEMPO 1822/1824 -SHRA FEW018CB='\n",
            "Error parsing METAR: Unparsed groups in body 'TAF 1806/1906 1806/1807 28023G40KT 1806/1807 -RA BKN010 1807/1809 26020G35KT 1810/1812 26015G25KT 1812/1814 26010KT 1903/1906 26015G26KT -SHRA FEW018CB' while processing 'TAF EIDW 180500Z 1806/1906 24015G25KT 9999 FEW010 BKN020\n",
            "         BECMG 1806/1807 28023G40KT\n",
            "         TEMPO 1806/1807 -RA BKN010\n",
            "         BECMG 1807/1809 26020G35KT\n",
            "         BECMG 1810/1812 26015G25KT\n",
            "         BECMG 1812/1814 26010KT\n",
            "         TEMPO 1903/1906 26015G26KT -SHRA FEW018CB='\n",
            "Error parsing METAR: Unparsed groups in body 'TAF AMD 1806/1906 1806/1807 28023G40KT 1806/1807 4000 RA BKN009 1807/1809 26020G35KT 9999 1810/1812 26015G25KT 1812/1814 26010KT 1903/1906 26015G26KT -SHRA FEW018CB' while processing 'TAF AMD EIDW 180558Z 1806/1906 25015G25KT 6000 -RA SCT009 BKN020\n",
            "          BECMG 1806/1807 28023G40KT\n",
            "         TEMPO 1806/1807 4000 RA BKN009\n",
            "         BECMG 1807/1809 26020G35KT 9999\n",
            "         BECMG 1810/1812 26015G25KT\n",
            "         BECMG 1812/1814 26010KT\n",
            "         TEMPO 1903/1906 26015G26KT -SHRA FEW018CB='\n",
            "Error parsing METAR: Unparsed groups in body 'TAF 1812/1912 1812/1814 26015G26KT 1815/1817 30012KT PROB40 1815/1820 4000 -RA BKN012 1817/1819 32015G25KT 1822/1824 27010KT 1903/1912 29015G25KT -SHRA FEW018CB' while processing 'TAF EIDW 181100Z 1812/1912 25013KT 9999 FEW010 BKN020\n",
            "         TEMPO 1812/1814 26015G26KT\n",
            "         BECMG 1815/1817 30012KT\n",
            "         PROB40 TEMPO 1815/1820 4000 -RA BKN012\n",
            "         TEMPO 1817/1819 32015G25KT\n",
            "         BECMG 1822/1824 27010KT\n",
            "         TEMPO 1903/1912 29015G25KT -SHRA FEW018CB='\n",
            "Error parsing METAR: Unparsed groups in body 'TAF 1818/1918 1818/1820 30012KT PROB40 1818/1820 32015G25KT 4000 -RA BKN012 1822/1824 27012KT 1903/1916 28017G28KT -SHRA FEW018CB' while processing 'TAF EIDW 181700Z 1818/1918 27008KT 9999 FEW010 BKN050\n",
            "         BECMG 1818/1820 30012KT\n",
            "         PROB40 TEMPO 1818/1820 32015G25KT 4000 -RA BKN012\n",
            "         BECMG 1822/1824 27012KT\n",
            "         TEMPO 1903/1916 28017G28KT -SHRA FEW018CB='\n",
            "Error parsing METAR: Unparsed groups in body 'TAF 1900/1924 1903/1914 29017G28KT -SHRA FEW018CB 1921/1923 25012KT' while processing 'TAF EIDW 182300Z 1900/1924 28012KT 9999 FEW010 BKN050\n",
            "         TEMPO 1903/1914 29017G28KT -SHRA FEW018CB\n",
            "         BECMG 1921/1923 25012KT='\n",
            "Error parsing METAR: Unparsed groups in body 'TAF 1906/2006 1906/1915 29018G30KT -SHRA FEW018CB 1922/1924 25009KT 2002/2004 22015G25KT' while processing 'TAF EIDW 190500Z 1906/2006 27014KT 9999 FEW010 SCT030\n",
            "         TEMPO 1906/1915 29018G30KT -SHRA FEW018CB\n",
            "         BECMG 1922/1924 25009KT\n",
            "         BECMG 2002/2004 22015G25KT='\n",
            "Error parsing METAR: Unparsed groups in body 'TAF 1912/2012 1912/1915 29018G30KT PROB30 1912/1915 -SHRA FEW018CB 1922/1924 25009KT 2002/2004 22013KT 2009/2011 25018G30KT PROB40 2009/2012 -RA BKN014' while processing 'TAF EIDW 191100Z 1912/2012 28014KT 9999 FEW012\n",
            "         TEMPO 1912/1915 29018G30KT\n",
            "         PROB30 TEMPO 1912/1915 -SHRA FEW018CB\n",
            "         BECMG 1922/1924 25009KT\n",
            "         BECMG 2002/2004 22013KT\n",
            "         BECMG 2009/2011 25018G30KT\n",
            "         PROB40 TEMPO 2009/2012 -RA BKN014='\n",
            "Error parsing METAR: Unparsed groups in body 'TAF 1918/2018 2002/2004 22013KT 2008/2010 22015G26KT PROB40 2009/2012 -RA BKN014 2010/2012 27018G30KT 2015/2017 27012KT' while processing 'TAF EIDW 191700Z 1918/2018 26012KT 9999 SCT025\n",
            "         BECMG 2002/2004 22013KT\n",
            "         TEMPO 2008/2010 22015G26KT\n",
            "         PROB40 TEMPO 2009/2012 -RA BKN014\n",
            "         BECMG 2010/2012 27018G30KT\n",
            "         BECMG 2015/2017 27012KT='\n",
            "Error parsing METAR: Unparsed groups in body 'TAF 2000/2024 2002/2004 22013KT 2008/2010 22015G26KT PROB40 2009/2012 -RA BKN014 2010/2012 27018G30KT 2015/2017 27012KT 2021/2023 24010KT' while processing 'TAF EIDW 192300Z 2000/2024 24007KT 9999 FEW012 SCT040\n",
            "         BECMG 2002/2004 22013KT\n",
            "         TEMPO 2008/2010 22015G26KT\n",
            "         PROB40 TEMPO 2009/2012 -RA BKN014\n",
            "         BECMG 2010/2012 27018G30KT\n",
            "         BECMG 2015/2017 27012KT\n",
            "         BECMG 2021/2023 24010KT='\n",
            "Error parsing METAR: Unparsed groups in body 'TAF 2006/2106 2008/2010 22015G26KT PROB40 2009/2012 -RA BKN014 2010/2012 27018G30KT 2015/2017 27012KT 2021/2023 24010KT 2103/2105 24020G35KT 2103/2106 -RA BKN010' while processing 'TAF EIDW 200500Z 2006/2106 22013KT 9999 FEW012 SCT025\n",
            "         TEMPO 2008/2010 22015G26KT\n",
            "         PROB40 TEMPO 2009/2012 -RA BKN014\n",
            "         BECMG 2010/2012 27018G30KT\n",
            "         BECMG 2015/2017 27012KT\n",
            "         BECMG 2021/2023 24010KT\n",
            "         BECMG 2103/2105 24020G35KT\n",
            "         TEMPO 2103/2106 -RA BKN010='\n",
            "Error parsing METAR: Unparsed groups in body 'TAF 2012/2112 2013/2015 27012KT 2013/2016 28015G25KT 2020/2022 24010KT 2100/2104 23015G25KT PROB40 2103/2107 -RA BKN008 2104/2106 24020G35KT 2108/2112 26025G40KT' while processing 'TAF EIDW 201100Z 2012/2112 23012KT 9999 SCT016 BKN030\n",
            "         BECMG 2013/2015 27012KT\n",
            "         TEMPO 2013/2016 28015G25KT\n",
            "         BECMG 2020/2022 24010KT\n",
            "         TEMPO 2100/2104 23015G25KT\n",
            "         PROB40 TEMPO 2103/2107 -RA BKN008\n",
            "         BECMG 2104/2106 24020G35KT\n",
            "         TEMPO 2108/2112 26025G40KT='\n",
            "Error parsing METAR: Unparsed groups in body 'TAF 2018/2118 2021/2023 24010KT 2100/2104 23015G25KT PROB40 2103/2108 -RA BKN010 2104/2106 24020G35KT 2108/2110 27020G35KT 2111/2116 26025G40KT' while processing 'TAF EIDW 201700Z 2018/2118 27010KT 9999 FEW020 SCT030\n",
            "         BECMG 2021/2023 24010KT\n",
            "         TEMPO 2100/2104 23015G25KT\n",
            "         PROB40 TEMPO 2103/2108 -RA BKN010\n",
            "         BECMG 2104/2106 24020G35KT\n",
            "         BECMG 2108/2110 27020G35KT\n",
            "         TEMPO 2111/2116 26025G40KT='\n",
            "Error parsing METAR: Unparsed groups in body 'TAF 2100/2124 2102/2104 23015G25KT PROB40 2103/2108 -RA BKN012 2104/2106 24020G35KT 2108/2110 27020G35KT 2111/2117 26025G42KT 2115/2124 FEW020CB' while processing 'TAF EIDW 202300Z 2100/2124 24010KT 9999 FEW020 SCT030\n",
            "         BECMG 2102/2104 23015G25KT\n",
            "         PROB40 TEMPO 2103/2108 -RA BKN012\n",
            "         BECMG 2104/2106 24020G35KT\n",
            "         BECMG 2108/2110 27020G35KT\n",
            "         TEMPO 2111/2117 26025G42KT\n",
            "         TEMPO 2115/2124 FEW020CB='\n",
            "Error parsing METAR: Unparsed groups in body 'TAF 2106/2206 2106/2108 -RA BKN010 2108/2110 27020G35KT 2111/2117 26025G42KT 2115/2206 FEW020CB' while processing 'TAF EIDW 210500Z 2106/2206 24020G35KT 9999 FEW020 SCT030\n",
            "         TEMPO 2106/2108 -RA BKN010\n",
            "         BECMG 2108/2110 27020G35KT\n",
            "         TEMPO 2111/2117 26025G42KT\n",
            "         TEMPO 2115/2206 FEW020CB='\n",
            "Error parsing METAR: Unparsed groups in body 'TAF 2112/2212 2112/2117 27025G40KT 2122/2212 27025G40KT SHRA FEW018CB PROB40 2123/2209 3000 SHRAGS BKN012 SCT018CB' while processing 'TAF EIDW 211100Z 2112/2212 26020G35KT 9999 FEW020\n",
            "         TEMPO 2112/2117 27025G40KT\n",
            "         TEMPO 2122/2212 27025G40KT SHRA FEW018CB\n",
            "         PROB40 TEMPO 2123/2209 3000 SHRAGS BKN012 SCT018CB='\n",
            "Error parsing METAR: Unparsed groups in body 'TAF 2118/2218 2122/2211 27025G40KT SHRA FEW018CB PROB40 2123/2209 3000 SHRAGS BKN012 SCT018CB 2210/2212 30020G33KT 2211/2216 30025G40KT 2216/2218 29015G28KT' while processing 'TAF EIDW 211700Z 2118/2218 26018G30KT 9999 FEW015 SCT025 BKN030\n",
            "          TEMPO 2122/2211 27025G40KT SHRA FEW018CB\n",
            "         PROB40 TEMPO 2123/2209 3000 SHRAGS BKN012 SCT018CB\n",
            "         BECMG 2210/2212 30020G33KT\n",
            "         TEMPO 2211/2216 30025G40KT\n",
            "         BECMG 2216/2218 29015G28KT='\n",
            "Error parsing METAR: Unparsed groups in body 'TAF 2200/2224 2200/2211 27025G40KT SHRA FEW018CB PROB40 2200/2209 3000 SHRAGS BKN012 SCT018CB 2210/2212 30020G33KT 2211/2216 30025G40KT 2216/2218 29015G28KT 2219/2221 27012KT' while processing 'TAF EIDW 212300Z 2200/2224 26018G30KT 9999 FEW015 SCT025\n",
            "         TEMPO 2200/2211 27025G40KT SHRA FEW018CB\n",
            "         PROB40 TEMPO 2200/2209 3000 SHRAGS BKN012 SCT018CB\n",
            "         BECMG 2210/2212 30020G33KT\n",
            "         TEMPO 2211/2216 30025G40KT\n",
            "         BECMG 2216/2218 29015G28KT\n",
            "         BECMG 2219/2221 27012KT='\n",
            "Error parsing METAR: Unparsed groups in body 'TAF 2206/2306 2206/2211 27022G38KT SHRA FEW018CB PROB30 2206/2209 3000 SHRAGS BKN012 SCT018CB 2210/2212 30020G32KT 2211/2216 30022G38KT 2216/2218 29015G27KT 2219/2221 27012KT' while processing 'TAF EIDW 220500Z 2206/2306 26018G30KT 9999 FEW015 SCT025\n",
            "         TEMPO 2206/2211 27022G38KT SHRA FEW018CB\n",
            "         PROB30 TEMPO 2206/2209 3000 SHRAGS BKN012 SCT018CB\n",
            "         BECMG 2210/2212 30020G32KT\n",
            "         TEMPO 2211/2216 30022G38KT\n",
            "         BECMG 2216/2218 29015G27KT\n",
            "         BECMG 2219/2221 27012KT='\n",
            "Error parsing METAR: Unparsed groups in body 'TAF 2212/2312 2212/2215 30022G38KT -SHRA FEW018CB 2216/2218 30015G27KT 2219/2221 27013KT 2306/2308 23008KT 2310/2312 20006KT 6000 -DZ SCT006 BKN010' while processing 'TAF EIDW 221100Z 2212/2312 27018G30KT 9999 FEW018 SCT025\n",
            "         TEMPO 2212/2215 30022G38KT -SHRA FEW018CB\n",
            "         BECMG 2216/2218 30015G27KT\n",
            "         BECMG 2219/2221 27013KT\n",
            "         BECMG 2306/2308 23008KT\n",
            "         BECMG 2310/2312 20006KT 6000 -DZ SCT006 BKN010='\n",
            "Error parsing METAR: Unparsed groups in body 'TAF 2218/2318 2218/2220 29016G27KT 2306/2308 23008KT 2310/2312 20006KT 6000 -DZ SCT006 BKN010 2311/2314 4000 -RADZ BKN006 2314/2316 25012KT 4000 -DZ SCT003 BKN006 2314/2318 2000 -RADZ BR BKN003' while processing 'TAF EIDW 221700Z 2218/2318 27013KT 9999 FEW018\n",
            "         TEMPO 2218/2220 29016G27KT\n",
            "         BECMG 2306/2308 23008KT\n",
            "         BECMG 2310/2312 20006KT 6000 -DZ SCT006 BKN010\n",
            "         TEMPO 2311/2314 4000 -RADZ BKN006\n",
            "         BECMG 2314/2316 25012KT 4000 -DZ SCT003 BKN006\n",
            "         TEMPO 2314/2318 2000 -RADZ BR BKN003='\n",
            "Error parsing METAR: Unparsed groups in body 'TAF 2300/2324 2306/2308 23008KT 2310/2312 20008KT 6000 -DZ SCT006 BKN010 2312/2314 25013KT 4000 -DZ SCT002 BKN006 PROB40 2313/2315 24015G25KT PROB40 2314/2320 2000 -RADZ BR BKN002 PROB30 2320/2324 2000 -RADZ BR BKN002' while processing 'TAF EIDW 222300Z 2300/2324 27014KT 9999 FEW018\n",
            "         BECMG 2306/2308 23008KT\n",
            "         BECMG 2310/2312 20008KT 6000 -DZ SCT006 BKN010\n",
            "         BECMG 2312/2314 25013KT 4000 -DZ SCT002 BKN006\n",
            "         PROB40 TEMPO 2313/2315 24015G25KT\n",
            "         PROB40 TEMPO 2314/2320 2000 -RADZ BR BKN002\n",
            "         PROB30 TEMPO 2320/2324 2000 -RADZ BR BKN002='\n",
            "Error parsing METAR: Unparsed groups in body 'TAF 2306/2406 2306/2308 23008KT 2310/2312 20008KT 6000 -RA SCT006 BKN010 2312/2314 25013KT -DZ SCT002 BKN006 2313/2406 4000 PROB40 2313/2315 24015G25KT PROB40 2314/2320 2000 -RADZ BR BKN002 PROB30 2320/2404 2000 -RADZ BR BKN002' while processing 'TAF EIDW 230500Z 2306/2406 26010KT 9999 FEW018\n",
            "         BECMG 2306/2308 23008KT\n",
            "         BECMG 2310/2312 20008KT 6000 -RA SCT006 BKN010\n",
            "         BECMG 2312/2314 25013KT -DZ SCT002 BKN006\n",
            "         TEMPO 2313/2406 4000\n",
            "         PROB40 TEMPO 2313/2315 24015G25KT\n",
            "         PROB40 TEMPO 2314/2320 2000 -RADZ BR BKN002\n",
            "         PROB30 TEMPO 2320/2404 2000 -RADZ BR BKN002='\n",
            "Error parsing METAR: Unparsed groups in body 'TAF 2312/2412 2312/2314 25013KT 6000 -RA SCT002 BKN006 2313/2405 2000 -RA BKN002 PROB40 2313/2315 24015G25KT PROB30 2315/2320 0800 FG BKN001 2400/2408 25015G25KT 2405/2407 BKN015 PROB30 2407/2412 BKN010' while processing 'TAF EIDW 231100Z 2312/2412 22008KT 9999 SCT006 BKN010\n",
            "         BECMG 2312/2314 25013KT 6000 -RA SCT002 BKN006\n",
            "         TEMPO 2313/2405 2000 -RA BKN002\n",
            "         PROB40 TEMPO 2313/2315 24015G25KT\n",
            "         PROB30 TEMPO 2315/2320 0800 FG BKN001\n",
            "         TEMPO 2400/2408 25015G25KT\n",
            "         BECMG 2405/2407 BKN015\n",
            "         PROB30 TEMPO 2407/2412 BKN010='\n",
            "Error parsing METAR: Unparsed groups in body 'TAF 2318/2418 2318/2405 2000 -RA BKN002 PROB30 2318/2320 0800 FG BKN001 PROB40 2400/2408 25015G25KT 2405/2407 9999 BKN015 PROB30 2407/2415 -DZ BKN012' while processing 'TAF EIDW 231700Z 2318/2418 25012KT 8000 -RA FEW002 BKN005\n",
            "         TEMPO 2318/2405 2000 -RA BKN002\n",
            "         PROB30 TEMPO 2318/2320 0800 FG BKN001\n",
            "         PROB40 TEMPO 2400/2408 25015G25KT\n",
            "         BECMG 2405/2407 9999 BKN015\n",
            "         PROB30 TEMPO 2407/2415 -DZ BKN012='\n",
            "Error parsing METAR: Unparsed groups in body 'TAF AMD 2321/2418 PROB30 2321/2403 4500 -DZ BKN004 PROB40 2321/2414 26015G25KT 2405/2407 9999 BKN015 PROB30 2407/2415 -DZ BKN012' while processing 'TAF AMD EIDW 232120Z 2321/2418 25014KT 9999 FEW003 BKN005\n",
            "         PROB30 TEMPO 2321/2403 4500 -DZ BKN004\n",
            "         PROB40 TEMPO 2321/2414 26015G25KT\n",
            "         BECMG 2405/2407 9999 BKN015\n",
            "         PROB30 TEMPO 2407/2415 -DZ BKN012='\n",
            "Error parsing METAR: Unparsed groups in body 'TAF 2400/2424 PROB30 2400/2403 4500 -DZ BKN004 PROB40 2400/2414 26015G25KT 2405/2407 BKN015 PROB30 2407/2415 -DZ BKN012 2417/2419 22012KT' while processing 'TAF EIDW 232300Z 2400/2424 25014KT 9999 FEW003 BKN006\n",
            "         PROB30 TEMPO 2400/2403 4500 -DZ BKN004\n",
            "         PROB40 TEMPO 2400/2414 26015G25KT\n",
            "         BECMG 2405/2407 BKN015\n",
            "         PROB30 TEMPO 2407/2415 -DZ BKN012\n",
            "         BECMG 2417/2419 22012KT='\n",
            "Error parsing METAR: Unparsed groups in body 'TAF 2406/2506 2406/2408 SCT010 BKN015 PROB30 2408/2415 26015G25KT -DZ BKN012 2417/2419 22012KT' while processing 'TAF EIDW 240500Z 2406/2506 25013KT 9999 FEW003 BKN008\n",
            "         BECMG 2406/2408 SCT010 BKN015\n",
            "         PROB30 TEMPO 2408/2415 26015G25KT -DZ BKN012\n",
            "         BECMG 2417/2419 22012KT='\n",
            "Error parsing METAR: Unparsed groups in body 'TAF AMD 2409/2506 2409/2411 SCT010 BKN015 PROB30 2411/2415 26015G25KT -DZ BKN012 2417/2419 22012KT' while processing 'TAF AMD EIDW 240912Z 2409/2506 25013KT 9999 BKN005\n",
            "         BECMG 2409/2411 SCT010 BKN015\n",
            "         PROB30 TEMPO 2411/2415 26015G25KT -DZ BKN012\n",
            "         BECMG 2417/2419 22012KT='\n",
            "Error parsing METAR: Unparsed groups in body 'TAF 2412/2512 2412/2414 9999 NSW SCT010 BKN015 PROB30 2414/2416 -DZ BKN012 2419/2421 21012KT' while processing 'TAF EIDW 241100Z 2412/2512 24008KT 5000 -DZ FEW005 BKN008\n",
            "         BECMG 2412/2414 9999 NSW SCT010 BKN015\n",
            "         PROB30 TEMPO 2414/2416 -DZ BKN012\n",
            "         BECMG 2419/2421 21012KT='\n",
            "Error parsing METAR: Unparsed groups in body 'TAF AMD 2416/2512 2416/2420 SCT010 BKN015 2420/2422 21012KT BKN015' while processing 'TAF AMD EIDW 241611Z 2416/2512 24008KT 9999 FEW005 BKN008\n",
            "         TEMPO 2416/2420 SCT010 BKN015\n",
            "         BECMG 2420/2422 21012KT BKN015='\n",
            "Error parsing METAR: Unparsed groups in body 'TAF 2418/2518 2418/2422 BKN015 2420/2422 21012KT PROB30 2422/2512 -DZ BKN008 2512/2514 BKN020 PROB30 2512/2515 22015G25KT' while processing 'TAF EIDW 241700Z 2418/2518 24008KT 9999 BKN010\n",
            "         TEMPO 2418/2422 BKN015\n",
            "         BECMG 2420/2422 21012KT\n",
            "         PROB30 TEMPO 2422/2512 -DZ BKN008\n",
            "         BECMG 2512/2514 BKN020\n",
            "         PROB30 TEMPO 2512/2515 22015G25KT='\n",
            "Error parsing METAR: Unparsed groups in body 'TAF AMD 2422/2518 2422/2506 22006KT 2422/2512 BKN012 PROB30 2422/2512 -DZ BKN008 PROB30 2511/2514 22014G25KT' while processing 'TAF AMD EIDW 242237Z 2422/2518 22011KT 9999 FEW012 BKN018\n",
            "         TEMPO 2422/2506 22006KT\n",
            "         TEMPO 2422/2512 BKN012\n",
            "         PROB30 TEMPO 2422/2512 -DZ BKN008\n",
            "         PROB30 TEMPO 2511/2514 22014G25KT='\n",
            "Error parsing METAR: Unparsed groups in body 'TAF 2500/2524 2500/2512 BKN012 PROB30 2500/2512 -DZ BKN008 PROB30 2511/2514 22014G25KT PROB40 2521/2524 BKN012' while processing 'TAF EIDW 242300Z 2500/2524 22011KT 9999 FEW012 BKN020\n",
            "         TEMPO 2500/2512 BKN012\n",
            "         PROB30 TEMPO 2500/2512 -DZ BKN008\n",
            "         PROB30 TEMPO 2511/2514 22014G25KT\n",
            "         PROB40 TEMPO 2521/2524 BKN012='\n",
            "Error parsing METAR: Unparsed groups in body 'TAF 2506/2606 2506/2510 22006KT PROB40 2506/2512 BKN012 PROB30 2511/2514 22014G25KT PROB40 2520/2606 BKN012 2523/2601 19008KT 2604/2606 16008KT' while processing 'TAF EIDW 250500Z 2506/2606 22011KT 9999 FEW012 BKN018\n",
            "         TEMPO 2506/2510 22006KT\n",
            "         PROB40 TEMPO 2506/2512 BKN012\n",
            "         PROB30 TEMPO 2511/2514 22014G25KT\n",
            "         PROB40 TEMPO 2520/2606 BKN012\n",
            "         BECMG 2523/2601 19008KT\n",
            "         BECMG 2604/2606 16008KT='\n",
            "Error parsing METAR: Unparsed groups in body 'TAF 2512/2612 2512/2515 BKN012 PROB40 2518/2612 BKN012 2607/2609 19005KT' while processing 'TAF EIDW 251100Z 2512/2612 22010KT 9999 SCT013 BKN016\n",
            "         TEMPO 2512/2515 BKN012\n",
            "         PROB40 TEMPO 2518/2612 BKN012\n",
            "         BECMG 2607/2609 19005KT='\n",
            "Error parsing METAR: Unparsed groups in body 'TAF 2518/2618 PROB40 2518/2614 BKN014 2616/2618 VRB03KT 2614/2618 -DZ BKN012' while processing 'TAF EIDW 251700Z 2518/2618 21008KT 9999 FEW018 BKN025\n",
            "         PROB40 TEMPO 2518/2614 BKN014\n",
            "         BECMG 2616/2618 VRB03KT\n",
            "         TEMPO 2614/2618 -DZ BKN012='\n",
            "Error parsing METAR: Unparsed groups in body 'TAF AMD 2518/2618 PROB40 2518/2614 BKN014 2600/2602 22008KT 2616/2618 VRB03KT 2614/2618 -DZ BKN012' while processing 'TAF AMD EIDW 251910Z 2518/2618 18006KT 9999 FEW018 BKN025\n",
            "         PROB40 TEMPO 2518/2614 BKN014\n",
            "         BECMG 2600/2602 22008KT\n",
            "         BECMG 2616/2618 VRB03KT\n",
            "         TEMPO 2614/2618 -DZ BKN012='\n",
            "Error parsing METAR: Unparsed groups in body 'TAF AMD 2600/2624 2600/2603 25008KT BKN008 PROB40 2603/2614 BKN010 2614/2624 -DZ BKN012 2616/2618 VRB03KT 2620/2622 23007KT' while processing 'TAF AMD EIDW 260003Z 2600/2624 22007KT 9999 FEW010 BKN025\n",
            "         TEMPO 2600/2603 25008KT BKN008\n",
            "         PROB40 TEMPO 2603/2614 BKN010\n",
            "         TEMPO 2614/2624 -DZ BKN012\n",
            "         BECMG 2616/2618 VRB03KT\n",
            "         BECMG 2620/2622 23007KT='\n",
            "Error parsing METAR: Unparsed groups in body 'TAF AMD 2600/2624 2600/2603 25008KT BKN008 PROB40 2603/2614 BKN010 2614/2624 -DZ BKN012 2616/2618 VRB03KT 2620/2622 23007KT' while processing 'TAF AMD EIDW 260003Z 2600/2624 22007KT 9999 FEW010 BKN025\n",
            "         TEMPO 2600/2603 25008KT BKN008\n",
            "         PROB40 TEMPO 2603/2614 BKN010\n",
            "         TEMPO 2614/2624 -DZ BKN012\n",
            "         BECMG 2616/2618 VRB03KT\n",
            "         BECMG 2620/2622 23007KT='\n",
            "Error parsing METAR: Unparsed groups in body 'TAF 2606/2706 2606/2610 VRB03KT BKN009 PROB30 2610/2617 -DZ BKN010 2616/2618 VRB03KT 2617/2706 -DZ BKN010 2621/2623 22007KT PROB30 2622/2706 3000 BR BKN006' while processing 'TAF EIDW 260500Z 2606/2706 22007KT 9999 FEW010 BKN017\n",
            "         TEMPO 2606/2610 VRB03KT BKN009\n",
            "         PROB30 TEMPO 2610/2617 -DZ BKN010\n",
            "         BECMG 2616/2618 VRB03KT\n",
            "         TEMPO 2617/2706 -DZ BKN010\n",
            "         BECMG 2621/2623 22007KT\n",
            "         PROB30 TEMPO 2622/2706 3000 BR BKN006='\n",
            "Error parsing METAR: Unparsed groups in body 'TAF AMD 2608/2706 2608/2614 3000 BR BKN003 PROB30 2609/2612 0800 FG BKN002 2614/2620 9999 BKN012' while processing 'TAF AMD EIDW 260824Z 2608/2706 20006KT 7000 BKN007\n",
            "         TEMPO 2608/2614 3000 BR BKN003\n",
            "         PROB30 TEMPO 2609/2612 0800 FG BKN002\n",
            "         TEMPO 2614/2620 9999 BKN012='\n",
            "Error parsing METAR: Unparsed groups in body 'TAF 2612/2712 PROB40 2612/2614 0800 FG BKN002 2614/2621 9999 NSW BKN012 2710/2712 9999 NSW BKN012' while processing 'TAF EIDW 261100Z 2612/2712 20006KT 3000 -DZ BR BKN004\n",
            "         PROB40 TEMPO 2612/2614 0800 FG BKN002\n",
            "         TEMPO 2614/2621 9999 NSW BKN012\n",
            "         BECMG 2710/2712 9999 NSW BKN012='\n",
            "Error parsing METAR: Unparsed groups in body 'TAF 2618/2718 2618/2703 0800 FG BKN002 2710/2712 24008KT 9999 NSW SCT012 BKN020' while processing 'TAF EIDW 261700Z 2618/2718 VRB03KT 3000 -DZ BR BKN004\n",
            "         TEMPO 2618/2703 0800 FG BKN002\n",
            "         BECMG 2710/2712 24008KT 9999 NSW SCT012 BKN020='\n",
            "Error parsing METAR: Unparsed groups in body 'TAF AMD 2619/2718 2619/2710 3000 -DZ BR BKN004 PROB30 2622/2709 0800 FG BKN002 2710/2712 24008KT 9999 SCT012 BKN020' while processing 'TAF AMD EIDW 261859Z 2619/2718 VRB03KT 8000 BKN008\n",
            "         TEMPO 2619/2710 3000 -DZ BR BKN004\n",
            "         PROB30 TEMPO 2622/2709 0800 FG BKN002\n",
            "         BECMG 2710/2712 24008KT 9999 SCT012 BKN020='\n",
            "Error parsing METAR: Unparsed groups in body 'TAF 2700/2724 2700/2709 3000 -DZ BR FEW002 BKN004 PROB40 2700/2709 0800 FG BKN002 PROB30 2703/2708 FEW006 BKN015 2709/2711 23008KT 9999 FEW012 BKN018 PROB30 2709/2724 -DZ BKN012' while processing 'TAF EIDW 262300Z 2700/2724 VRB03KT 7000 BKN006\n",
            "         TEMPO 2700/2709 3000 -DZ BR FEW002 BKN004\n",
            "         PROB40 TEMPO 2700/2709 0800 FG BKN002\n",
            "         PROB30 TEMPO 2703/2708 FEW006 BKN015\n",
            "         BECMG 2709/2711 23008KT 9999 FEW012 BKN018\n",
            "         PROB30 TEMPO 2709/2724 -DZ BKN012='\n",
            "Error parsing METAR: Unparsed groups in body 'TAF 2706/2806 2706/2709 3000 -DZ BR FEW002 BKN004 PROB30 2706/2709 FEW006 BKN015 2709/2711 FEW012 BKN018 PROB30 2709/2724 -DZ BKN012 PROB30 2804/2806 3000 -DZ BR BKN006' while processing 'TAF EIDW 270500Z 2706/2806 23005KT 9999 BKN006\n",
            "         TEMPO 2706/2709 3000 -DZ BR FEW002 BKN004\n",
            "         PROB30 TEMPO 2706/2709 FEW006 BKN015\n",
            "         BECMG 2709/2711 FEW012 BKN018\n",
            "         PROB30 TEMPO 2709/2724 -DZ BKN012\n",
            "         PROB30 TEMPO 2804/2806 3000 -DZ BR BKN006='\n",
            "Error parsing METAR: Unparsed groups in body 'TAF AMD 2709/2806 2709/2710 0800 -DZ FG BKN002 2710/2712 2500 -DZ BR SCT002 BKN003 2712/2718 9999 SCT005 BKN010 PROB30 2712/2718 2500 -DZ BR BKN003 PROB40 2718/2806 2500 -DZ BR BKN003' while processing 'TAF AMD EIDW 270916Z 2709/2806 21005KT 5000 -DZ SCT003 BKN005\n",
            "         TEMPO 2709/2710 0800 -DZ FG BKN002\n",
            "         TEMPO 2710/2712 2500 -DZ BR SCT002 BKN003\n",
            "         TEMPO 2712/2718 9999 SCT005 BKN010\n",
            "         PROB30 TEMPO 2712/2718 2500 -DZ BR BKN003\n",
            "         PROB40 TEMPO 2718/2806 2500 -DZ BR BKN003='\n",
            "Error parsing METAR: Unparsed groups in body 'TAF AMD 2710/2806 2711/2713 5000 -DZ SCT003 BKN005 2713/2718 9999 SCT005 BKN010 PROB40 2713/2806 2500 -DZ BR BKN003' while processing 'TAF AMD EIDW 271012Z 2710/2806 21005KT 0800 FG BKN002\n",
            "         BECMG 2711/2713 5000 -DZ SCT003 BKN005\n",
            "         TEMPO 2713/2718 9999 SCT005 BKN010\n",
            "         PROB40 TEMPO 2713/2806 2500 -DZ BR BKN003='\n",
            "Error parsing METAR: Unparsed groups in body 'TAF 2712/2812 2712/2718 6000 -DZ SCT003 BKN006 PROB30 2712/2718 3000 BR BKN003 PROB40 2718/2807 3000 -DZ BR BKN003 PROB30 2718/2806 0800 FG BKN002 2805/2807 24008KT 9999 SCT005 BKN010 2807/2812 SCT010 BKN015' while processing 'TAF EIDW 271100Z 2712/2812 21005KT 9999 SCT006 BKN012\n",
            "         TEMPO 2712/2718 6000 -DZ SCT003 BKN006\n",
            "         PROB30 TEMPO 2712/2718 3000 BR BKN003\n",
            "         PROB40 TEMPO 2718/2807 3000 -DZ BR BKN003\n",
            "         PROB30 TEMPO 2718/2806 0800 FG BKN002\n",
            "         BECMG 2805/2807 24008KT 9999 SCT005 BKN010\n",
            "         TEMPO 2807/2812 SCT010 BKN015='\n",
            "Error parsing METAR: Unparsed groups in body 'TAF AMD 2712/2812 2712/2718 6000 -DZ SCT003 BKN006 PROB30 2712/2718 3000 BR BKN003 PROB40 2718/2807 3000 -DZ BR BKN003 PROB30 2718/2806 0800 FG BKN002 2807/2812 SCT010 BKN015' while processing 'TAF AMD EIDW 271214Z 2712/2812 24006KT 9999 SCT006 BKN012\n",
            "         TEMPO 2712/2718 6000 -DZ SCT003 BKN006\n",
            "         PROB30 TEMPO 2712/2718 3000 BR BKN003\n",
            "         PROB40 TEMPO 2718/2807 3000 -DZ BR BKN003\n",
            "         PROB30 TEMPO 2718/2806 0800 FG BKN002\n",
            "         TEMPO 2807/2812 SCT010 BKN015='\n",
            "Error parsing METAR: Unparsed groups in body 'TAF AMD 2715/2812 2715/2718 4000 -DZ SCT003 BKN006 PROB30 2715/2718 2500 -DZ BR BKN003 2717/2719 23006KT PROB40 2718/2807 3000 -DZ BR BKN003 PROB30 2718/2806 0800 FG BKN002 2807/2812 SCT010 BKN015' while processing 'TAF AMD EIDW 271543Z 2715/2812 VRB03KT 9999 SCT006 BKN012\n",
            "         TEMPO 2715/2718 4000 -DZ SCT003 BKN006\n",
            "         PROB30 TEMPO 2715/2718 2500 -DZ BR BKN003\n",
            "         BECMG 2717/2719 23006KT\n",
            "         PROB40 TEMPO 2718/2807 3000 -DZ BR BKN003\n",
            "         PROB30 TEMPO 2718/2806 0800 FG BKN002\n",
            "         TEMPO 2807/2812 SCT010 BKN015='\n",
            "Error parsing METAR: Unparsed groups in body 'TAF 2718/2818 2718/2720 22006KT 2718/2807 4000 -DZ BR BKN006 PROB30 2720/2806 0800 FG BKN002 2807/2809 25009KT 9999 SCT010 BKN015 2809/2818 BKN010' while processing 'TAF EIDW 271700Z 2718/2818 VRB03KT 7000 SCT006 BKN010\n",
            "         BECMG 2718/2720 22006KT\n",
            "         TEMPO 2718/2807 4000 -DZ BR BKN006\n",
            "         PROB30 TEMPO 2720/2806 0800 FG BKN002\n",
            "         BECMG 2807/2809 25009KT 9999 SCT010 BKN015\n",
            "         TEMPO 2809/2818 BKN010='\n",
            "Error parsing METAR: Unparsed groups in body 'TAF 2800/2824 2800/2808 4000 -DZ BR BKN006 PROB30 2800/2807 0800 FG BKN002 2808/2810 24009KT 9999 SCT010 BKN016 2808/2821 BKN010 PROB40 2817/2821 4000 -DZ BR BKN006' while processing 'TAF EIDW 272300Z 2800/2824 21005KT 7000 SCT008 BKN012\n",
            "         TEMPO 2800/2808 4000 -DZ BR BKN006\n",
            "         PROB30 TEMPO 2800/2807 0800 FG BKN002\n",
            "         BECMG 2808/2810 24009KT 9999 SCT010 BKN016\n",
            "         TEMPO 2808/2821 BKN010\n",
            "         PROB40 TEMPO 2817/2821 4000 -DZ BR BKN006='\n",
            "Error parsing METAR: Unparsed groups in body 'TAF 2806/2906 2806/2821 -DZ BKN011 PROB40 2806/2808 4000 BR BKN006 PROB30 2806/2808 0800 FG BKN002 2809/2811 25009KT PROB40 2816/2820 4000 BR BKN006' while processing 'TAF EIDW 280500Z 2806/2906 21005KT 9999 SCT010 BKN016\n",
            "         TEMPO 2806/2821 -DZ BKN011\n",
            "         PROB40 TEMPO 2806/2808 4000 BR BKN006\n",
            "         PROB30 TEMPO 2806/2808 0800 FG BKN002\n",
            "         BECMG 2809/2811 25009KT\n",
            "         PROB40 TEMPO 2816/2820 4000 BR BKN006='\n",
            "Error parsing METAR: Unparsed groups in body 'TAF 2812/2912 PROB30 2812/2816 BKN012 2816/2818 27012KT BKN010 PROB40 2817/2820 3000 -DZ BR BKN005 2819/2821 FEW010 SCT030 2821/2823 24008KT 2905/2907 24013KT 2907/2912 24015G25KT' while processing 'TAF EIDW 281100Z 2812/2912 24007KT 9999 SCT014\n",
            "         PROB30 TEMPO 2812/2816 BKN012\n",
            "         BECMG 2816/2818 27012KT BKN010\n",
            "         PROB40 TEMPO 2817/2820 3000 -DZ BR BKN005\n",
            "         BECMG 2819/2821 FEW010 SCT030\n",
            "         BECMG 2821/2823 24008KT\n",
            "         BECMG 2905/2907 24013KT\n",
            "         TEMPO 2907/2912 24015G25KT='\n",
            "Error parsing METAR: Unparsed groups in body 'TAF 2818/2918 PROB40 2818/2820 3000 -DZ BR BKN005 2819/2821 FEW010 SCT030 2821/2823 24008KT 2905/2907 24013KT 2908/2918 24015G25KT' while processing 'TAF EIDW 281700Z 2818/2918 26008KT 9999 BKN010\n",
            "         PROB40 TEMPO 2818/2820 3000 -DZ BR BKN005\n",
            "         BECMG 2819/2821 FEW010 SCT030\n",
            "         BECMG 2821/2823 24008KT\n",
            "         BECMG 2905/2907 24013KT\n",
            "         TEMPO 2908/2918 24015G25KT='\n",
            "Error parsing METAR: Unparsed groups in body 'TAF 2900/2924 2905/2907 24012KT 2908/2924 24015G26KT' while processing 'TAF EIDW 282300Z 2900/2924 25007KT 9999 FEW020 BKN035\n",
            "         BECMG 2905/2907 24012KT\n",
            "         TEMPO 2908/2924 24015G26KT='\n",
            "Error parsing METAR: Unparsed groups in body 'TAF 2906/3006 2909/2924 24015G26KT 3000/3002 24017KT 3000/3006 24018G30KT' while processing 'TAF EIDW 290500Z 2906/3006 24012KT 9999 FEW020 BKN030\n",
            "         TEMPO 2909/2924 24015G26KT\n",
            "         BECMG 3000/3002 24017KT\n",
            "         TEMPO 3000/3006 24018G30KT='\n",
            "Error parsing METAR: Unparsed groups in body 'TAF 2912/3012 2912/2924 24015G25KT PROB40 2912/2914 BKN014 3000/3002 24017KT 3000/3012 24018G30KT' while processing 'TAF EIDW 291100Z 2912/3012 24012KT 9999 BKN018\n",
            "         TEMPO 2912/2924 24015G25KT\n",
            "         PROB40 TEMPO 2912/2914 BKN014\n",
            "         BECMG 3000/3002 24017KT\n",
            "         TEMPO 3000/3012 24018G30KT='\n",
            "Error parsing METAR: Unparsed groups in body 'TAF 2918/3018 2918/2924 24015G25KT 3000/3002 24017KT 3000/3018 24020G32KT PROB30 3000/3007 -RA BKN010' while processing 'TAF EIDW 291700Z 2918/3018 24012KT 9999 BKN035\n",
            "         TEMPO 2918/2924 24015G25KT\n",
            "         BECMG 3000/3002 24017KT\n",
            "         TEMPO 3000/3018 24020G32KT\n",
            "         PROB30 TEMPO 3000/3007 -RA BKN010='\n",
            "Error parsing METAR: Unparsed groups in body 'TAF 3000/3024 3000/3024 24020G32KT PROB30 3000/3007 -RADZ BKN012 PROB30 3021/3024 24022G37KT' while processing 'TAF EIDW 292300Z 3000/3024 24016KT 9999 FEW012 BKN025\n",
            "         TEMPO 3000/3024 24020G32KT\n",
            "         PROB30 TEMPO 3000/3007 -RADZ BKN012\n",
            "         PROB30 TEMPO 3021/3024 24022G37KT='\n",
            "Error parsing METAR: Unparsed groups in body 'TAF 3006/3106 3006/3024 24018G32KT PROB30 3006/3008 BKN012 3100/3102 21017KT 3100/3106 22022G34KT' while processing 'TAF EIDW 300500Z 3006/3106 24015KT 9999 FEW012 SCT020\n",
            "         TEMPO 3006/3024 24018G32KT\n",
            "         PROB30 TEMPO 3006/3008 BKN012\n",
            "         BECMG 3100/3102 21017KT\n",
            "         TEMPO 3100/3106 22022G34KT='\n",
            "Error parsing METAR: Unparsed groups in body 'TAF 3012/3112 3012/3017 24016G28KT PROB30 3012/3015 BKN014 3017/3019 24017G29KT 3019/3024 24022G34KT PROB30 3020/3108 BKN012 3023/3101 21018KT 3100/3106 22022G34KT 3106/3108 22023G36KT 3108/3112 23026G42KT 4000 RA BKN012' while processing 'TAF EIDW 301100Z 3012/3112 23014KT 9999 FEW012 BKN020\n",
            "         TEMPO 3012/3017 24016G28KT\n",
            "         PROB30 TEMPO 3012/3015 BKN014\n",
            "         BECMG 3017/3019 24017G29KT\n",
            "         TEMPO 3019/3024 24022G34KT\n",
            "         PROB30 TEMPO 3020/3108 BKN012\n",
            "         BECMG 3023/3101 21018KT\n",
            "         TEMPO 3100/3106 22022G34KT\n",
            "         BECMG 3106/3108 22023G36KT\n",
            "         TEMPO 3108/3112 23026G42KT 4000 RA BKN012='\n",
            "Error parsing METAR: Unparsed groups in body 'TAF 3018/3118 3018/3024 23016G27KT PROB40 3019/3024 23022G32KT PROB30 3020/3108 BKN013 3023/3101 21018KT 3100/3106 22021G33KT 3106/3108 22023G36KT 3108/3114 23026G42KT 4000 RA BKN010 3113/3115 25020G32KT 3114/3118 24023G37KT PROB30 3114/3118 4000 -SHRA BKN013' while processing 'TAF EIDW 301700Z 3018/3118 24015KT 9999 FEW013 BKN025\n",
            "         TEMPO 3018/3024 23016G27KT\n",
            "         PROB40 TEMPO 3019/3024 23022G32KT\n",
            "         PROB30 TEMPO 3020/3108 BKN013\n",
            "         BECMG 3023/3101 21018KT\n",
            "         TEMPO 3100/3106 22021G33KT\n",
            "         BECMG 3106/3108 22023G36KT\n",
            "         TEMPO 3108/3114 23026G42KT 4000 RA BKN010\n",
            "         BECMG 3113/3115 25020G32KT\n",
            "         TEMPO 3114/3118 24023G37KT\n",
            "         PROB30 TEMPO 3114/3118 4000 -SHRA BKN013='\n",
            "Error parsing METAR: Unparsed groups in body 'TAF 3100/3124 3100/3106 22018G30KT 3106/3108 22022G35KT 3107/3113 23026G42KT 4000 RA BKN010 3113/3115 25020G32KT 3114/3124 24023G37KT PROB30 3114/3124 4000 -SHRA BKN013' while processing 'TAF EIDW 302300Z 3100/3124 22015KT 9999 FEW020\n",
            "         TEMPO 3100/3106 22018G30KT\n",
            "         BECMG 3106/3108 22022G35KT\n",
            "         TEMPO 3107/3113 23026G42KT 4000 RA BKN010\n",
            "         BECMG 3113/3115 25020G32KT\n",
            "         TEMPO 3114/3124 24023G37KT\n",
            "         PROB30 TEMPO 3114/3124 4000 -SHRA BKN013='\n",
            "Error parsing METAR: Unparsed groups in body 'TAF 3106/0106 3106/3108 22020G32KT 3107/3113 23026G42KT 4000 RA BKN010 3113/3115 25020G32KT 3114/0104 24023G37KT PROB30 3114/0101 4000 -SHRA BKN013 0104/0106 25015G25KT' while processing 'TAF EIDW 310500Z 3106/0106 22015KT 9999 FEW018 BKN020\n",
            "         BECMG 3106/3108 22020G32KT\n",
            "         TEMPO 3107/3113 23026G42KT 4000 RA BKN010\n",
            "         BECMG 3113/3115 25020G32KT\n",
            "         TEMPO 3114/0104 24023G37KT\n",
            "         PROB30 TEMPO 3114/0101 4000 -SHRA BKN013\n",
            "         BECMG 0104/0106 25015G25KT='\n",
            "Error parsing METAR: Unparsed groups in body 'TAF 3112/0112 3112/3114 23022G40KT 4000 RA BKN012 3112/3114 25020G33KT PROB30 3114/0101 4000 -RA BKN014 0104/0106 25015G25KT 0110/0112 29012KT' while processing 'TAF EIDW 311100Z 3112/0112 22020G35KT 9999 FEW018 BKN030\n",
            "         TEMPO 3112/3114 23022G40KT 4000 RA BKN012\n",
            "         BECMG 3112/3114 25020G33KT\n",
            "         PROB30 TEMPO 3114/0101 4000 -RA BKN014\n",
            "         BECMG 0104/0106 25015G25KT\n",
            "         BECMG 0110/0112 29012KT='\n",
            "Error parsing METAR: Unparsed groups in body 'TAF 3118/0118 PROB30 3118/0101 4000 -RA BKN014 0110/0112 29012KT 0114/0116 34005KT' while processing 'TAF EIDW 311700Z 3118/0118 25018G30KT 9999 FEW018 BKN030\n",
            "         PROB30 TEMPO 3118/0101 4000 -RA BKN014\n",
            "         BECMG 0110/0112 29012KT\n",
            "         BECMG 0114/0116 34005KT='\n",
            "Error parsing METAR: Unparsed groups in body 'TAF AMD 3121/0118 3121/0110 25015G28KT PROB30 3121/0101 4000 -RA BKN014 0110/0112 29012KT 0114/0116 34005KT' while processing 'TAF AMD EIDW 312106Z 3121/0118 25012KT 9999 FEW018 BKN030\n",
            "         TEMPO 3121/0110 25015G28KT\n",
            "         PROB30 TEMPO 3121/0101 4000 -RA BKN014\n",
            "         BECMG 0110/0112 29012KT\n",
            "         BECMG 0114/0116 34005KT='\n",
            "Error parsing METAR: Unparsed groups in body 'TAF 0100/0124 PROB40 0100/0110 26015G28KT PROB30 0100/0103 4000 -RA BKN014 0110/0112 28012KT 0114/0116 34005KT' while processing 'TAF EIDW 312300Z 0100/0124 25010KT 9999 FEW010 BKN020\n",
            "         PROB40 TEMPO 0100/0110 26015G28KT\n",
            "         PROB30 TEMPO 0100/0103 4000 -RA BKN014\n",
            "         BECMG 0110/0112 28012KT\n",
            "         BECMG 0114/0116 34005KT='\n",
            "CSV file updated successfully with new METAR data!\n"
          ]
        }
      ]
    },
    {
      "cell_type": "markdown",
      "source": [
        "JOINING THE 12 DATASETS TOGETHER AND ORDERING THEM BY DATE AND TIME"
      ],
      "metadata": {
        "id": "Nheee9-qhIfW"
      }
    },
    {
      "cell_type": "code",
      "source": [
        "import pandas as pd\n",
        "import os\n",
        "\n",
        "# Folder containing CSV files\n",
        "folder_path = \"/content/drive/MyDrive/safety\"  # Update with the actual path\n",
        "\n",
        "# Get all CSV files in the folder\n",
        "csv_files = [f for f in os.listdir(folder_path) if f.endswith('.csv')]\n",
        "\n",
        "# Read and concatenate all CSVs\n",
        "df_list = [pd.read_csv(os.path.join(folder_path, file)) for file in csv_files]\n",
        "merged_df = pd.concat(df_list, ignore_index=True)\n",
        "\n",
        "# Save the merged file\n",
        "merged_df.to_csv(\"/content/drive/MyDrive/safety/merged_output.csv\", index=False)\n",
        "\n",
        "\n",
        "print(\"All files have been merged successfully!\")\n"
      ],
      "metadata": {
        "colab": {
          "base_uri": "https://localhost:8080/"
        },
        "id": "w_uifE0qhIWP",
        "outputId": "97bb1515-fc4c-40e9-c5e1-4842b741faf7"
      },
      "execution_count": 6,
      "outputs": [
        {
          "output_type": "stream",
          "name": "stdout",
          "text": [
            "All files have been merged successfully!\n"
          ]
        }
      ]
    },
    {
      "cell_type": "code",
      "source": [
        "import pandas as pd\n",
        "\n",
        "# Load the merged CSV file\n",
        "df = pd.read_csv(\"merged_output.csv\")\n",
        "\n",
        "# Convert the 'Observation Time' column to datetime format\n",
        "df['Observation Time'] = pd.to_datetime(df['Observation Time'], dayfirst=True, errors='coerce')\n",
        "\n",
        "# Sort by date and time\n",
        "df = df.sort_values(by='Observation Time')\n",
        "\n",
        "# Save the sorted file\n",
        "df.to_csv(\"/content/drive/MyDrive/safety/sorted_output.csv\", index=False)\n",
        "\n",
        "print(\"File sorted successfully!\")\n"
      ],
      "metadata": {
        "colab": {
          "base_uri": "https://localhost:8080/"
        },
        "id": "tGata7OJjA9L",
        "outputId": "69119a0f-7302-4abf-88d2-4b76ea8a376f"
      },
      "execution_count": 11,
      "outputs": [
        {
          "output_type": "stream",
          "name": "stdout",
          "text": [
            "File sorted successfully!\n"
          ]
        }
      ]
    },
    {
      "cell_type": "markdown",
      "source": [
        "# Rest API interaction for flight data collection\n"
      ],
      "metadata": {
        "id": "5rDBvohInIPl"
      }
    },
    {
      "cell_type": "markdown",
      "source": [
        "Data collected from https://aviationstack.com/"
      ],
      "metadata": {
        "id": "QPzqBTuvnQvE"
      }
    },
    {
      "cell_type": "code",
      "source": [
        "pip install requests"
      ],
      "metadata": {
        "id": "Z8gF3x_Bgqao"
      },
      "execution_count": null,
      "outputs": []
    },
    {
      "cell_type": "code",
      "source": [
        "import requests\n",
        "import json\n",
        "import csv\n",
        "\n",
        "# API details\n",
        "base_url = \"https://api.aviationstack.com/v1/\"\n",
        "endpoint = \"flights\"\n",
        "access_key = \"90356201bafcece5d0a8f8e7197a7e5e\"  # Replace with your actual access key\n",
        "\n",
        "# Query parameters to filter flights departing from Dublin Airport (DUB)\n",
        "params = {\n",
        "    'access_key': access_key,\n",
        "    'dep_iata': 'DUB',  # Departures from Dublin\n",
        "    'limit': 5  # Number of records to fetch\n",
        "}\n",
        "\n",
        "# Send request to the API\n",
        "response = requests.get(base_url + endpoint, params=params)\n",
        "\n",
        "# Check response\n",
        "if response.status_code == 200:\n",
        "    data = response.json()\n",
        "\n",
        "    # Define CSV file name\n",
        "    csv_filename = \"flights_data.csv\"\n",
        "\n",
        "    # Define CSV headers\n",
        "    headers = [\n",
        "        \"Flight Number\", \"Airline\", \"Aircraft Model\", \"Registration\",\n",
        "        \"Departure Airport\", \"Scheduled Departure\", \"Estimated Departure\",\n",
        "        \"Actual Departure\", \"Departure Terminal\", \"Departure Gate\", \"Departure Delay\",\n",
        "        \"Arrival Airport\", \"Scheduled Arrival\", \"Estimated Arrival\",\n",
        "        \"Actual Arrival\", \"Arrival Terminal\", \"Arrival Gate\", \"Arrival Delay\",\n",
        "        \"Flight Status\"\n",
        "    ]\n",
        "\n",
        "    # Open CSV file and write data\n",
        "    with open(csv_filename, mode=\"w\", newline=\"\", encoding=\"utf-8\") as file:\n",
        "        writer = csv.writer(file)\n",
        "        writer.writerow(headers)  # Write header row\n",
        "\n",
        "        for flight in data.get('data', []):\n",
        "            def safe_get(dictionary, key, default=\"N/A\"):\n",
        "                return dictionary.get(key, default) if dictionary else default\n",
        "\n",
        "            row = [\n",
        "                safe_get(flight.get('flight'), 'iata'),\n",
        "                safe_get(flight.get('airline'), 'name'),\n",
        "                safe_get(flight.get('aircraft'), 'model'),\n",
        "                safe_get(flight.get('aircraft'), 'registration'),\n",
        "\n",
        "                safe_get(flight.get('departure'), 'airport'),\n",
        "                safe_get(flight.get('departure'), 'scheduled'),\n",
        "                safe_get(flight.get('departure'), 'estimated'),\n",
        "                safe_get(flight.get('departure'), 'actual'),\n",
        "                safe_get(flight.get('departure'), 'terminal'),\n",
        "                safe_get(flight.get('departure'), 'gate'),\n",
        "                safe_get(flight.get('departure'), 'delay'),\n",
        "\n",
        "                safe_get(flight.get('arrival'), 'airport'),\n",
        "                safe_get(flight.get('arrival'), 'scheduled'),\n",
        "                safe_get(flight.get('arrival'), 'estimated'),\n",
        "                safe_get(flight.get('arrival'), 'actual'),\n",
        "                safe_get(flight.get('arrival'), 'terminal'),\n",
        "                safe_get(flight.get('arrival'), 'gate'),\n",
        "                safe_get(flight.get('arrival'), 'delay'),\n",
        "\n",
        "                safe_get(flight, 'flight_status')\n",
        "            ]\n",
        "\n",
        "            writer.writerow(row)  # Write flight data row\n",
        "\n",
        "    print(f\"Data successfully saved to {csv_filename}\")\n",
        "\n",
        "else:\n",
        "    print(f\"Error: {response.status_code}, {response.text}\")"
      ],
      "metadata": {
        "id": "Aq1H3eAinQCE"
      },
      "execution_count": null,
      "outputs": []
    }
  ]
}